,POLTITICAL_UNIT,NAME,WGMS_ID,RIVER_BASIN,FREE_POSITION,LOCAL_CODE,LOCAL_PSFG,GEN_LOCATION,SPEC_LOCATION,LATITUDE,LONGITUDE,PRIM_CLASSIFIC,FORM,FRONTAL_CHARS,EXPOS_ACC_AREA,EXPOS_ABL_AREA,PARENT_GLACIER,REMARKS,REGION,SUBREGION,GLIMS_ID,RGI_ID
0,CH,GRUEEBU-N-II (PART OF B51/17N),4585,,,,,,,46.1716,7.98894,,,,,,460,,Central Europe,Alps,G007989E46172N,RGI50-11.02463
1,CH,GRUEEBU-S (PART OF B51/17N),4586,,,,,,,46.167099,7.99537,,,,,,460,,Central Europe,Alps,G007996E46168N,RGI50-11.02464
2,CH,GRUEEBU-N-I (PART OF B51/17N),4587,,,,,,,46.176102,7.98899,,,,,,460,,Central Europe,Alps,G007986E46177N,
3,CH,FEE-S-I,4588,,,,,,,46.0658,7.9168,,,,,,392,,Central Europe,Alps,G007919E46068N,RGI50-11.02635
4,CH,FEE-S-II,4589,,,,,,,46.059601,7.8909,,,,,,392,,Central Europe,Alps,G007892E46055N,RGI50-11.02635
5,CH,FEE-N-I (ALPHUBEL) (PART OF B53/16N),4590,,,,,,,46.064201,7.87155,,,,,,392,,Central Europe,Alps,G007882E46071N,RGI50-11.02607
6,CH,FEE-N-I (TAESCHHORN) (PART OF B53/16N),4591,,,,,,,46.075901,7.87294,,,,,,392,,Central Europe,Alps,G007871E46080N,RGI50-11.02607
7,CH,FEE-N-I (DOM) (PART OF B53/16N),4592,,,,,,,46.0867,7.86785,,,,,,392,,Central Europe,Alps,G007875E46092N,RGI50-11.02607
8,CH,FEE-N-II,4593,,,,,,,46.102798,7.87832,,,,,,392,,Central Europe,Alps,G007877E46102N,RGI50-11.02594
9,CH,LAVAZ GLATSCHER DA (NO. 82),4594,,,,,,,46.6264,8.93378,,,,,,416,,Central Europe,Alps,G008930E46626N,RGI50-11.01283
10,CH,LAVAZ-W,4595,,,,,,,46.6311,8.92085,,,,,,416,,Central Europe,Alps,G008921E46631N,
11,CH,TSCHIERVA VADRETTIN DA,4596,,,,,,,46.411701,9.89709,,,,,,405,,Central Europe,Alps,,RGI50-11.02011
12,CH,TSCHIERVA  VADRET DA (NO. 93),4597,,,,,,,46.401402,9.8732,,,,,,405,,Central Europe,Alps,,RGI50-11.02051
13,CH,PETIT M. FORT GLACIER DU,4598,,,,,,,46.080299,7.32876,,,,,,372,,Central Europe,Alps,G007329E46078N,RGI50-11.02631
14,CH,M. FORT GLACIER DU,4599,,,,,,,46.087502,7.32228,,,,,,372,,Central Europe,Alps,G007319E46085N,RGI50-11.02610
15,CH,MONT FORT-E,4600,,,,,,,46.079399,7.3223,,,,,,372,,Central Europe,Alps,G007322E46080N,
16,CH,TOURNELON BLANC-SE,4601,,,,,,,45.966,7.32254,,,,,,2664,,Central Europe,Alps,G007320E45966N,RGI50-11.02869
17,CH,TOURNELON BLANC-E,4602,,,,,,,45.970501,7.32382,,,,,,2664,,Central Europe,Alps,G007324E45970N,RGI50-11.02860
18,CH,TOURNELON BLANC-NE,4603,,,,,,,45.974098,7.32511,,,,,,2664,,Central Europe,Alps,G007321E45976N,RGI50-11.02843
19,CH,COL DU TOURNELON BLANC,4604,,,,,,,45.962398,7.31739,,,,,,2664,,Central Europe,Alps,G007318E45962N,RGI50-11.02889
20,CH,GRIESSFIRN-I (NO. 74),4605,,,,,,,46.8339,8.81762,,,,,,425,,Central Europe,Alps,G008816E46833N,RGI50-11.00884
21,CH,GRIESSFIRN-II,4606,,,,,,,46.843601,8.83885,,,,,,425,,Central Europe,Alps,G008836E46834N,
22,CH,HOHLAUBGRAT-E (PART OF B52/67N),4607,,,,,,,46.0532,7.92056,,,,,,3332,,Central Europe,Alps,G007920E46052N,
23,CH,HOHLAUB  (PART OF B52/67N),4608,,,,,,,46.050598,7.90374,,,,,,3332,,Central Europe,Alps,G007902E46050N,RGI50-11.02690
24,CH,OBERS ISCHMEER (PART OF A54L/19),4609,,,,,,,46.562302,8.10377,,,,,,443,,Central Europe,Alps,G008098E46566N,RGI50-11.01346
25,CH,FIESCHER BE (PART OF A54L/19),4610,,,,,,,46.5718,8.025621,,,,,,443,,Central Europe,Alps,G008051E46567N,RGI50-11.01346
26,CH,TSCHINGELFIRN (NO. 60),4611,,,,,,,46.487999,7.83847,,,,,,441,,Central Europe,Alps,G007833E46493N,RGI50-11.01622
27,CH,TSCHINGELSPITZ-S,4612,,,,,,,46.506901,7.84121,,,,,,441,,Central Europe,Alps,G007840E46507N,RGI50-11.01638
28,CH,TSCHINGELGRAT-S,4613,,,,,,,46.507801,7.84904,,,,,,441,,Central Europe,Alps,G007848E46508N,
29,CH,A NEUVE GLACIER DE L'-S,4614,,,,,,,45.9357,7.05444,,,,,,2312,,Central Europe,Alps,G007053E45935N,RGI50-11.02921
30,CH,A NEUVE GLACIER DE L'-N,4615,,,,,,,45.946499,7.05308,,,,,,2312,,Central Europe,Alps,G007050E45949N,RGI50-11.02897
31,CH,TRIAZZA VADRET DA,4616,,,,,,,46.765499,10.352,,,,,,400,,Central Europe,Alps,G010351E46765N,RGI50-11.01058
32,CH,CLARIDEN FIRN-II,4617,,,,,,,46.846401,8.89793,,,,,,2660,,Central Europe,Alps,G008888E46846N,RGI50-11.00843
33,CH,CLARIDEN  FIRN-IV,4618,,,,,,,46.855099,8.91915,,,,,,2660,,Central Europe,Alps,G008914E46857N,
34,CH,CLARIDEN FIRN-I (SPITZALPELIFIRN),4619,,,,,,,46.834,8.8871,,,,,,2660,,Central Europe,Alps,G008883E46833N,RGI50-11.00878
35,CH,CLARIDEN FIRN-III,4620,,,,,,,46.855202,8.91128,,,,,,2660,,Central Europe,Alps,G008907E46855N,RGI50-11.00817
36,CH,ALTELS-S,4621,,,,,,,46.426399,7.6754,,,,,,3302,,Central Europe,Alps,G007678E46427N,RGI50-11.01936
37,CH,ALTELS-NW,4622,,,,,,,46.430901,7.67412,,,,,,3302,,Central Europe,Alps,G007671E46431N,
38,CH,ALTELS-SE,4623,,,,,,,46.4273,7.68191,,,,,,3302,,Central Europe,Alps,G007681E46427N,RGI50-11.01937
39,CH,AMMERTEN-W,4624,,,,,,,46.404999,7.52706,,,,,,435,,Central Europe,Alps,G007525E46407N,RGI50-11.02000
40,CH,AMMERTEN-E (NO. 111),4625,,,,,,,46.415798,7.54659,,,,,,435,,Central Europe,Alps,G007543E46416N,RGI50-11.01943
41,CH,SURETTA-E (PIZ POR),4626,,,,,,,46.5116,9.38415,,,,,,411,,Central Europe,Alps,G009384E46510N,
42,CH,"SURETTA-W (MAIN, NO. 87)",4627,,,,,,,46.511902,9.36721,,,,,,411,,Central Europe,Alps,,RGI50-11.01628
43,CH,FIRNALPELI-E (NO. 75),4628,,,,,,,46.769402,8.44935,,,,,,424,,Central Europe,Alps,G008450E46766N,RGI50-11.01046
44,CH,FIRNALPELIFIRN,4629,,,,,,,46.771999,8.46511,,,,,,424,,Central Europe,Alps,G008462E46770N,RGI50-11.01054
45,CH,"65), GLACIER DE LA PLAINE MORTE",4630,,,,,,,46.379799,7.51662,,,,,,4246,,Central Europe,Alps,G007510E46381N,RGI50-11.02072
46,CH,PLAINE MORTE GLACIER DE LA-W,4631,,,,,,,46.382599,7.48023,,,,,,4246,,Central Europe,Alps,G007482E46381N,RGI50-11.02131
47,CH,PLAINE MORTE GLACIER DE LA-E,4632,,,,,,,46.3843,7.54523,,,,,,4246,,Central Europe,Alps,G007541E46383N,
48,CH,HOMATTU-II,4633,,,,,,,46.241299,8.0804,,,,,,3298,,Central Europe,Alps,G008081E46242N,RGI50-11.02389
49,CH,HOMATTU-I,4634,,,,,,,46.237701,8.07647,,,,,,3298,,Central Europe,Alps,G008076E46238N,RGI50-11.02389
50,CH,SCHOENBUEHL-SE,4635,,,,,,,46.490398,8.08986,,,,,,3427,,Central Europe,Alps,G008087E46496N,RGI50-11.01710
51,CH,SCHOENBUEHL-NW,4636,,,,,,,46.4968,8.08212,,,,,,3427,,Central Europe,Alps,G008082E46499N,RGI50-11.01690
52,CH,LEIDHORN,4637,,,,,,,46.881199,9.99469,,,,,,,,Central Europe,Alps,G009996E46879N,
53,CH,SEE,4638,,,,,,,46.8932,10.0202,,,,,,,,Central Europe,Alps,G010025E46891N,RGI50-11.00734
54,CH,CHAMM (PART OF A10G/08),4639,,,,,,,46.843201,10.0795,,,,,,,,Central Europe,Alps,,RGI50-11.00850
55,CH,CHLEIN WINTERTAELLI,4640,,,,,,,46.836899,10.0424,,,,,,,,Central Europe,Alps,G010043E46836N,RGI50-11.00869
56,CH,ROGGEN,4641,,,,,,,46.836899,10.0031,,,,,,,,Central Europe,Alps,G010010E46836N,
57,CH,VERNELA,4642,,,,,,,46.834598,10.0633,,,,,,,,Central Europe,Alps,G010063E46834N,RGI50-11.00870
58,CH,ZADRELL,4643,,,,,,,46.8167,10.0572,,,,,,,,Central Europe,Alps,G010057E46815N,
59,CH,PLATTENHOERNER,4644,,,,,,,46.8144,10.0413,,,,,,,,Central Europe,Alps,G010039E46813N,
60,CH,JOERI,4645,,,,,,,46.767399,9.96964,,,,,,,,Central Europe,Alps,,RGI50-11.01063
61,CH,HAFENTAELLI,4646,,,,,,,46.816502,9.94573,,,,,,,,Central Europe,Alps,G009945E46816N,
62,CH,CHUEEALP,4647,,,,,,,46.688702,9.90709,,,,,,,,Central Europe,Alps,,RGI50-11.01194
63,CH,CHUEEALPTAL-SERTIG,4648,,,,,,,46.683498,9.89509,,,,,,,,Central Europe,Alps,G009895E46684N,
64,CH,DUCAN,4649,,,,,,,46.6786,9.83079,,,,,,,,Central Europe,Alps,,RGI50-11.01211
65,CH,FORA DIGL KESCH,4650,,,,,,,46.619301,9.86735,,,,,,,,Central Europe,Alps,G009868E46619N,
66,CH,PLAZBI,4651,,,,,,,46.601002,9.84172,,,,,,,,Central Europe,Alps,G009842E46600N,RGI50-11.01350
67,CH,PIZ UEERTSCH,4652,,,,,,,46.5993,9.83512,,,,,,,,Central Europe,Alps,G009834E46599N,
68,CH,TISCH VADRET DA,4653,,,,,,,46.600399,9.82733,,,,,,,,Central Europe,Alps,G009830E46600N,
69,CH,PIZ ELA-E,4654,,,,,,,46.600899,9.71506,,,,,,,,Central Europe,Alps,,RGI50-11.01354
70,CH,PIZ ELA-N,4655,,,,,,,46.6082,9.70884,,,,,,,,Central Europe,Alps,G009708E46604N,
71,CH,PIZ D'ERR-E,4656,,,,,,,46.545399,9.69968,,,,,,,,Central Europe,Alps,,RGI50-11.01503
72,CH,PIZ D'ERR-N,4657,,,,,,,46.549198,9.69071,,,,,,,,Central Europe,Alps,,
73,CH,JUPPENHORN-N,4658,,,,,,,46.470501,9.57282,,,,,,,,Central Europe,Alps,G009574E46469N,
74,CH,TAELIHORN-N,4659,,,,,,,46.481499,9.56153,,,,,,,,Central Europe,Alps,G009565E46480N,RGI50-11.01787
75,CH,PIZ PLATTA-E,4660,,,,,,,46.485901,9.56561,,,,,,,,Central Europe,Alps,G009566E46486N,
76,CH,SUT FUINA GLATSCHER DA,4661,,,,,,,46.535301,9.47236,,,,,,,,Central Europe,Alps,,RGI50-11.01541
77,CH,USSER WISSBERG-I,4662,,,,,,,46.492901,9.5255,,,,,,,,Central Europe,Alps,G009525E46493N,
78,CH,PIOT,4663,,,,,,,46.4063,9.58591,,,,,,,,Central Europe,Alps,,RGI50-11.02057
79,CH,GALLEGIONE VADREC DA,4664,,,,,,,46.369301,9.49474,,,,,,,,Central Europe,Alps,G009494E46369N,
80,CH,PIZZO ROSSO GHIACCIAIO DEL-E,4665,,,,,,,46.3824,9.46533,,,,,,,,Central Europe,Alps,G009465E46383N,RGI50-11.02160
81,CH,SOVRANA VADREC DA LA,4666,,,,,,,46.3923,9.4696,,,,,,,,Central Europe,Alps,G009469E46394N,
82,CH,BLES VADREC DA LA,4667,,,,,,,46.401199,9.47124,,,,,,,,Central Europe,Alps,,
83,CH,PIZ DELLA PALU,4668,,,,,,,46.476799,9.42197,,,,,,,,Central Europe,Alps,G009422E46477N,
84,CH,NIEMET GLATSCHER DA,4669,,,,,,,46.4814,9.41302,,,,,,,,Central Europe,Alps,,
85,CH,SURETTA LUECKLI,4670,,,,,,,46.523701,9.36242,,,,,,,,Central Europe,Alps,G009362E46523N,
86,CH,PIZ MUTTALA,4671,,,,,,,46.516899,9.39346,,,,,,,,Central Europe,Alps,,
87,CH,SCHWARZHORN GR,4672,,,,,,,46.515701,9.35953,,,,,,,,Central Europe,Alps,,RGI50-11.01610
88,CH,SURETTAHORN-W,4673,,,,,,,46.509399,9.358,,,,,,,,Central Europe,Alps,G009358E46509N,
89,CH,TAMBO,4674,,,,,,,46.5051,9.29269,,,,,,,,Central Europe,Alps,,
90,CH,TAMBO GHIACCIAIO DEL,4675,,,,,,,46.4954,9.27803,,,,,,,,Central Europe,Alps,,RGI50-11.01731
91,CH,CURCIUSA GHIACCIAIO,4676,,,,,,,46.458698,9.26766,,,,,,,,Central Europe,Alps,,RGI50-11.01853
92,CH,ZAPPORT-TOBEL,4677,,,,,,,46.491402,9.13198,,,,,,,,Central Europe,Alps,G009132E46490N,
93,CH,ZAPPORT-BREITSTOCK,4678,,,,,,,46.485199,9.12136,,,,,,,,Central Europe,Alps,,RGI50-11.01767
94,CH,ZAPPORT (Z'HORN),4679,,,,,,,46.483799,9.09787,,,,,,,,Central Europe,Alps,,RGI50-11.01769
95,CH,RHEINWALDHORN-NE,4680,,,,,,,46.499,9.04491,,,,,,,,Central Europe,Alps,,RGI50-11.01699
96,CH,HOEHBERG,4681,,,,,,,46.510601,9.10912,,,,,,,,Central Europe,Alps,,RGI50-11.01633
97,CH,CHILCHALP,4682,,,,,,,46.5369,9.15948,,,,,,,,Central Europe,Alps,,RGI50-11.01538
98,CH,FANELL,4683,,,,,,,46.5336,9.13981,,,,,,,,Central Europe,Alps,,RGI50-11.01527
99,CH,GURALETSCH,4684,,,,,,,46.5508,9.13123,,,,,,,,Central Europe,Alps,G009132E46550N,
100,CH,TIERBENDER,4685,,,,,,,46.5275,9.12528,,,,,,,,Central Europe,Alps,G009126E46527N,RGI50-11.01569
101,CH,LORENZHORN,4686,,,,,,,46.523998,9.11605,,,,,,,,Central Europe,Alps,G009116E46524N,
102,CH,SCHWARZHORN-NW,4687,,,,,,,46.5196,9.1107,,,,,,,,Central Europe,Alps,G009109E46520N,
103,CH,CANAL-I,4688,,,,,,,46.5117,9.09872,,,,,,,,Central Europe,Alps,,
104,CH,CANAL-II,4689,,,,,,,46.511002,9.08046,,,,,,,,Central Europe,Alps,,RGI50-11.01630
105,CH,CANAL-III,4690,,,,,,,46.513901,9.07012,,,,,,,,Central Europe,Alps,,
106,CH,GUEFER,4691,,,,,,,46.522999,9.06257,,,,,,,,Central Europe,Alps,,RGI50-11.01557
107,CH,GUEFERHORN-W,4692,,,,,,,46.512402,9.05053,,,,,,,,Central Europe,Alps,G009060E46514N,RGI50-11.01639
108,CH,GRAUHORN,4693,,,,,,,46.509998,9.027,,,,,,,,Central Europe,Alps,,RGI50-11.01627
109,CH,CIMA DI FORNEE,4694,,,,,,,46.524399,9.02351,,,,,,,,Central Europe,Alps,,
110,CH,PIZZO DI CASSIMOI-E,4695,,,,,,,46.5317,9.01981,,,,,,,,Central Europe,Alps,,
111,CH,PIZZO CASSINELLO,4696,,,,,,,46.535198,9.02383,,,,,,,,Central Europe,Alps,,
112,CH,CASSINELL,4697,,,,,,,46.5415,9.02531,,,,,,,,Central Europe,Alps,,
113,CH,PLATTENBERG-E,4698,,,,,,,46.558601,9.02842,,,,,,,,Central Europe,Alps,G009025E46558N,
114,CH,SCHWARZHORN-W GR,4699,,,,,,,46.522202,9.05343,,,,,,,,Central Europe,Alps,G009054E46522N,
115,CH,FUORCLA DIL TERRI,4700,,,,,,,46.592602,9.03987,,,,,,,,Central Europe,Alps,G009042E46593N,
116,CH,PIZ SCHARBODA-NE,4701,,,,,,,46.5825,9.05653,,,,,,,,Central Europe,Alps,G009051E46582N,
117,CH,TERRI GLATSCHER DIL,4702,,,,,,,46.6036,9.02453,,,,,,,,Central Europe,Alps,,RGI50-11.01357
118,CH,PIZZO COROI,4703,,,,,,,46.605202,8.97235,,,,,,,,Central Europe,Alps,G008974E46605N,
119,CH,VALDRAUS VADREC DEL,4704,,,,,,,46.629799,8.95346,,,,,,,,Central Europe,Alps,G008955E46630N,
120,CH,GAGLIANERA GLATSCHER DA,4705,,,,,,,46.6287,8.96257,,,,,,,,Central Europe,Alps,,RGI50-11.01284
121,CH,GREINA GLATSCHER  DALLA,4706,,,,,,,46.630299,8.9796,,,,,,,,Central Europe,Alps,,RGI50-11.01281
122,CH,SUTGLATSCHER,4707,,,,,,,46.634899,8.9745,,,,,,,,Central Europe,Alps,,RGI50-11.01263
123,CH,VALDRAUS GLATSCHER  DA,4708,,,,,,,46.635101,8.96014,,,,,,,,Central Europe,Alps,,RGI50-11.01266
124,CH,PIZ VALDRAUS-NE,4709,,,,,,,46.636101,8.94841,,,,,,,,Central Europe,Alps,G008948E46636N,
125,CH,VALLESA GLATSCHER DA,4710,,,,,,,46.658199,8.91506,,,,,,,,Central Europe,Alps,G008915E46658N,
126,CH,MEDEL GLATSCHER DA-W,4711,,,,,,,46.617901,8.9009,,,,,,,,Central Europe,Alps,,RGI50-11.01293
127,CH,PUZZETTA GLATSCHER DA,4712,,,,,,,46.615501,8.87472,,,,,,,,Central Europe,Alps,,RGI50-11.01321
128,CH,PIZ CRISTALLINA-E,4713,,,,,,,46.610001,8.87849,,,,,,,,Central Europe,Alps,,RGI50-11.01333
129,CH,TUORS GLATSCHER  DALLAS,4714,,,,,,,46.577801,8.8685,,,,,,,,Central Europe,Alps,,RGI50-11.01428
130,CH,BIANCA GLATSCHER DA,4715,,,,,,,46.572498,8.85923,,,,,,,,Central Europe,Alps,G008859E46573N,RGI50-11.01439
131,CH,CASATSCHA GLATSCHER DA,4716,,,,,,,46.568298,8.83824,,,,,,,,Central Europe,Alps,,RGI50-11.01444
132,CH,PIZ VALLATSCHA-SE,4717,,,,,,,46.578201,8.83589,,,,,,,,Central Europe,Alps,,RGI50-11.01425
133,CH,PIZ RONDADURA,4718,,,,,,,46.576401,8.75887,,,,,,,,Central Europe,Alps,G008755E46577N,RGI50-11.01434
134,CH,LAI BLAU GLATSCHER DIL,4719,,,,,,,46.601398,8.77384,,,,,,,,Central Europe,Alps,G008771E46600N,
135,CH,LAI VERD,4720,,,,,,,46.605,8.77262,,,,,,,,Central Europe,Alps,G008773E46605N,RGI50-11.01349
136,CH,PIZ GANNARETSCH-E,4721,,,,,,,46.6129,8.79109,,,,,,,,Central Europe,Alps,,
137,CH,PIZ GIERM-NE I,4722,,,,,,,46.619202,8.78994,,,,,,,,Central Europe,Alps,,RGI50-11.01304
138,CH,PLATTAS GLATSCHER DA-E,4723,,,,,,,46.626701,8.9142,,,,,,,,Central Europe,Alps,,RGI50-11.01280
139,CH,DAVOS LA BUORA  DA,4724,,,,,,,46.618,8.88784,,,,,,,,Central Europe,Alps,,RGI50-11.01302
140,CH,PUZZETTA-II,4725,,,,,,,46.619,8.87873,,,,,,,,Central Europe,Alps,,RGI50-11.01315
141,CH,VAL GARVIEL,4726,,,,,,,46.5881,8.83745,,,,,,,,Central Europe,Alps,G008836E46587N,
142,CH,PIZ GIERM-NE-II,4727,,,,,,,46.616501,8.78988,,,,,,,,Central Europe,Alps,G008790E46617N,
143,CH,PUOZAS GLATSCHER DA,4728,,,,,,,46.6255,8.79141,,,,,,,,Central Europe,Alps,G008791E46624N,RGI50-11.01297
144,CH,GANNARETSCH  DA,4729,,,,,,,46.6175,8.78207,,,,,,,,Central Europe,Alps,,RGI50-11.01308
145,CH,SPULANDA,4730,,,,,,,46.6096,8.77012,,,,,,,,Central Europe,Alps,G008770E46609N,
146,CH,FUORCLA VATGIRA,4731,,,,,,,46.608601,8.77401,,,,,,,,Central Europe,Alps,G008773E46608N,
147,CH,NALPS GLATSCHER DA,4732,,,,,,,46.574799,8.74056,,,,,,,,Central Europe,Alps,,
148,CH,ILS COTSCHENS,4733,,,,,,,46.622898,8.78742,,,,,,,,Central Europe,Alps,G008787E46624N,
149,CH,STGEINA MUOTA,4734,,,,,,,46.603298,8.764749,,,,,,,,Central Europe,Alps,G008765E46603N,RGI50-11.01364
150,CH,FUORCLA DIGL UFFIERN,4735,,,,,,,46.587502,8.73304,,,,,,,,Central Europe,Alps,,RGI50-11.01395
151,CH,BOCCHETTA DEL BLAS,4736,,,,,,,46.578602,8.725,,,,,,,,Central Europe,Alps,,
152,CH,CURNERA GLATSCHER DA,4737,,,,,,,46.5751,8.71317,,,,,,,,Central Europe,Alps,G008716E46573N,
153,CH,PIZ ALPETTA-SE,4738,,,,,,,46.597801,8.70196,,,,,,,,Central Europe,Alps,G008703E46598N,
154,CH,FUORCLA BOREL,4739,,,,,,,46.5807,8.70156,,,,,,,,Central Europe,Alps,G008701E46580N,
155,CH,GIUV GLATSCHER  DA.,4740,,,,,,,46.691399,8.69238,,,,,,,,Central Europe,Alps,G008690E46693N,
156,CH,STREM GLATSCHER  DA,4741,,,,,,,46.741001,8.76028,,,,,,,,Central Europe,Alps,G008765E46743N,
157,CH,CALMUT-I,4742,,,,,,,46.738201,8.77068,,,,,,,,Central Europe,Alps,G008770E46739N,
158,CH,GIUV-II,4743,,,,,,,46.699501,8.69388,,,,,,,,Central Europe,Alps,G008693E46698N,RGI50-11.01175
159,CH,GIUV-III,4744,,,,,,,46.701199,8.70177,,,,,,,,Central Europe,Alps,G008699E46699N,
160,CH,PIZ NAIR-III,4745,,,,,,,46.700199,8.71482,,,,,,,,Central Europe,Alps,G008712E46699N,
161,CH,CALMUT-II,4746,,,,,,,46.7337,8.77319,,,,,,,,Central Europe,Alps,G008774E46734N,
162,CH,PIZ AULT-NW,4747,,,,,,,46.729099,8.777,,,,,,,,Central Europe,Alps,G008778E46729N,
163,CH,PIZ AULT-SW,4748,,,,,,,46.724701,8.77558,,,,,,,,Central Europe,Alps,G008775E46725N,
164,CH,BRICHLIG-S,4749,,,,,,,46.735001,8.81248,,,,,,,,Central Europe,Alps,G008813E46735N,RGI50-11.01134
165,CH,PIZ GENDUSAS,4750,,,,,,,46.721901,8.78336,,,,,,,,Central Europe,Alps,G008782E46722N,
166,CH,FONTANEI,4751,,,,,,,46.735901,8.81773,,,,,,,,Central Europe,Alps,G008816E46736N,
167,CH,CAVARDIRAS-II,4752,,,,,,,46.740299,8.8257,,,,,,,,Central Europe,Alps,G008826E46740N,
168,CH,CAVARDIRAS-I,4753,,,,,,,46.740398,8.81654,,,,,,,,Central Europe,Alps,G008818E46741N,
169,CH,SURPLATTAS-II,4754,,,,,,,46.761002,8.8223,,,,,,,,Central Europe,Alps,G008821E46761N,RGI50-11.01089
170,CH,SURPLATTAS-I,4755,,,,,,,46.763699,8.82499,,,,,,,,Central Europe,Alps,G008825E46762N,
171,CH,CAVREIN-W,4756,,,,,,,46.786098,8.83211,,,,,,,,Central Europe,Alps,,RGI50-11.01010
172,CH,CAVREIN GLATSCHER DA,4757,,,,,,,46.7896,8.84006,,,,,,,,Central Europe,Alps,,RGI50-11.00998
173,CH,PIZ CAMBRIALAS-E,4758,,,,,,,46.785702,8.8583,,,,,,,,Central Europe,Alps,G008858E46786N,RGI50-11.01015
174,CH,FUORCLA CAMBRIALAS-I,4759,,,,,,,46.792999,8.85718,,,,,,,,Central Europe,Alps,G008856E46792N,RGI50-11.00999
175,CH,FUORCLA CAMBRIALS-II,4760,,,,,,,46.7966,8.85335,,,,,,,,Central Europe,Alps,G008851E46797N,RGI50-11.00990
176,CH,HEIMSTOCK-SW,4761,,,,,,,46.8037,8.86271,,,,,,,,Central Europe,Alps,G008864E46804N,RGI50-11.00973
177,CH,HEIMSTOCK-SE,4762,,,,,,,46.804401,8.87714,,,,,,,,Central Europe,Alps,G008876E46805N,RGI50-11.00969
178,CH,PIZ RUSSEIN-E,4763,,,,,,,46.804901,8.90729,,,,,,,,Central Europe,Alps,G008909E46805N,
179,CH,GLIEMS GLATSCHER DA,4764,,,,,,,46.792198,8.92004,,,,,,,,Central Europe,Alps,,RGI50-11.00988
180,CH,PEA BIALA-NW,4765,,,,,,,46.783001,8.93027,,,,,,,,Central Europe,Alps,G008932E46782N,
181,CH,FALLUNS,4766,,,,,,,46.776699,8.9314,,,,,,,,Central Europe,Alps,G008931E46777N,RGI50-11.01050
182,CH,PEA BIALA-E,4767,,,,,,,46.7784,8.938,,,,,,,,Central Europe,Alps,,RGI50-11.01043
183,CH,FUORCLA PUNTEGLIAS,4768,,,,,,,46.785599,8.93951,,,,,,,,Central Europe,Alps,,
184,CH,PIZ URLAUN-S,4769,,,,,,,46.7929,8.93578,,,,,,,,Central Europe,Alps,G008934E46793N,RGI50-11.00995
185,CH,PIZ URLAUN-E,4770,,,,,,,46.797298,8.9359,,,,,,,,Central Europe,Alps,,RGI50-11.00987
186,CH,TUMPIV-S,4771,,,,,,,46.7841,8.98662,,,,,,,,Central Europe,Alps,G008987E46784N,RGI50-11.01028
187,CH,TUMPIV-NE,4772,,,,,,,46.784,8.99054,,,,,,,,Central Europe,Alps,G008990E46787N,
188,CH,CAVISTRAU,4773,,,,,,,46.7869,8.97753,,,,,,,,Central Europe,Alps,,RGI50-11.01011
189,CH,BARCUN FRISAL SUT,4774,,,,,,,46.7915,8.97111,,,,,,,,Central Europe,Alps,,
190,CH,FRISAL  DA-S (PART OF A14N/05),4775,,,,,,,46.796101,8.96469,,,,,,,,Central Europe,Alps,G008965E46801N,RGI50-11.00989
191,CH,FRISAL  DA-NE (PART OF A14N/05),4776,,,,,,,46.804001,8.97802,,,,,,,,Central Europe,Alps,G008976E46805N,RGI50-11.00974
192,CH,CAVUORGA DA VUORZ,4777,,,,,,,46.8382,9.04062,,,,,,,,Central Europe,Alps,G009041E46845N,
193,CH,GAVIROLAS,4778,,,,,,,46.858799,9.05172,,,,,,,,Central Europe,Alps,G009051E46857N,RGI50-11.00803
194,CH,FLUAZ GLATSCHER DA,4779,,,,,,,46.8676,9.06117,,,,,,,,Central Europe,Alps,G009058E46867N,
195,CH,MER GLATSCHER DA,4780,,,,,,,46.872799,9.07445,,,,,,,,Central Europe,Alps,G009073E46872N,RGI50-11.00777
196,CH,DURSCHIN FRISAL,4781,,,,,,,46.803902,8.98588,,,,,,,,Central Europe,Alps,G008987E46805N,
197,CH,SIAT,4782,,,,,,,46.869,9.14911,,,,,,,,Central Europe,Alps,,RGI50-11.00794
198,CH,SEGNAS GLATSCHIU DIL,4783,,,,,,,46.909802,9.25019,,,,,,,,Central Europe,Alps,G009250E46912N,RGI50-11.00695
199,CH,LAVADIGNAS-I,4784,,,,,,,46.898602,9.32989,,,,,,,,Central Europe,Alps,G009329E46899N,
200,CH,TAMINSER,4785,,,,,,,46.895599,9.34554,,,,,,,,Central Europe,Alps,G009345E46895N,
201,CH,GLASER,4786,,,,,,,46.9067,9.33149,,,,,,,,Central Europe,Alps,G009327E46904N,
202,CH,CHLI  (NO. 91),4787,,,,,,,46.924,9.25855,,,,,,,,Central Europe,Alps,G009258E46924N,RGI50-11.00685
203,CH,GROSS SCHNEE,4788,,,,,,,47.247398,9.34489,,,,,,,,Central Europe,Alps,G009346E47248N,
204,CH,BLAU SCHNEE,4789,,,,,,,47.251099,9.3437,,,,,,,,Central Europe,Alps,G009344E47251N,
205,CH,VORABSATTEL-W,4790,,,,,,,46.8736,9.14794,,,,,,,,Central Europe,Alps,G009148E46874N,RGI50-11.00775
206,CH,ALPLIFIRN,4791,,,,,,,46.881802,9.07341,,,,,,,,Central Europe,Alps,,RGI50-11.00761
207,CH,HUSSTOCKEGG-SE,4792,,,,,,,46.879101,9.07858,,,,,,,,Central Europe,Alps,,
208,CH,SCHAFALP,4793,,,,,,,46.918499,9.09028,,,,,,,,Central Europe,Alps,G009092E46918N,
209,CH,LATTEN,4794,,,,,,,46.847302,9.03433,,,,,,,,Central Europe,Alps,G009035E46847N,
210,CH,SELBSANFT,4795,,,,,,,46.841702,8.98434,,,,,,,,Central Europe,Alps,G008984E46841N,RGI50-11.00867
211,CH,GLARNER TOEDI-E,4796,,,,,,,46.8092,8.92575,,,,,,,,Central Europe,Alps,,RGI50-11.00951
212,CH,GLARNER TOEDI-N,4797,,,,,,,46.813702,8.92325,,,,,,,,Central Europe,Alps,G008922E46814N,RGI50-11.00931
213,CH,HINTER ROETIFIRN-S,4798,,,,,,,46.8135,8.93766,,,,,,,,Central Europe,Alps,,
214,CH,HINTER ROETIFIRN,4799,,,,,,,46.818001,8.93779,,,,,,,,Central Europe,Alps,,RGI50-11.00926
215,CH,VORDERER ROETIFIRN,4800,,,,,,,46.825298,8.92751,,,,,,,,Central Europe,Alps,G008929E46821N,RGI50-11.00911
216,CH,SANDFIRN-II,4801,,,,,,,46.817501,8.90501,,,,,,,,Central Europe,Alps,,RGI50-11.00933
217,CH,SANDFIRN-I,4802,,,,,,,46.816898,8.88795,,,,,,,,Central Europe,Alps,G008884E46816N,RGI50-11.00923
218,CH,LANGFIRN,4803,,,,,,,46.864201,8.91809,,,,,,,,Central Europe,Alps,G008918E46862N,RGI50-11.00800
219,CH,SANDFIRN III,4804,,,,,,,46.817402,8.91287,,,,,,,,Central Europe,Alps,G008914E46817N,RGI50-11.00930
220,CH,ROTEN NOSSEN,4805,,,,,,,46.8563,8.8982,,,,,,,,Central Europe,Alps,G008897E46854N,RGI50-11.00824
221,CH,ROTEN PFAFFEN,4806,,,,,,,46.853699,8.88895,,,,,,,,Central Europe,Alps,G008895E46853N,RGI50-11.00835
222,CH,CLARIDEN-N GL,4807,,,,,,,46.844101,8.87164,,,,,,,,Central Europe,Alps,G008872E46843N,RGI50-11.00861
223,CH,CHAMMLIJOCH,4808,,,,,,,46.843399,8.85458,,,,,,,,Central Europe,Alps,G008854E46844N,RGI50-11.00857
224,CH,CLARIDEN-N UR,4809,,,,,,,46.8522,8.86792,,,,,,,,Central Europe,Alps,G008868E46852N,RGI50-11.00826
225,CH,BOES FULEN-S,4810,,,,,,,46.966301,8.9485,,,,,,,,Central Europe,Alps,G008949E46966N,RGI50-11.00633
226,CH,BAECHIFIRN,4811,,,,,,,46.983799,8.9858,,,,,,,,Central Europe,Alps,G008995E46990N,RGI50-11.00621
227,CH,SPITZEN STEIN,4812,,,,,,,46.991699,9.00312,,,,,,,,Central Europe,Alps,G009003E46993N,RGI50-11.00596
228,CH,GUPPENFIRN,4813,,,,,,,46.999802,9.00336,,,,,,,,Central Europe,Alps,G009004E47000N,RGI50-11.00558
229,CH,CHANZLE,4814,,,,,,,47.008499,9.02203,,,,,,,,Central Europe,Alps,G009020E47008N,RGI50-11.00536
230,CH,RADTAELLI,4815,,,,,,,46.991001,8.9847,,,,,,,,Central Europe,Alps,G008978E46986N,
231,CH,ORTSTOCK,4816,,,,,,,46.924099,8.94075,,,,,,,,Central Europe,Alps,G008948E46927N,
232,CH,GRIESSEGGEN,4817,,,,,,,46.8269,8.80171,,,,,,,,Central Europe,Alps,G008806E46826N,RGI50-11.00899
233,CH,CHLI RUCHEN,4818,,,,,,,46.824299,8.7964,,,,,,,,Central Europe,Alps,G008797E46824N,RGI50-11.00913
234,CH,SATTELHOREN-N,4819,,,,,,,46.823002,8.79375,,,,,,,,Central Europe,Alps,G008794E46823N,
235,CH,RUCH CHAELEN,4820,,,,,,,46.817299,8.77919,,,,,,,,Central Europe,Alps,G008781E46817N,
236,CH,FIRNBAND UR,4821,,,,,,,46.812199,8.75285,,,,,,,,Central Europe,Alps,G008754E46812N,RGI50-11.00949
237,CH,WINDGAELLENFIRN,4822,,,,,,,46.802601,8.72904,,,,,,,,Central Europe,Alps,G008728E46804N,RGI50-11.00972
238,CH,STAEFELFIRN,4823,,,,,,,46.8051,8.74351,,,,,,,,Central Europe,Alps,G008750E46806N,RGI50-11.00954
239,CH,ALPGNOFEN FIRN,4824,,,,,,,46.803001,8.77097,,,,,,,,Central Europe,Alps,G008769E46806N,RGI50-11.00963
240,CH,RUCHENFIRN,4825,,,,,,,46.810902,8.7882,,,,,,,,Central Europe,Alps,G008780E46809N,RGI50-11.00924
241,CH,BOCKTSCHINGELFIRN,4826,,,,,,,46.8223,8.81077,,,,,,,,Central Europe,Alps,G008804E46822N,RGI50-11.00906
242,CH,HAELSIFIRN,4827,,,,,,,46.821201,8.82647,,,,,,,,Central Europe,Alps,G008826E46823N,RGI50-11.00907
243,CH,HANGFIRN UR,4828,,,,,,,46.7934,8.82182,,,,,,,,Central Europe,Alps,G008821E46794N,RGI50-11.00997
244,CH,TSCHINGELFIRN-N,4829,,,,,,,46.7817,8.82545,,,,,,,,Central Europe,Alps,G008825E46783N,RGI50-11.01020
245,CH,TSCHINGELFIRN-S,4830,,,,,,,46.7682,8.82249,,,,,,,,Central Europe,Alps,G008831E46767N,RGI50-11.01068
246,CH,OBERAELPLER,4831,,,,,,,46.747101,8.78137,,,,,,,,Central Europe,Alps,G008782E46746N,RGI50-11.01113
247,CH,STALDENFIRN,4832,,,,,,,46.751701,8.77232,,,,,,,,Central Europe,Alps,G008772E46746N,RGI50-11.01104
248,CH,BAECHENFIRN UR,4833,,,,,,,46.7482,8.76307,,,,,,,,Central Europe,Alps,G008765E46748N,RGI50-11.01114
249,CH,HINTER STOECKLI,4834,,,,,,,46.745602,8.75777,,,,,,,,Central Europe,Alps,G008757E46746N,
250,CH,STOECKLIFIRN,4835,,,,,,,46.742001,8.75245,,,,,,,,Central Europe,Alps,G008749E46740N,
251,CH,FELLELIFIRN,4836,,,,,,,46.7047,8.71231,,,,,,,,Central Europe,Alps,,RGI50-11.01168
252,CH,BRISTEN-SE,4837,,,,,,,46.732899,8.6855,,,,,,,,Central Europe,Alps,G008686E46732N,RGI50-11.01136
253,CH,SPILLAUBIELFIRN,4838,,,,,,,46.705799,8.69795,,,,,,,,Central Europe,Alps,,RGI50-11.01167
254,CH,SPILLAUIFIRN,4839,,,,,,,46.7103,8.69151,,,,,,,,Central Europe,Alps,G008692E46708N,
255,CH,STOCKFIRN,4840,,,,,,,46.7346,8.68946,,,,,,,,Central Europe,Alps,G008688E46735N,RGI50-11.01135
256,CH,HANGFIRN UR,4841,,,,,,,46.7365,8.68558,,,,,,,,Central Europe,Alps,G008686E46736N,RGI50-11.01133
257,CH,BRISTEN-N,4842,,,,,,,46.743698,8.68313,,,,,,,,Central Europe,Alps,G008683E46743N,
258,CH,CHLUESER,4843,,,,,,,46.728401,8.68147,,,,,,,,Central Europe,Alps,G008682E46728N,
259,CH,BAECHENFIRN-I,4844,,,,,,,46.681198,8.64116,,,,,,,,Central Europe,Alps,G008642E46681N,
260,CH,BAECHENFIRN-II,4845,,,,,,,46.683899,8.63992,,,,,,,,Central Europe,Alps,G008637E46685N,
261,CH,BAECHENFIRN-III,4846,,,,,,,46.677601,8.6437,,,,,,,,Central Europe,Alps,G008642E46677N,
262,CH,WILDEN MATTEN-E,4847,,,,,,,46.579102,8.67673,,,,,,,,Central Europe,Alps,G008676E46580N,
263,CH,UNTER SCHATZFIRN,4848,,,,,,,46.5769,8.62971,,,,,,,,Central Europe,Alps,G008629E46577N,RGI50-11.01430
264,CH,OBER SCHATZFIRN,4849,,,,,,,46.5816,8.61807,,,,,,,,Central Europe,Alps,G008618E46580N,RGI50-11.01394
265,CH,GITZIAELPETLI ('73 COMBINED),4850,,,,,,,46.590599,8.61305,,,,,,,,Central Europe,Alps,G008616E46591N,
266,CH,HINTER GURSCHEN,4851,,,,,,,46.6049,8.6238,,,,,,,,Central Europe,Alps,G008624E46605N,
267,CH,GURSCHENFIRN,4852,,,,,,,46.605,8.61336,,,,,,,,Central Europe,Alps,G008612E46604N,RGI50-11.01344
268,CH,GUSPISFIRN,4853,,,,,,,46.576199,8.61013,,,,,,,,Central Europe,Alps,G008609E46576N,
269,CH,LUCENDRO GHIACCIAIO DI,4854,,,,,,,46.5411,8.52071,,,,,,,,Central Europe,Alps,G008521E46542N,RGI50-11.01518
270,CH,ROTTAELLI-W,4855,,,,,,,46.543499,8.46208,,,,,,,,Central Europe,Alps,G008463E46541N,RGI50-11.01510
271,CH,CHLI MUTTEN (PART OF A51E/23),4856,,,,,,,46.541901,8.43728,,,,,,,,Central Europe,Alps,G008437E46541N,RGI50-11.01514
272,CH,GROSS MUTTEN,4857,,,,,,,46.544601,8.43212,,,,,,,,Central Europe,Alps,G008431E46544N,RGI50-11.01502
273,CH,MUTTENSTOECK,4858,,,,,,,46.549198,8.42959,,,,,,,,Central Europe,Alps,G008430E46549N,RGI50-11.01496
274,CH,DEIERENAEPETLI-W,4859,,,,,,,46.551899,8.42573,,,,,,,,Central Europe,Alps,G008425E46552N,RGI50-11.01493
275,CH,KLEIN FURKA-E,4860,,,,,,,46.586201,8.4107,,,,,,,,Central Europe,Alps,G008409E46586N,
276,CH,SIDELENGRAT-E,4861,,,,,,,46.589802,8.41207,,,,,,,,Central Europe,Alps,G008411E46590N,
277,CH,GROSS FURKA-S ('73 COMBINED),4862,,,,,,,46.593399,8.41605,,,,,,,,Central Europe,Alps,G008416E46593N,RGI50-11.01382
278,CH,SIDELEN,4863,,,,,,,46.597801,8.42004,,,,,,,,Central Europe,Alps,G008421E46606N,RGI50-11.01338
279,CH,SUNNIG-I,4864,,,,,,,46.6157,8.43995,,,,,,,,Central Europe,Alps,G008440E46616N,
280,CH,SUNNIG-II,4865,,,,,,,46.617401,8.44651,,,,,,,,Central Europe,Alps,G008448E46618N,
281,CH,MUEETERLISHORN-S,4866,,,,,,,46.622299,8.50144,,,,,,,,Central Europe,Alps,G008501E46623N,RGI50-11.01301
282,CH,ROTENBERGFIRN,4867,,,,,,,46.628502,8.51071,,,,,,,,Central Europe,Alps,G008514E46630N,
283,CH,WILDEN MATTEN-W ('73 ONLY AREA),4868,,,,,,,46.580101,8.67023,,,,,,,,Central Europe,Alps,G008671E46580N,
284,CH,ROTHORN-W,4869,,,,,,,46.5942,8.61052,,,,,,,,Central Europe,Alps,G008610E46594N,
285,CH,GITZIALPETLI-W ('73 ONLY AREA),4870,,,,,,,46.587898,8.60908,,,,,,,,Central Europe,Alps,G008609E46588N,
286,CH,GLOGGENTUERMLI,4871,,,,,,,46.5746,8.59052,,,,,,,,Central Europe,Alps,G008593E46575N,
287,CH,STEGEN-N,4872,,,,,,,46.551102,8.517,,,,,,,,Central Europe,Alps,G008518E46551N,
288,CH,BLAUBERG-S,4873,,,,,,,46.620602,8.49227,,,,,,,,Central Europe,Alps,G008492E46620N,
289,CH,MITTAG,4874,,,,,,,46.634701,8.5252,,,,,,,,Central Europe,Alps,G008524E46634N,
290,CH,FELDSCHIJEN,4875,,,,,,,46.627701,8.50286,,,,,,,,Central Europe,Alps,G008502E46630N,RGI50-11.01291
291,CH,BLAUBERG,4876,,,,,,,46.6269,8.4937,,,,,,,,Central Europe,Alps,G008495E46626N,RGI50-11.01287
292,CH,LOCHBERG,4877,,,,,,,46.625301,8.47277,,,,,,,,Central Europe,Alps,G008471E46625N,RGI50-11.01294
293,CH,MAESSPLANGGSTOCK,4878,,,,,,,46.654499,8.42369,,,,,,,,Central Europe,Alps,G008424E46655N,RGI50-11.01231
294,CH,EGGSTOCK (ONLY '73),4879,,,,,,,46.654598,8.41193,,,,,,,,Central Europe,Alps,G008414E46655N,
295,CH,GWAECHTENHORN,4880,,,,,,,46.687801,8.41907,,,,,,,,Central Europe,Alps,G008417E46689N,RGI50-11.01199
296,CH,ROTSTOCK-E,4881,,,,,,,46.683102,8.43859,,,,,,,,Central Europe,Alps,G008438E46684N,RGI50-11.01206
297,CH,BRUNNENFIRN-W,4882,,,,,,,46.683899,8.44906,,,,,,,,Central Europe,Alps,G008449E46685N,RGI50-11.01203
298,CH,BRUNNENFIRN-E,4883,,,,,,,46.679298,8.46074,,,,,,,,Central Europe,Alps,G008459E46681N,RGI50-11.01212
299,CH,STOCK,4884,,,,,,,46.671101,8.47627,,,,,,,,Central Europe,Alps,G008475E46672N,RGI50-11.01218
300,CH,FLACHENSTEINFIRN,4885,,,,,,,46.6856,8.46478,,,,,,,,Central Europe,Alps,G008461E46687N,RGI50-11.01187
301,CH,HANGFIRN UR,4886,,,,,,,46.714199,8.48363,,,,,,,,Central Europe,Alps,G008483E46714N,RGI50-11.01151
302,CH,ZENDEN,4887,,,,,,,46.707901,8.49005,,,,,,,,Central Europe,Alps,G008490E46708N,
303,CH,SALBIT,4888,,,,,,,46.682301,8.53008,,,,,,,,Central Europe,Alps,G008529E46682N,
304,CH,RORFIRN,4889,,,,,,,46.690399,8.52632,,,,,,,,Central Europe,Alps,G008525E46691N,RGI50-11.01197
305,CH,KARTIGELFIRN,4890,,,,,,,46.698601,8.51472,,,,,,,,Central Europe,Alps,G008516E46700N,
306,CH,RUETIFIRN,4891,,,,,,,46.715,8.50065,,,,,,,,Central Europe,Alps,G008498E46713N,RGI50-11.01146
307,CH,GRIESSENFIRN (UR),4892,,,,,,,46.725899,8.48125,,,,,,,,Central Europe,Alps,G008482E46726N,RGI50-11.01141
308,CH,BLAUGAND,4893,,,,,,,46.729599,8.47739,,,,,,,,Central Europe,Alps,G008477E46730N,RGI50-11.01137
309,CH,STUCKLISTOCK (ONLY '73),4894,,,,,,,46.7187,8.48634,,,,,,,,Central Europe,Alps,G008486E46719N,
310,CH,TSCHINGELFIRN,4895,,,,,,,46.716999,8.47846,,,,,,,,Central Europe,Alps,G008477E46717N,RGI50-11.01145
311,CH,CHALCHTALFIRN,4896,,,,,,,46.715401,8.45096,,,,,,,,Central Europe,Alps,G008455E46717N,RGI50-11.01148
312,CH,SUSTENLOCHFIRN,4897,,,,,,,46.743301,8.44625,,,,,,,,Central Europe,Alps,G008449E46745N,
313,CH,CHLI SUSTLIFIRN,4898,,,,,,,46.7505,8.44638,,,,,,,,Central Europe,Alps,G008444E46751N,RGI50-11.01108
314,CH,STOESSENFIRN-I,4899,,,,,,,46.760399,8.4518,,,,,,,,Central Europe,Alps,G008451E46761N,RGI50-11.01085
315,CH,STOESSENFIRN-II,4900,,,,,,,46.7612,8.45967,,,,,,,,Central Europe,Alps,G008459E46766N,RGI50-11.01085
316,CH,STOESSENFIRN-III,4901,,,,,,,46.766602,8.46632,,,,,,,,Central Europe,Alps,G008466E46768N,RGI50-11.01070
317,CH,MURMETSPLANGGSTOCK,4902,,,,,,,46.762001,8.47278,,,,,,,,Central Europe,Alps,G008473E46762N,
318,CH,WICHELPLANGGFIRN,4903,,,,,,,46.763699,8.47936,,,,,,,,Central Europe,Alps,G008479E46766N,RGI50-11.01076
319,CH,HOEHENBERG (ONLY '73),4904,,,,,,,46.77,8.48603,,,,,,,,Central Europe,Alps,G008486E46769N,
320,CH,CHUEEFADFIRN-W,4905,,,,,,,46.770802,8.4939,,,,,,,,Central Europe,Alps,G008492E46771N,RGI50-11.01062
321,CH,ROSSFIRN-W,4906,,,,,,,46.775101,8.51886,,,,,,,,Central Europe,Alps,G008516E46777N,RGI50-11.01042
322,CH,ROSSFIRN-E,4907,,,,,,,46.773102,8.53323,,,,,,,,Central Europe,Alps,G008534E46774N,RGI50-11.01055
323,CH,SEWENZWAECHTEN,4908,,,,,,,46.763199,8.53826,,,,,,,,Central Europe,Alps,G008538E46765N,RGI50-11.01078
324,CH,BAECHENFIRN UR,4909,,,,,,,46.7677,8.54097,,,,,,,,Central Europe,Alps,G008540E46769N,RGI50-11.01061
325,CH,ZWAECHTEN,4910,,,,,,,46.7775,8.54248,,,,,,,,Central Europe,Alps,G008540E46777N,RGI50-11.01044
326,CH,SASSFIRN,4911,,,,,,,46.779098,8.56216,,,,,,,,Central Europe,Alps,G008559E46781N,RGI50-11.01032
327,CH,SCHINDLACH,4912,,,,,,,46.7673,8.57762,,,,,,,,Central Europe,Alps,G008577E46767N,
328,CH,LEUTSCHACHFIRN,4913,,,,,,,46.778999,8.57525,,,,,,,,Central Europe,Alps,G008572E46779N,
329,CH,VORDER LOCHSTOCK,4914,,,,,,,46.6408,8.5423,,,,,,,,Central Europe,Alps,G008543E46641N,
330,CH,HINTER LOCHSTOCK ('73 COMBINED),4915,,,,,,,46.634602,8.52781,,,,,,,,Central Europe,Alps,G008530E46637N,
331,CH,SCHWARZ STOECKLI-E,4916,,,,,,,46.635601,8.51999,,,,,,,,Central Europe,Alps,G008519E46635N,
332,CH,SCHWARZ STOECKLI-W,4917,,,,,,,46.6348,8.514749,,,,,,,,Central Europe,Alps,G008515E46635N,
333,CH,GROSS BAND,4918,,,,,,,46.6357,8.50824,,,,,,,,Central Europe,Alps,G008508E46636N,
334,CH,ROTFIRN,4919,,,,,,,46.651699,8.42756,,,,,,,,Central Europe,Alps,G008425E46651N,RGI50-11.01234
335,CH,MAASPLANGGFIRN (PART OF A51F/15),4920,,,,,,,46.6726,8.41225,,,,,,,,Central Europe,Alps,G008410E46670N,RGI50-11.01215
336,CH,ROTSTOCK-W UR,4921,,,,,,,46.685001,8.43209,,,,,,,,Central Europe,Alps,G008433E46685N,RGI50-11.01204
337,CH,CHELENALP-S,4922,,,,,,,46.673,8.46585,,,,,,,,Central Europe,Alps,G008466E46673N,
338,CH,BERGSEESCHIJEN,4923,,,,,,,46.6675,8.47881,,,,,,,,Central Europe,Alps,G008479E46667N,RGI50-11.01221
339,CH,BRUNNENFIRN-S,4924,,,,,,,46.6973,8.465,,,,,,,,Central Europe,Alps,G008464E46697N,RGI50-11.01177
340,CH,HANGFIRN (RUETIFIRN),4925,,,,,,,46.721298,8.49162,,,,,,,,Central Europe,Alps,G008492E46721N,RGI50-11.01142
341,CH,CHLI SUSTLI-N,4926,,,,,,,46.754101,8.44645,,,,,,,,Central Europe,Alps,G008446E46755N,RGI50-11.01101
342,CH,WICHELPLANG-N (ONLY '73),4927,,,,,,,46.7682,8.48337,,,,,,,,Central Europe,Alps,G008427E46731N,RGI50-11.01073
343,CH,BAERENGRUEBEN,4928,,,,,,,46.775299,8.49791,,,,,,,,Central Europe,Alps,G008497E46775N,RGI50-11.01053
344,CH,CHUEEFADSTOCK (PART OF A51F/51),4929,,,,,,,46.772499,8.50702,,,,,,,,Central Europe,Alps,G008506E46773N,RGI50-11.01060
345,CH,CHUEEFADFIRN-E (PART OF A51F/51),4930,,,,,,,46.777,8.50842,,,,,,,,Central Europe,Alps,G008508E46778N,RGI50-11.01039
346,CH,ROSS-S (ONLY '73),4931,,,,,,,46.770401,8.53579,,,,,,,,Central Europe,Alps,G008536E46770N,
347,CH,BAECHEN-S,4932,,,,,,,46.761299,8.54869,,,,,,,,Central Europe,Alps,G008545E46763N,
348,CH,SCHNEEHUEENER,4933,,,,,,,46.775398,8.57779,,,,,,,,Central Europe,Alps,G008577E46775N,
349,CH,GRIESSBRAWEN,4934,,,,,,,46.7924,8.58994,,,,,,,,Central Europe,Alps,G008592E46792N,
350,CH,CHLI KROENTEN,4935,,,,,,,46.786202,8.5754,,,,,,,,Central Europe,Alps,G008576E46786N,RGI50-11.01016
351,CH,KROENTEN,4936,,,,,,,46.7836,8.57011,,,,,,,,Central Europe,Alps,G008570E46784N,RGI50-11.01027
352,CH,RUNDSTOCK-W,4937,,,,,,,46.786301,8.56231,,,,,,,,Central Europe,Alps,G008563E46786N,RGI50-11.01013
353,CH,GLATT FIRN-S,4938,,,,,,,46.785599,8.54265,,,,,,,,Central Europe,Alps,G008531E46781N,RGI50-11.00994
354,CH,GUGGITALERSCHNEE (ONLY '73),4939,,,,,,,46.8242,8.55261,,,,,,,,Central Europe,Alps,G008552E46823N,
355,CH,CHLITALER FIRN-S,4940,,,,,,,46.855701,8.55064,,,,,,,,Central Europe,Alps,G008550E46855N,RGI50-11.00821
356,CH,CHLITALER FIRN-N,4941,,,,,,,46.8648,8.54034,,,,,,,,Central Europe,Alps,G008538E46864N,RGI50-11.00796
357,CH,BLUEEMLISALPFIRN,4942,,,,,,,46.846901,8.53341,,,,,,,,Central Europe,Alps,G008531E46844N,RGI50-11.00830
358,CH,SCHLOSSFIRN,4943,,,,,,,46.8507,8.50858,,,,,,,,Central Europe,Alps,G008507E46851N,RGI50-11.00828
359,CH,SCHOENTALER FIRN,4944,,,,,,,46.8545,8.4916,,,,,,,,Central Europe,Alps,G008492E46854N,RGI50-11.00827
360,CH,HASENSTOCK,4945,,,,,,,46.855499,8.48376,,,,,,,,Central Europe,Alps,G008483E46857N,
361,CH,SCHLITTCHUECHEN,4946,,,,,,,46.858299,8.47332,,,,,,,,Central Europe,Alps,G008471E46859N,
362,CH,CHLI KROENTEN-E,4947,,,,,,,46.784302,8.58191,,,,,,,,Central Europe,Alps,G008580E46784N,
363,CH,GRAW STOCK,4948,,,,,,,46.783699,8.55832,,,,,,,,Central Europe,Alps,G008557E46784N,RGI50-11.01007
364,CH,GLATT-N,4949,,,,,,,46.7929,8.53232,,,,,,,,Central Europe,Alps,G008533E46794N,RGI50-11.00964
365,CH,URI-ROTSTOCK-E,4950,,,,,,,46.859402,8.54023,,,,,,,,Central Europe,Alps,G008542E46859N,RGI50-11.00813
366,CH,FIRNBAND UR,4951,,,,,,,46.821201,8.48833,,,,,,,,Central Europe,Alps,G008487E46820N,
367,CH,SCHLOSSBERG-S,4952,,,,,,,46.8065,8.52604,,,,,,,,Central Europe,Alps,G008526E46806N,
368,CH,GRIESSHUBEL,4953,,,,,,,46.792999,8.52184,,,,,,,,Central Europe,Alps,G008522E46792N,
369,CH,CHLI SPANNORT-II,4954,,,,,,,46.783199,8.51248,,,,,,,,Central Europe,Alps,G008512E46783N,RGI50-11.01006
370,CH,BAERENZAEHN,4955,,,,,,,46.778801,8.49929,,,,,,,,Central Europe,Alps,G008501E46777N,RGI50-11.01034
371,CH,GRASSEN-E,4956,,,,,,,46.773602,8.4861,,,,,,,,Central Europe,Alps,G008486E46773N,RGI50-11.01049
372,CH,GRASSEN-W,4957,,,,,,,46.771,8.47688,,,,,,,,Central Europe,Alps,G008475E46770N,RGI50-11.01048
373,CH,FIRNALPELI-W,4958,,,,,,,46.775799,8.44293,,,,,,,,Central Europe,Alps,G008443E46772N,RGI50-11.01030
374,CH,TITLIS,4959,,,,,,,46.7803,8.43384,,,,,,,,Central Europe,Alps,G008432E46781N,RGI50-11.01019
375,CH,SULZLI ('73 COMBINED),4960,,,,,,,46.7743,8.40362,,,,,,,,Central Europe,Alps,G008406E46773N,RGI50-11.01051
376,CH,JOCH-E,4961,,,,,,,46.767101,8.39956,,,,,,,,Central Europe,Alps,G008396E46768N,
377,CH,SCHLOSSBERG-N ('73 ONLY AREA),4962,,,,,,,46.810902,8.53268,,,,,,,,Central Europe,Alps,G008534E46812N,
378,CH,CHLI SPANNORT-I,4963,,,,,,,46.7859,8.51777,,,,,,,,Central Europe,Alps,G008511E46781N,RGI50-11.01006
379,CH,CHLI SPANNORT-III,4964,,,,,,,46.780602,8.50718,,,,,,,,Central Europe,Alps,G008506E46780N,RGI50-11.01006
380,CH,SCHEIDEGG,4965,,,,,,,46.778,8.49273,,,,,,,,Central Europe,Alps,G008493E46775N,RGI50-11.01033
381,CH,UNTER ROTEGG,4966,,,,,,,46.777698,8.42987,,,,,,,,Central Europe,Alps,G008432E46777N,RGI50-11.01019
382,CH,OBER ROTEGG,4967,,,,,,,46.773201,8.42717,,,,,,,,Central Europe,Alps,G008427E46774N,RGI50-11.01038
383,CH,JOCH-W,4968,,,,,,,46.7663,8.38645,,,,,,,,Central Europe,Alps,G008390E46764N,RGI50-11.01072
384,CH,MAEHREN-E,4969,,,,,,,46.762001,8.37067,,,,,,,,Central Europe,Alps,G008371E46760N,
385,CH,CHLI LI,4970,,,,,,,46.769699,8.41532,,,,,,,,Central Europe,Alps,G008416E46772N,RGI50-11.01057
386,CH,WENDEN,4971,,,,,,,46.762299,8.43875,,,,,,,,Central Europe,Alps,G008440E46766N,RGI50-11.01067
387,CH,URAT,4972,,,,,,,46.750702,8.42675,,,,,,,,Central Europe,Alps,G008427E46750N,RGI50-11.01107
388,CH,OBERTAL-W,4973,,,,,,,46.748901,8.43326,,,,,,,,Central Europe,Alps,G008433E46749N,RGI50-11.01112
389,CH,OBERTAL-E,4974,,,,,,,46.748798,8.43981,,,,,,,,Central Europe,Alps,G008438E46751N,RGI50-11.01109
390,CH,STEIN (NO. 53),4975,,,,,,,46.696701,8.42838,,,,,,,,Central Europe,Alps,G008431E46695N,RGI50-11.01144
391,CH,GIGLISTOCK,4976,,,,,,,46.708698,8.38937,,,,,,,,Central Europe,Alps,G008389E46708N,RGI50-11.01159
392,CH,TALEGGLI,4977,,,,,,,46.711498,8.38811,,,,,,,,Central Europe,Alps,G008386E46711N,RGI50-11.01152
393,CH,GIGLI,4978,,,,,,,46.713299,8.37898,,,,,,,,Central Europe,Alps,G008378E46713N,RGI50-11.01150
394,CH,HINDER GADENLAUIEGG,4979,,,,,,,46.715198,8.37117,,,,,,,,Central Europe,Alps,G008372E46714N,
395,CH,VORDER TIERBERG,4980,,,,,,,46.695202,8.39305,,,,,,,,Central Europe,Alps,G008392E46694N,RGI50-11.01176
396,CH,MITTLER TIERBERG,4981,,,,,,,46.686298,8.38897,,,,,,,,Central Europe,Alps,G008391E46687N,RGI50-11.01202
397,CH,HINTER TIERBERG,4982,,,,,,,46.681801,8.38366,,,,,,,,Central Europe,Alps,G008385E46682N,RGI50-11.01209
398,CH,MAASPLANGGSTOCK-W (ONLY '73),4983,,,,,,,46.671799,8.39264,,,,,,,,Central Europe,Alps,G008392E46672N,RGI50-11.01219
399,CH,WYSSE NOLLEN-E,4984,,,,,,,46.654598,8.40801,,,,,,,,Central Europe,Alps,G008408E46655N,RGI50-11.01233
400,CH,TRIFTTAELLI,4985,,,,,,,46.690399,8.31845,,,,,,,,Central Europe,Alps,G008317E46691N,RGI50-11.01196
401,CH,TOBIGER,4986,,,,,,,46.695801,8.31723,,,,,,,,Central Europe,Alps,G008316E46696N,RGI50-11.01178
402,CH,CHLI TITLIS-S (ONLY '73),4987,,,,,,,46.7705,8.42843,,,,,,,,Central Europe,Alps,G008429E46770N,
403,CH,SCHATTMIGSTOCK,4988,,,,,,,46.753399,8.43073,,,,,,,,Central Europe,Alps,G008430E46754N,RGI50-11.01103
404,CH,UESSERI GADENLAUIEGG,4989,,,,,,,46.713402,8.36721,,,,,,,,Central Europe,Alps,G008366E46713N,
405,CH,DROSISTOCK-W,4990,,,,,,,46.711601,8.37241,,,,,,,,Central Europe,Alps,G008373E46712N,
406,CH,DROSI-S (PART OF A54E/18),4991,,,,,,,46.702499,8.38533,,,,,,,,Central Europe,Alps,G008384E46703N,
407,CH,DROSILI (PART OF A54E/18),4992,,,,,,,46.709702,8.38023,,,,,,,,Central Europe,Alps,G008380E46709N,RGI50-11.01158
408,CH,SCHAFEGG-E (PART OF A54E/25),4993,,,,,,,46.6749,8.34956,,,,,,,,Central Europe,Alps,G008349E46674N,
409,CH,SCHAFEGG (PART OF A54E/25),4994,,,,,,,46.674999,8.33649,,,,,,,,Central Europe,Alps,G008337E46675N,
410,CH,SCHOENHUBEL-S,4995,,,,,,,46.6921,8.33155,,,,,,,,Central Europe,Alps,G008331E46692N,RGI50-11.01191
411,CH,SCHOENHUBEL-W,4996,,,,,,,46.6949,8.32506,,,,,,,,Central Europe,Alps,G008325E46695N,RGI50-11.01186
412,CH,MAEHRENHORN-N,4997,,,,,,,46.695,8.30806,,,,,,,,Central Europe,Alps,G008307E46694N,
413,CH,OBRI GUMM,4998,,,,,,,46.6959,8.30154,,,,,,,,Central Europe,Alps,G008302E46696N,
414,CH,WYSSE SCHJIEN-W,4999,,,,,,,46.686001,8.31184,,,,,,,,Central Europe,Alps,G008313E46686N,
415,CH,GUMMICHAELEN,5000,,,,,,,46.6688,8.32332,,,,,,,,Central Europe,Alps,G008324E46669N,RGI50-11.01220
416,CH,HOMAD,5001,,,,,,,46.658798,8.33753,,,,,,,,Central Europe,Alps,G008337E46659N,
417,CH,DIECHTER-W (PART OF A54F/05),5002,,,,,,,46.649799,8.33607,,,,,,,,Central Europe,Alps,G008336E46649N,
418,CH,DIECHTER-S,5003,,,,,,,46.639702,8.35942,,,,,,,,Central Europe,Alps,G008360E46641N,RGI50-11.01255
419,CH,AELPLI,5004,,,,,,,46.6325,8.36582,,,,,,,,Central Europe,Alps,G008367E46634N,RGI50-11.01261
420,CH,AELPLI-S,5005,,,,,,,46.6217,8.36694,,,,,,,,Central Europe,Alps,G008367E46622N,
421,CH,GELMER-N,5006,,,,,,,46.610901,8.36545,,,,,,,,Central Europe,Alps,G008365E46611N,RGI50-11.01313
422,CH,GELMER-S,5007,,,,,,,46.605598,8.35753,,,,,,,,Central Europe,Alps,G008362E46606N,
423,CH,GAERSTEN,5008,,,,,,,46.600102,8.35874,,,,,,,,Central Europe,Alps,G008360E46600N,RGI50-11.01363
424,CH,GAESTENGRAT-S,5009,,,,,,,46.5849,8.35848,,,,,,,,Central Europe,Alps,G008359E46585N,
425,CH,UESSRI GARWYDILIMI,5010,,,,,,,46.646198,8.3334,,,,,,,,Central Europe,Alps,G008333E46646N,
426,CH,DIECHTERHORN-W (PART OF A54F/05),5011,,,,,,,46.644199,8.35819,,,,,,,,Central Europe,Alps,G008357E46646N,RGI50-11.01250
427,CH,DIECHTER-N (PART OF A54F/05),5012,,,,,,,46.654202,8.34399,,,,,,,,Central Europe,Alps,G008342E46657N,RGI50-11.01229
428,CH,LOEFFELHORN-N,5013,,,,,,,46.529098,8.23631,,,,,,,,Central Europe,Alps,G008235E46528N,RGI50-11.01552
429,CH,SCHEUCHZERHORN-SE (PART OF A54G/35N),5014,,,,,,,46.5438,8.19481,,,,,,,,Central Europe,Alps,G008194E46544N,RGI50-11.01500
430,CH,VORD. TIERBERG-NE,5015,,,,,,,46.552502,8.23405,,,,,,,,Central Europe,Alps,G008225E46552N,
431,CH,VORD. TIERBERG-NW,5016,,,,,,,46.551701,8.22491,,,,,,,,Central Europe,Alps,G008231E46552N,RGI50-11.01485
432,CH,TIERBERG (PART OF A54G/50N),5017,,,,,,,46.548199,8.20139,,,,,,,,Central Europe,Alps,G008202E46548N,RGI50-11.01489
433,CH,SCHEUCHZERHORN-NE,5018,,,,,,,46.547401,8.19225,,,,,,,,Central Europe,Alps,G008192E46547N,RGI50-11.01495
434,CH,GRUNERHORN-NW,5019,,,,,,,46.542099,8.17784,,,,,,,,Central Europe,Alps,G008179E46542N,RGI50-11.01501
435,CH,NASSE STRAHLEGG-SE,5020,,,,,,,46.5522,8.13755,,,,,,,,Central Europe,Alps,G008138E46553N,RGI50-11.01483
436,CH,KL. LAUTERAARHORN-W,5021,,,,,,,46.577499,8.13005,,,,,,,,Central Europe,Alps,G008131E46578N,RGI50-11.01414
437,CH,KL. LAUTERAARHORN-SW (PART OF A54G/50N),5022,,,,,,,46.5756,8.13394,,,,,,,,Central Europe,Alps,G008135E46578N,RGI50-11.01413
438,CH,KL. LAUTERAARHORN-S,5023,,,,,,,46.572899,8.13912,,,,,,,,Central Europe,Alps,G008139E46573N,RGI50-11.01433
439,CH,LAUTERAAR-ROTHOERNER-W,5024,,,,,,,46.568401,8.1495,,,,,,,,Central Europe,Alps,G008149E46569N,RGI50-11.01437
440,CH,LAUTERAAR-ROTHOERNER-S,5025,,,,,,,46.562,8.15594,,,,,,,,Central Europe,Alps,G008155E46562N,
441,CH,ABSCHWUNGHORN-SW-I,5026,,,,,,,46.563801,8.15857,,,,,,,,Central Europe,Alps,G008158E46564N,RGI50-11.01447
442,CH,OESTL. ANKEBAELLILUECKE-W (PART OF A54G/50N),5027,,,,,,,46.603401,8.15127,,,,,,,,Central Europe,Alps,G008151E46604N,RGI50-11.01341
443,CH,OESTL. ANKEBAELLILUECKE-S,5028,,,,,,,46.6007,8.15906,,,,,,,,Central Europe,Alps,G008159E46599N,RGI50-11.01353
444,CH,HINT. TRIFT-W,5029,,,,,,,46.585201,8.19539,,,,,,,,Central Europe,Alps,G008195E46585N,RGI50-11.01389
445,CH,BRUENBERG-N,5030,,,,,,,46.577301,8.28399,,,,,,,,Central Europe,Alps,G008285E46577N,
446,CH,BRANDLAMM-LICKEN-NE,5031,,,,,,,46.579201,8.27619,,,,,,,,Central Europe,Alps,G008276E46579N,
447,CH,BAECHLI,5032,,,,,,,46.588402,8.24763,,,,,,,,Central Europe,Alps,G008248E46587N,RGI50-11.01378
448,CH,GR. SIDELHORN-NE,5033,,,,,,,46.543999,8.28999,,,,,,,,Central Europe,Alps,G008289E46544N,
449,CH,UELISTOCK-NE,5034,,,,,,,46.5369,8.27423,,,,,,,,Central Europe,Alps,G008274E46538N,
450,CH,TALSCHIEN-N,5035,,,,,,,46.528301,8.22848,,,,,,,,Central Europe,Alps,G008227E46528N,
451,CH,ROOSSEHOERNER-NE,5036,,,,,,,46.527401,8.22065,,,,,,,,Central Europe,Alps,G008220E46528N,RGI50-11.01560
452,CH,ROOSSEHOERNER-N,5037,,,,,,,46.5275,8.21283,,,,,,,,Central Europe,Alps,G008213E46527N,
453,CH,HINT. TIERBERG-NE,5038,,,,,,,46.5499,8.21706,,,,,,,,Central Europe,Alps,G008220E46550N,RGI50-11.01485
454,CH,ESCHERHORN-W,5039,,,,,,,46.5564,8.19368,,,,,,,,Central Europe,Alps,G008194E46556N,
455,CH,GRUNERHORN-N,5040,,,,,,,46.5439,8.18047,,,,,,,,Central Europe,Alps,G008181E46543N,RGI50-11.01499
456,CH,STUDERHORN-NE,5041,,,,,,,46.5368,8.1556,,,,,,,,Central Europe,Alps,G008155E46537N,RGI50-11.01528
457,CH,FINSTERAARHORN-E,5042,,,,,,,46.536098,8.13343,,,,,,,,Central Europe,Alps,G008135E46536N,RGI50-11.01535
458,CH,LAUTERAAR-ROTHOERNER-NE (PART OF A54G/50N),5043,,,,,,,46.569199,8.15864,,,,,,,,Central Europe,Alps,G008158E46569N,RGI50-11.01435
459,CH,EWIGSCHNEEHORN-W,5044,,,,,,,46.598,8.16163,,,,,,,,Central Europe,Alps,G008162E46597N,RGI50-11.01369
460,CH,EWIGSCHNEEHORN-S,5045,,,,,,,46.594299,8.16942,,,,,,,,Central Europe,Alps,G008169E46594N,RGI50-11.01375
461,CH,MISELENEGG-N,5046,,,,,,,46.583401,8.18884,,,,,,,,Central Europe,Alps,G008189E46582N,RGI50-11.01399
462,CH,HINT. TRIFT-MITTE,5047,,,,,,,46.585998,8.20323,,,,,,,,Central Europe,Alps,G008202E46586N,RGI50-11.01388
463,CH,HINT. TRIFT-E,5048,,,,,,,46.584999,8.21104,,,,,,,,Central Europe,Alps,G008209E46585N,RGI50-11.01392
464,CH,HIENDERSTOCK-SE (PART OF A54G/61N),5049,,,,,,,46.584999,8.21887,,,,,,,,Central Europe,Alps,G008218E46585N,RGI50-11.01393
465,CH,BAECHLISTOCK-S,5050,,,,,,,46.5821,8.24101,,,,,,,,Central Europe,Alps,G008241E46583N,
466,CH,FELLENBERGLICKEN-SW,5051,,,,,,,46.5821,8.24492,,,,,,,,Central Europe,Alps,G008244E46582N,
467,CH,JUCHLISTOCK-W,5052,,,,,,,46.579899,8.30099,,,,,,,,Central Europe,Alps,G008301E46579N,
468,CH,BRUENBERG-NE,5053,,,,,,,46.578201,8.29444,,,,,,,,Central Europe,Alps,G008296E46578N,
469,CH,BRUENBERG-NW,5054,,,,,,,46.5765,8.27745,,,,,,,,Central Europe,Alps,G008277E46577N,
470,CH,BRANDLAMMHORN-E,5055,,,,,,,46.5811,8.26317,,,,,,,,Central Europe,Alps,G008267E46579N,RGI50-11.01409
471,CH,ALPLISTOCK-NE,5056,,,,,,,46.595299,8.28558,,,,,,,,Central Europe,Alps,G008286E46596N,
472,CH,ALPLISTOCK-W,5057,,,,,,,46.595402,8.27644,,,,,,,,Central Europe,Alps,G008278E46596N,
473,CH,CHLYNE DIAMANTSTOCK-NE,5058,,,,,,,46.598099,8.27127,,,,,,,,Central Europe,Alps,G008270E46598N,
474,CH,GRUEBEN,5059,,,,,,,46.597401,8.24776,,,,,,,,Central Europe,Alps,G008246E46596N,RGI50-11.01335
475,CH,GOLEGG,5060,,,,,,,46.614399,8.25324,,,,,,,,Central Europe,Alps,G008251E46614N,RGI50-11.01316
476,CH,AERLEN-N,5061,,,,,,,46.621601,8.25726,,,,,,,,Central Europe,Alps,G008262E46625N,RGI50-11.01288
477,CH,WYSSENBACH,5062,,,,,,,46.630501,8.26785,,,,,,,,Central Europe,Alps,G008270E46630N,RGI50-11.01269
478,CH,SCHAFLAEGERSTOECK-N,5063,,,,,,,46.651402,8.24465,,,,,,,,Central Europe,Alps,G008244E46650N,
479,CH,GRUEBEJOCH-NE,5064,,,,,,,46.610901,8.24796,,,,,,,,Central Europe,Alps,G008247E46610N,
480,CH,AERLEN-S,5065,,,,,,,46.6162,8.25979,,,,,,,,Central Europe,Alps,G008259E46616N,RGI50-11.01311
481,CH,RITZLIHORN-E,5066,,,,,,,46.632301,8.26526,,,,,,,,Central Europe,Alps,G008265E46632N,
482,CH,HIENDERTELLTIHORN-NW,5067,,,,,,,46.604698,8.23351,,,,,,,,Central Europe,Alps,G008234E46603N,
483,CH,HIENDERTELLTI (PART OF A54I/19N),5068,,,,,,,46.590302,8.22939,,,,,,,,Central Europe,Alps,G008230E46588N,RGI50-11.01362
484,CH,HIENDERSTOCK-NE (PART OF A54I/19N),5069,,,,,,,46.590401,8.21243,,,,,,,,Central Europe,Alps,G008211E46589N,RGI50-11.01358
485,CH,EWIGSCHNEEHORN-E,5070,,,,,,,46.597,8.16945,,,,,,,,Central Europe,Alps,G008170E46597N,
486,CH,RAENFENHORN-SE (PART OF A54I/19N),5071,,,,,,,46.631199,8.16991,,,,,,,,Central Europe,Alps,G008169E46632N,RGI50-11.01271
487,CH,HANGEND BE,5072,,,,,,,46.628399,8.18946,,,,,,,,Central Europe,Alps,G008191E46630N,RGI50-11.01279
488,CH,RAENFEN,5073,,,,,,,46.637501,8.1713,,,,,,,,Central Europe,Alps,G008178E46637N,RGI50-11.01259
489,CH,HANGENDHORN-NE-I,5074,,,,,,,46.6329,8.18953,,,,,,,,Central Europe,Alps,G008191E46633N,RGI50-11.01272
490,CH,STEINLAUIHORN-N,5075,,,,,,,46.622501,8.25336,,,,,,,,Central Europe,Alps,G008254E46624N,
491,CH,STEINLAUIHORN-NW,5076,,,,,,,46.622601,8.24944,,,,,,,,Central Europe,Alps,G008250E46622N,
492,CH,STEINLAUENEN,5077,,,,,,,46.618099,8.24938,,,,,,,,Central Europe,Alps,G008250E46618N,RGI50-11.01306
493,CH,GOLEGGHORN-W,5078,,,,,,,46.616299,8.24543,,,,,,,,Central Europe,Alps,G008246E46616N,
494,CH,GRUEBEJOCH-N,5079,,,,,,,46.611801,8.24276,,,,,,,,Central Europe,Alps,G008244E46612N,
495,CH,GRUEBEJOCH-W,5080,,,,,,,46.6091,8.24272,,,,,,,,Central Europe,Alps,G008243E46609N,RGI50-11.01331
496,CH,HANGENDHORN-S,5081,,,,,,,46.624802,8.18289,,,,,,,,Central Europe,Alps,G008183E46625N,RGI50-11.01289
497,CH,HANGENDHORN-NE-II,5082,,,,,,,46.632,8.188209,,,,,,,,Central Europe,Alps,G008188E46632N,
498,CH,RAENFENJOCH-E,5083,,,,,,,46.641998,8.16353,,,,,,,,Central Europe,Alps,G008162E46641N,RGI50-11.01248
499,CH,DOSSEN-E,5084,,,,,,,46.6492,8.16755,,,,,,,,Central Europe,Alps,G008167E46649N,RGI50-11.01241
500,CH,DOSSENGRAT-SE,5085,,,,,,,46.651001,8.16626,,,,,,,,Central Europe,Alps,G008167E46650N,RGI50-11.01236
501,CH,AUGSTGUMM-W-I,5086,,,,,,,46.664398,8.18212,,,,,,,,Central Europe,Alps,G008182E46664N,RGI50-11.01223
502,CH,AUGSTGUMM-W-II,5087,,,,,,,46.666199,8.18346,,,,,,,,Central Europe,Alps,G008184E46665N,
503,CH,OCHSENTAL,5088,,,,,,,46.675201,8.17966,,,,,,,,Central Europe,Alps,G008180E46676N,
504,CH,HENGSTEREN,5089,,,,,,,46.6413,8.13087,,,,,,,,Central Europe,Alps,G008130E46641N,RGI50-11.01237
505,CH,AHORNISBODEN-E,5090,,,,,,,46.6567,8.118,,,,,,,,Central Europe,Alps,G008117E46656N,RGI50-11.01226
506,CH,BLAU LI,5091,,,,,,,46.6875,8.07525,,,,,,,,Central Europe,Alps,G008075E46688N,
507,CH,DOSSENPLETSCHEN,5092,,,,,,,46.656399,8.16764,,,,,,,,Central Europe,Alps,G008167E46656N,
508,CH,WELLHORN-W,5093,,,,,,,46.6548,8.12973,,,,,,,,Central Europe,Alps,G008130E46656N,RGI50-11.01230
509,CH,WETTERHORN-E,5094,,,,,,,46.639599,8.11909,,,,,,,,Central Europe,Alps,G008120E46640N,RGI50-11.01251
510,CH,SCHEIDEGGWETTERHORN-E,5095,,,,,,,46.645,8.11263,,,,,,,,Central Europe,Alps,G008114E46645N,RGI50-11.01247
511,CH,CHRINNEN,5096,,,,,,,46.630699,8.11114,,,,,,,,Central Europe,Alps,G008108E46634N,RGI50-11.01262
512,CH,WAECHSEL BE,5097,,,,,,,46.6147,8.0757,,,,,,,,Central Europe,Alps,G008078E46616N,
513,CH,ANKENBAELLI-S,5098,,,,,,,46.601101,8.08989,,,,,,,,Central Europe,Alps,G008089E46601N,
514,CH,KL. SCHRECKHORN-SW,5099,,,,,,,46.5984,8.09769,,,,,,,,Central Europe,Alps,G008097E46599N,RGI50-11.01355
515,CH,NAESSI,5100,,,,,,,46.597401,8.1042,,,,,,,,Central Europe,Alps,G008104E46595N,RGI50-11.01366
516,CH,NAESSIHORN-SW,5101,,,,,,,46.589298,8.10671,,,,,,,,Central Europe,Alps,G008108E46590N,RGI50-11.01377
517,CH,SCHRECKHORN-W,5102,,,,,,,46.590198,8.11194,,,,,,,,Central Europe,Alps,G008110E46588N,RGI50-11.01380
518,CH,SCHRECKFIRN,5103,,,,,,,46.5821,8.11706,,,,,,,,Central Europe,Alps,G008119E46583N,RGI50-11.01387
519,CH,PFAFFESTECKI-NE,5104,,,,,,,46.571499,8.08301,,,,,,,,Central Europe,Alps,G008084E46572N,RGI50-11.01426
520,CH,NAMENLOS BE,5105,,,,,,,46.565201,8.07511,,,,,,,,Central Europe,Alps,G008074E46566N,RGI50-11.01442
521,CH,GROSSES FIESCHERHORN-W,5106,,,,,,,46.5536,8.06194,,,,,,,,Central Europe,Alps,G008060E46553N,RGI50-11.01474
522,CH,MITTELLEGI-NW (GROUP OF GLACIERETS),5107,,,,,,,46.5835,8.01661,,,,,,,,Central Europe,Alps,G008010E46588N,
523,CH,NAESSIHORN-E,5108,,,,,,,46.595501,8.11723,,,,,,,,Central Europe,Alps,G008121E46596N,RGI50-11.01360
524,CH,WAECHSEL BE,5109,,,,,,,46.607399,8.08866,,,,,,,,Central Europe,Alps,G008089E46607N,RGI50-11.01318
525,CH,MAETTENBERG-N,5110,,,,,,,46.610199,8.07825,,,,,,,,Central Europe,Alps,G008079E46611N,
526,CH,MAETTENBERG-NW,5111,,,,,,,46.611099,8.07565,,,,,,,,Central Europe,Alps,G008075E46612N,
527,CH,STRAHLEGGHORN-W,5112,,,,,,,46.575802,8.11437,,,,,,,,Central Europe,Alps,G008115E46576N,RGI50-11.01417
528,CH,STRAHLEGGHORN-SW (PART OF A54L/19),5113,,,,,,,46.5713,8.11693,,,,,,,,Central Europe,Alps,G008117E46570N,RGI50-11.01427
529,CH,NAMENLOS BE,5114,,,,,,,46.5667,8.12078,,,,,,,,Central Europe,Alps,G008120E46567N,
530,CH,PFAFFESTECKI-W (PART OF A54L/19),5115,,,,,,,46.568802,8.07776,,,,,,,,Central Europe,Alps,G008076E46569N,RGI50-11.01419
531,CH,OCHS-N,5116,,,,,,,46.5607,8.07767,,,,,,,,Central Europe,Alps,G008078E46561N,RGI50-11.01346
532,CH,FIESCHERWAND (GROUP OF GLACIERETS),5117,,,,,,,46.556198,8.07109,,,,,,,,Central Europe,Alps,G008071E46556N,RGI50-11.01471
533,CH,GROSSES FIESCHERHORN-NE,5118,,,,,,,46.5518,8.06322,,,,,,,,Central Europe,Alps,G008065E46553N,RGI50-11.01480
534,CH,EIGER-SE,5119,,,,,,,46.5746,8.00608,,,,,,,,Central Europe,Alps,G008007E46574N,RGI50-11.01422
535,CH,CHALLIFIRN,5120,,,,,,,46.583401,8.03097,,,,,,,,Central Europe,Alps,G008033E46585N,RGI50-11.01379
536,CH,WILDSCHLOSS,5121,,,,,,,46.584301,8.04141,,,,,,,,Central Europe,Alps,G008041E46584N,
537,CH,MOENCHPLATEAU (GROUP OF GLACIERETS),5122,,,,,,,46.560299,7.97985,,,,,,,,Central Europe,Alps,G007980E46560N,RGI50-11.01454
538,CH,GUGGI,5123,,,,,,,46.5513,7.96933,,,,,,,,Central Europe,Alps,G007979E46554N,RGI50-11.01445
539,CH,GIESEN,5124,,,,,,,46.545101,7.96014,,,,,,,,Central Europe,Alps,G007954E46548N,RGI50-11.01468
540,CH,SILBERHORN,5125,,,,,,,46.5425,7.94447,,,,,,,,Central Europe,Alps,G007946E46542N,RGI50-11.01498
541,CH,GOLDENHORN-SW,5126,,,,,,,46.538898,7.94183,,,,,,,,Central Europe,Alps,G007942E46539N,RGI50-11.01513
542,CH,BAERENFLUE,5127,,,,,,,46.5317,7.93394,,,,,,,,Central Europe,Alps,G007933E46533N,RGI50-11.01537
543,CH,HOCHFIRN,5128,,,,,,,46.537899,7.96007,,,,,,,,Central Europe,Alps,G007958E46539N,RGI50-11.01515
544,CH,ROTTALHORN-W,5129,,,,,,,46.531601,7.96523,,,,,,,,Central Europe,Alps,G007965E46532N,RGI50-11.01540
545,CH,STUEFESTEI,5130,,,,,,,46.512699,7.95462,,,,,,,,Central Europe,Alps,G007953E46521N,RGI50-11.01550
546,CH,MITTLERER BREITLOUWENEN,5131,,,,,,,46.506599,7.9272,,,,,,,,Central Europe,Alps,G007929E46505N,RGI50-11.01629
547,CH,AEBENI FLUE - JOCH-N,5132,,,,,,,46.503799,7.93369,,,,,,,,Central Europe,Alps,G007935E46504N,
548,CH,SCHMADRIFIRN,5133,,,,,,,46.4842,7.89574,,,,,,,,Central Europe,Alps,G007896E46484N,RGI50-11.01749
549,CH,OBERE BREITHORN,5134,,,,,,,46.482399,7.88401,,,,,,,,Central Europe,Alps,G007884E46483N,RGI50-11.01748
550,CH,TSCHINGELGRAT-N,5135,,,,,,,46.513199,7.85038,,,,,,,,Central Europe,Alps,G007849E46513N,RGI50-11.01588
551,CH,ROTSTOCK-S (GROUP OF GLACIERETS),5136,,,,,,,46.5756,7.98783,,,,,,,,Central Europe,Alps,G007988E46575N,RGI50-11.01418
552,CH,EIGER-S,5137,,,,,,,46.5746,8.00348,,,,,,,,Central Europe,Alps,G008003E46574N,RGI50-11.01424
553,CH,NOLLEN,5138,,,,,,,46.556599,7.99155,,,,,,,,Central Europe,Alps,G007990E46558N,
554,CH,SPHINX,5139,,,,,,,46.548599,7.98495,,,,,,,,Central Europe,Alps,G007985E46549N,RGI50-11.01486
555,CH,SCHNEEHORN-N,5140,,,,,,,46.556801,7.96025,,,,,,,,Central Europe,Alps,G007961E46557N,
556,CH,ROTBRAETTHOREN (GROUP OF GLACIERETS),5141,,,,,,,46.547001,7.9406,,,,,,,,Central Europe,Alps,G007940E46549N,
557,CH,BIGLENLAMM,5142,,,,,,,46.564098,7.94076,,,,,,,,Central Europe,Alps,G007941E46564N,
558,CH,TRIMMLETEN-W,5143,,,,,,,46.565899,7.93947,,,,,,,,Central Europe,Alps,G007939E46566N,
559,CH,SILBERLOUWENA,5144,,,,,,,46.537102,7.94703,,,,,,,,Central Europe,Alps,G007946E46537N,RGI50-11.01520
560,CH,HOCHFIRN-S,5145,,,,,,,46.535198,7.95744,,,,,,,,Central Europe,Alps,G007956E46535N,
561,CH,LOUWIHORN,5146,,,,,,,46.526199,7.97039,,,,,,,,Central Europe,Alps,G007971E46526N,RGI50-11.01551
562,CH,HORN-N,5147,,,,,,,46.5172,7.9703,,,,,,,,Central Europe,Alps,G007970E46518N,RGI50-11.01551
563,CH,HORNFIRN,5148,,,,,,,46.513599,7.96505,,,,,,,,Central Europe,Alps,G007963E46513N,RGI50-11.01590
564,CH,NOERDLICHER BREITLOUWENEN,5149,,,,,,,46.509201,7.93374,,,,,,,,Central Europe,Alps,G007934E46508N,RGI50-11.01605
565,CH,AEBENI FLUE-JOCH-W,5150,,,,,,,46.501099,7.93236,,,,,,,,Central Europe,Alps,G007932E46501N,RGI50-11.01673
566,CH,MITTAGHORN-W (GROUP OF GLACIERETS),5151,,,,,,,46.4967,7.92451,,,,,,,,Central Europe,Alps,G007924E46496N,
567,CH,SUEDLICHER BREITLOUWENEN,5152,,,,,,,46.501202,7.92324,,,,,,,,Central Europe,Alps,G007924E46500N,RGI50-11.01648
568,CH,BRUNNENHORN-N,5153,,,,,,,46.494099,7.89843,,,,,,,,Central Europe,Alps,G007898E46494N,
569,CH,TSCHINGELHORN-NE,5154,,,,,,,46.479,7.84882,,,,,,,,Central Europe,Alps,G007849E46478N,
570,CH,HINDRISTS BUSENTAL,5155,,,,,,,46.521301,7.84784,,,,,,,,Central Europe,Alps,G007848E46521N,
571,CH,TSCHINGELSPITZ-N (GROUP OF GLACIERETS),5156,,,,,,,46.512299,7.84125,,,,,,,,Central Europe,Alps,G007837E46514N,
572,CH,TSCHINGELSPITZ-NW,5157,,,,,,,46.512299,7.83604,,,,,,,,Central Europe,Alps,G007834E46512N,RGI50-11.01596
573,CH,CHILCHBALM,5158,,,,,,,46.521301,7.83741,,,,,,,,Central Europe,Alps,G007838E46523N,RGI50-11.01571
574,CH,GSPALTENHORN-N,5159,,,,,,,46.514099,7.82954,,,,,,,,Central Europe,Alps,G007829E46515N,
575,CH,BUETLASSE-SE,5160,,,,,,,46.5168,7.82435,,,,,,,,Central Europe,Alps,G007824E46517N,RGI50-11.01577
576,CH,JEGIHOREN-N,5161,,,,,,,46.523998,7.82831,,,,,,,,Central Europe,Alps,G007828E46524N,RGI50-11.01561
577,CH,BUETLASSE-NW,5162,,,,,,,46.5196,7.81785,,,,,,,,Central Europe,Alps,G007817E46520N,RGI50-11.01566
578,CH,GSPALTENHORN,5163,,,,,,,46.512402,7.8191,,,,,,,,Central Europe,Alps,G007818E46512N,RGI50-11.01599
579,CH,MORGENHORN,5164,,,,,,,46.4963,7.78643,,,,,,,,Central Europe,Alps,G007786E46495N,RGI50-11.01656
580,CH,WILDI FRAU-N,5165,,,,,,,46.507999,7.77868,,,,,,,,Central Europe,Alps,G007779E46509N,RGI50-11.01617
581,CH,UF DER WART,5166,,,,,,,46.513401,7.77481,,,,,,,,Central Europe,Alps,G007775E46514N,
582,CH,AUGSTCHUMME,5167,,,,,,,46.523201,7.81006,,,,,,,,Central Europe,Alps,G007810E46523N,RGI50-11.01563
583,CH,ROTI ZEND,5168,,,,,,,46.5079,7.82298,,,,,,,,Central Europe,Alps,G007822E46507N,
584,CH,KAMEL-W,5169,,,,,,,46.503399,7.82034,,,,,,,,Central Europe,Alps,G007819E46504N,
585,CH,GAMCHILUECKE-W,5170,,,,,,,46.497101,7.80988,,,,,,,,Central Europe,Alps,G007811E46496N,
586,CH,MORGENHORN-NE,5171,,,,,,,46.4972,7.79425,,,,,,,,Central Europe,Alps,G007794E46497N,RGI50-11.01687
587,CH,WILDI FRAU-SW,5172,,,,,,,46.502602,7.78647,,,,,,,,Central Europe,Alps,G007787E46503N,
588,CH,ROTHORN BE,5173,,,,,,,46.497299,7.75777,,,,,,,,Central Europe,Alps,G007759E46497N,
589,CH,OBERE OESCHINEN,5174,,,,,,,46.4883,7.76423,,,,,,,,Central Europe,Alps,G007759E46491N,RGI50-11.01716
590,CH,UNDERE OESCHINEN,5175,,,,,,,46.481098,7.75898,,,,,,,,Central Europe,Alps,G007759E46481N,RGI50-11.01745
591,CH,FRUENDENHORN-NW,5176,,,,,,,46.477501,7.75636,,,,,,,,Central Europe,Alps,G007754E46478N,
592,CH,FRUENDEN,5177,,,,,,,46.476601,7.74724,,,,,,,,Central Europe,Alps,G007747E46475N,RGI50-11.01757
593,CH,DOLDENHORN,5178,,,,,,,46.4739,7.7342,,,,,,,,Central Europe,Alps,G007734E46475N,RGI50-11.01760
594,CH,INNERE FISISTOCK-W,5179,,,,,,,46.473099,7.71206,,,,,,,,Central Europe,Alps,G007709E46474N,
595,CH,FULE,5180,,,,,,,46.470402,7.71856,,,,,,,,Central Europe,Alps,G007719E46471N,RGI50-11.01804
596,CH,FRUENDENHORN-SE,5181,,,,,,,46.4739,7.75764,,,,,,,,Central Europe,Alps,G007758E46474N,RGI50-11.01793
597,CH,BIRG,5182,,,,,,,46.449501,7.77962,,,,,,,,Central Europe,Alps,G007781E46450N,RGI50-11.01866
598,CH,KLEINHOCKENHORN-NW,5183,,,,,,,46.428101,7.73395,,,,,,,,Central Europe,Alps,G007733E46427N,
599,CH,LOETSCHEN (NO. 110),5184,,,,,,,46.419102,7.70919,,,,,,,,Central Europe,Alps,G007707E46420N,RGI50-11.01928
600,CH,WILDELSIGEN-S (PART OF A55B/42N),5185,,,,,,,46.4371,7.69887,,,,,,,,Central Europe,Alps,G007699E46437N,RGI50-11.01904
601,CH,DOLDENSTOCK,5186,,,,,,,46.474899,7.72379,,,,,,,,Central Europe,Alps,G007724E46475N,RGI50-11.01783
602,CH,KLEIN DOLDENHORN-W (GROUP OF GLACIERETS),5187,,,,,,,46.470402,7.72507,,,,,,,,Central Europe,Alps,G007723E46469N,
603,CH,DOLDENHORN-SE,5188,,,,,,,46.466702,7.74327,,,,,,,,Central Europe,Alps,G007743E46467N,RGI50-11.01823
604,CH,FRUENDENJOCH-S,5189,,,,,,,46.470299,7.7485,,,,,,,,Central Europe,Alps,G007747E46470N,RGI50-11.01808
605,CH,OESCHINENJOCH-SE,5190,,,,,,,46.474701,7.76806,,,,,,,,Central Europe,Alps,G007767E46474N,
606,CH,BLUEEMLISALPHORN-SE,5191,,,,,,,46.4828,7.77462,,,,,,,,Central Europe,Alps,G007777E46485N,RGI50-11.01742
607,CH,WYSSI FRAU-SE (PART OF A55B/29N),5192,,,,,,,46.489101,7.78898,,,,,,,,Central Europe,Alps,G007789E46489N,RGI50-11.01724
608,CH,BIRGHORN-NW,5193,,,,,,,46.453999,7.78355,,,,,,,,Central Europe,Alps,G007784E46454N,RGI50-11.01848
609,CH,ELWERTAESCH-W,5194,,,,,,,46.4468,7.7796,,,,,,,,Central Europe,Alps,G007779E46447N,
610,CH,TENNBACHLUECKE-NW,5195,,,,,,,46.444099,7.77698,,,,,,,,Central Europe,Alps,G007777E46444N,RGI50-11.01891
611,CH,SACKHORN-N (GROUP OF GLACIERETS),5196,,,,,,,46.445099,7.77048,,,,,,,,Central Europe,Alps,G007769E46445N,
612,CH,SACKHORN-NE,5197,,,,,,,46.440601,7.76785,,,,,,,,Central Europe,Alps,G007768E46440N,RGI50-11.01900
613,CH,MAEBIGLUECKE-NW,5198,,,,,,,46.4379,7.75612,,,,,,,,Central Europe,Alps,G007757E46437N,
614,CH,HOHWIDE-S (GROUP OF GLACIERETS),5199,,,,,,,46.4343,7.74439,,,,,,,,Central Europe,Alps,G007745E46434N,
615,CH,HOCKENHORN-N,5200,,,,,,,46.429798,7.74437,,,,,,,,Central Europe,Alps,G007743E46429N,RGI50-11.01933
616,CH,HOCKENHORN-NW,5201,,,,,,,46.429798,7.74047,,,,,,,,Central Europe,Alps,G007740E46430N,
617,CH,KLEINHOCKENHORN-W,5202,,,,,,,46.427101,7.74305,,,,,,,,Central Europe,Alps,G007740E46426N,
618,CH,OBER TATELISHORN-SE,5203,,,,,,,46.437199,7.67805,,,,,,,,Central Europe,Alps,G007678E46440N,
619,CH,OBER TATELISHORN-E,5204,,,,,,,46.438099,7.67545,,,,,,,,Central Europe,Alps,G007675E46437N,RGI50-11.01887
620,CH,RINDERHORN-NW,5205,,,,,,,46.414799,7.64934,,,,,,,,Central Europe,Alps,G007649E46416N,RGI50-11.01965
621,CH,DAUBENHORN,5206,,,,,,,46.386101,7.59853,,,,,,,,Central Europe,Alps,G007598E46386N,RGI50-11.02109
622,CH,LAEMMEREN (PART OF A55C/24N),5207,,,,,,,46.386101,7.56603,,,,,,,,Central Europe,Alps,G007563E46386N,RGI50-11.02095
623,CH,STEGHORN (PART OF A55C/24N),5208,,,,,,,46.414902,7.5765,,,,,,,,Central Europe,Alps,G007576E46415N,RGI50-11.01971
624,CH,TAELLI,5209,,,,,,,46.414799,7.59211,,,,,,,,Central Europe,Alps,G007593E46416N,RGI50-11.01955
625,CH,RINDERHORN-N,5210,,,,,,,46.4165,7.65325,,,,,,,,Central Europe,Alps,G007653E46417N,RGI50-11.01951
626,CH,NAMENLOS VS,5211,,,,,,,46.3843,7.59332,,,,,,,,Central Europe,Alps,G007592E46385N,
627,CH,GROSSSTRUBEL-SW,5212,,,,,,,46.413101,7.55959,,,,,,,,Central Europe,Alps,G007559E46413N,RGI50-11.01984
628,CH,STEGHORN-S,5213,,,,,,,46.414902,7.583,,,,,,,,Central Europe,Alps,G007583E46415N,
629,CH,STRUBELEGGA-NW,5214,,,,,,,46.416698,7.5687,,,,,,,,Central Europe,Alps,G007571E46415N,
630,CH,STRUBEL,5215,,,,,,,46.418499,7.5557,,,,,,,,Central Europe,Alps,G007553E46418N,RGI50-11.01949
631,CH,GROSSSTRUBEL-NE,5216,,,,,,,46.414002,7.56089,,,,,,,,Central Europe,Alps,G007560E46414N,RGI50-11.01976
632,CH,TIERBERG,5217,,,,,,,46.3862,7.47503,,,,,,,,Central Europe,Alps,G007480E46388N,RGI50-11.02099
633,CH,WYSSHORN,5218,,,,,,,46.380798,7.46983,,,,,,,,Central Europe,Alps,G007470E46381N,
634,CH,SILBERRITZE-SE (PART OF A56D/09N),5219,,,,,,,46.362801,7.36587,,,,,,,,Central Europe,Alps,G007364E46362N,
635,CH,GELTEN-E (NO. 113),5220,,,,,,,46.351002,7.3412,,,,,,,,Central Europe,Alps,G007344E46353N,RGI50-11.02198
636,CH,ARPELIHORN-NE,5221,,,,,,,46.352798,7.31392,,,,,,,,Central Europe,Alps,G007314E46353N,RGI50-11.02200
637,CH,MAUVAIS GLACIER,5222,,,,,,,46.308498,7.192,,,,,,,,Central Europe,Alps,G007193E46309N,
638,CH,CULAN GLACIER DE,5223,,,,,,,46.304001,7.16476,,,,,,,,Central Europe,Alps,G007165E46304N,
639,CH,LE DOME-W,5224,,,,,,,46.314899,7.20365,,,,,,,,Central Europe,Alps,G007203E46315N,RGI50-11.02263
640,CH,NAMENLOS VD,5225,,,,,,,46.3157,7.19716,,,,,,,,Central Europe,Alps,G007195E46313N,
641,CH,TTE RONDE-NW,5226,,,,,,,46.304901,7.17514,,,,,,,,Central Europe,Alps,G007176E46306N,
642,CH,PLAN NEVE-W,5227,,,,,,,46.240002,7.13527,,,,,,,,Central Europe,Alps,G007138E46240N,RGI50-11.02376
643,CH,GRAND MUVERAN-NE,5228,,,,,,,46.238201,7.12879,,,,,,,,Central Europe,Alps,G007129E46238N,
644,CH,DIABLERETS GLACIER DES,5229,,,,,,,46.306702,7.1959,,,,,,,,Central Europe,Alps,G007200E46308N,RGI50-11.02261
645,CH,BROCHET GLACIER DU,5230,,,,,,,46.3484,7.3581,,,,,,,,Central Europe,Alps,G007358E46350N,RGI50-11.02211
646,CH,TENEHET GLACIER DE,5231,,,,,,,46.3601,7.37757,,,,,,,,Central Europe,Alps,G007376E46359N,RGI50-11.02187
647,CH,AUDANNES GLACIER DES,5232,,,,,,,46.353802,7.36718,,,,,,,,Central Europe,Alps,G007366E46355N,RGI50-11.02197
648,CH,FLUE,5233,,,,,,,46.4165,7.69227,,,,,,,,Central Europe,Alps,G007693E46416N,RGI50-11.01958
649,CH,DALA,5234,,,,,,,46.415501,7.70267,,,,,,,,Central Europe,Alps,G007702E46416N,RGI50-11.01977
650,CH,MAJING,5235,,,,,,,46.3796,7.683,,,,,,,,Central Europe,Alps,G007683E46380N,RGI50-11.02148
651,CH,OBERFERDEN,5236,,,,,,,46.387699,7.69733,,,,,,,,Central Europe,Alps,G007698E46388N,RGI50-11.02105
652,CH,FERDEN,5237,,,,,,,46.4128,7.70786,,,,,,,,Central Europe,Alps,G007709E46413N,RGI50-11.01992
653,CH,MILIBACH,5238,,,,,,,46.428001,7.74956,,,,,,,,Central Europe,Alps,G007748E46428N,RGI50-11.01931
654,CH,TENNBACH,5239,,,,,,,46.440498,7.77436,,,,,,,,Central Europe,Alps,G007778E46442N,RGI50-11.01894
655,CH,TENNBACHHORN-NE (PART OF B30/14N),5240,,,,,,,46.437801,7.78995,,,,,,,,Central Europe,Alps,G007791E46437N,
656,CH,TELLIN-SW (PART OF B30/14N),5241,,,,,,,46.450401,7.79004,,,,,,,,Central Europe,Alps,G007788E46449N,RGI50-11.01857
657,CH,TELLIN-NE,5242,,,,,,,46.4575,7.8044,,,,,,,,Central Europe,Alps,G007801E46457N,RGI50-11.01791
658,CH,UESSER TAL (TOTAL),5243,,,,,,,46.463798,7.82397,,,,,,,,Central Europe,Alps,G007823E46464N,RGI50-11.01791
659,CH,INNER TAL-SW (PART OF B30/20N),5244,,,,,,,46.470902,7.83834,,,,,,,,Central Europe,Alps,G007841E46471N,RGI50-11.01791
660,CH,INNER TAL-NE (PART OF B30/20N),5245,,,,,,,46.4753,7.86051,,,,,,,,Central Europe,Alps,G007858E46476N,RGI50-11.01786
661,CH,BREITHORN-SW,5246,,,,,,,46.478001,7.87616,,,,,,,,Central Europe,Alps,G007875E46478N,RGI50-11.01788
662,CH,KLEINES BREITHORN-S,5247,,,,,,,46.472599,7.87481,,,,,,,,Central Europe,Alps,G007874E46473N,RGI50-11.01807
663,CH,BREITHORNJOCH-SW,5248,,,,,,,46.479698,7.88529,,,,,,,,Central Europe,Alps,G007884E46479N,RGI50-11.01777
664,CH,GROSSHORN-S (PART OF B31/19N),5249,,,,,,,46.479599,7.91393,,,,,,,,Central Europe,Alps,G007914E46478N,RGI50-11.01772
665,CH,ANUCHNUBEL-SE,5250,,,,,,,46.4767,7.95558,,,,,,,,Central Europe,Alps,G007955E46476N,
666,CH,SATTELHORN-NW,5251,,,,,,,46.469502,7.96332,,,,,,,,Central Europe,Alps,G007963E46469N,RGI50-11.01818
667,CH,DISTLIGHORN-N,5252,,,,,,,46.458801,7.9489,,,,,,,,Central Europe,Alps,G007949E46460N,RGI50-11.01845
668,CH,SCHINHORN-W (PART OF B31/19N),5253,,,,,,,46.450699,7.93581,,,,,,,,Central Europe,Alps,G007936E46451N,RGI50-11.01862
669,CH,BEICHGRAT-NW,5254,,,,,,,46.4445,7.92794,,,,,,,,Central Europe,Alps,G007930E46445N,RGI50-11.01890
670,CH,BEICHPASS-N,5255,,,,,,,46.437302,7.92007,,,,,,,,Central Europe,Alps,G007920E46437N,
671,CH,DISCHLIG,5256,,,,,,,46.431099,7.8992,,,,,,,,Central Europe,Alps,G007897E46429N,RGI50-11.01925
672,CH,JEGI-SW (PART OF B31/02),5257,,,,,,,46.470699,7.88521,,,,,,,,Central Europe,Alps,G007886E46471N,RGI50-11.01803
673,CH,BREITHORN-SE (GROUP OF GLACIERETS),5258,,,,,,,46.4762,7.88005,,,,,,,,Central Europe,Alps,G007880E46476N,
674,CH,JEGI-MITTE (PART OF B31/02),5259,,,,,,,46.478802,7.89439,,,,,,,,Central Europe,Alps,G007893E46479N,RGI50-11.01770
675,CH,JEGI-NE (PART OF B31/02),5260,,,,,,,46.479698,7.90612,,,,,,,,Central Europe,Alps,G007905E46481N,RGI50-11.01750
676,CH,ANUCHNUBEL-NW,5261,,,,,,,46.4804,7.9478,,,,,,,,Central Europe,Alps,G007948E46481N,RGI50-11.01775
677,CH,DISTLIGHORN-NE,5262,,,,,,,46.461498,7.95283,,,,,,,,Central Europe,Alps,G007954E46461N,RGI50-11.01842
678,CH,SCHINHORN-SW,5263,,,,,,,46.448002,7.93708,,,,,,,,Central Europe,Alps,G007936E46447N,RGI50-11.01882
679,CH,BEICHPASS-NW,5264,,,,,,,46.435501,7.91745,,,,,,,,Central Europe,Alps,G007917E46435N,
680,CH,LONZAHOERNER-NW,5265,,,,,,,46.425701,7.90566,,,,,,,,Central Europe,Alps,G007905E46425N,
681,CH,BREITHORN-NE,5266,,,,,,,46.4203,7.89781,,,,,,,,Central Europe,Alps,G007898E46421N,RGI50-11.01957
682,CH,BREITHORN-N,5267,,,,,,,46.4203,7.8926,,,,,,,,Central Europe,Alps,G007893E46420N,RGI50-11.01963
683,CH,LOIBINBACH-E,5268,,,,,,,46.421299,7.8809,,,,,,,,Central Europe,Alps,G007878E46421N,RGI50-11.01956
684,CH,OEIGSTCHUMMUN,5269,,,,,,,46.412399,7.86522,,,,,,,,Central Europe,Alps,G007865E46412N,
685,CH,INNRE STAMMBACH,5270,,,,,,,46.407002,7.85868,,,,,,,,Central Europe,Alps,G007857E46410N,RGI50-11.02028
686,CH,UISTRE STAMMBACH,5271,,,,,,,46.404301,7.85216,,,,,,,,Central Europe,Alps,G007851E46404N,RGI50-11.02027
687,CH,NEST,5272,,,,,,,46.3936,7.83907,,,,,,,,Central Europe,Alps,G007838E46394N,RGI50-11.02073
688,CH,HANGENDE,5273,,,,,,,46.3811,7.80389,,,,,,,,Central Europe,Alps,G007804E46381N,RGI50-11.02153
689,CH,TYFELSGRAT-NW,5274,,,,,,,46.415901,7.88346,,,,,,,,Central Europe,Alps,G007884E46416N,
690,CH,LOIBINBACH-W,5275,,,,,,,46.4123,7.87303,,,,,,,,Central Europe,Alps,G007873E46413N,RGI50-11.01985
691,CH,BREITLAUIJOCH-NW,5276,,,,,,,46.409599,7.8691,,,,,,,,Central Europe,Alps,G007870E46410N,RGI50-11.02014
692,CH,AELWE RIGG-NE,5277,,,,,,,46.408798,7.86259,,,,,,,,Central Europe,Alps,G007864E46408N,
693,CH,BIETSCHJOCH-NW,5278,,,,,,,46.389099,7.81824,,,,,,,,Central Europe,Alps,G007818E46389N,
694,CH,SCHWARZHORN-N-I,5279,,,,,,,46.384602,7.81431,,,,,,,,Central Europe,Alps,G007813E46385N,
695,CH,WILERHORN-W,5280,,,,,,,46.377499,7.80256,,,,,,,,Central Europe,Alps,G007803E46378N,
696,CH,HOHGLEIFA-NW,5281,,,,,,,46.372101,7.79083,,,,,,,,Central Europe,Alps,G007792E46372N,
697,CH,JOLI,5282,,,,,,,46.373001,7.80383,,,,,,,,Central Europe,Alps,G007805E46375N,RGI50-11.02165
698,CH,BIETSCH-SW,5283,,,,,,,46.3801,7.81558,,,,,,,,Central Europe,Alps,G007814E46380N,RGI50-11.02146
699,CH,BIETSCH-MITTE,5284,,,,,,,46.386398,7.82602,,,,,,,,Central Europe,Alps,G007825E46386N,RGI50-11.02121
700,CH,BIETSCHHORN-SE,5285,,,,,,,46.386299,7.85462,,,,,,,,Central Europe,Alps,G007853E46386N,RGI50-11.02133
701,CH,HORN-SE,5286,,,,,,,46.371101,7.81811,,,,,,,,Central Europe,Alps,G007818E46369N,
702,CH,BIETSCH-NE,5287,,,,,,,46.389099,7.83254,,,,,,,,Central Europe,Alps,G007832E46389N,RGI50-11.02117
703,CH,BIETSCHHORN-SW-I (PART OF B33/09N),5288,,,,,,,46.387199,7.84163,,,,,,,,Central Europe,Alps,G007842E46387N,RGI50-11.02126
704,CH,BIETSCHHORN-SW-II (PART OF B33/09N),5289,,,,,,,46.386299,7.84812,,,,,,,,Central Europe,Alps,G007848E46386N,
705,CH,STOCKHORN-W,5290,,,,,,,46.383598,7.865,,,,,,,,Central Europe,Alps,G007864E46384N,RGI50-11.02143
706,CH,UESSRE BALTSCHIEDER (PART OF B34/06N),5291,,,,,,,46.397098,7.8612,,,,,,,,Central Europe,Alps,G007865E46400N,RGI50-11.02006
707,CH,INNRE BALTSCHIEDER (PART OF B34/06N),5292,,,,,,,46.4086,7.89381,,,,,,,,Central Europe,Alps,G007891E46406N,RGI50-11.01986
708,CH,TIEREGGHORN-NE,5293,,,,,,,46.3755,7.86104,,,,,,,,Central Europe,Alps,G007862E46375N,RGI50-11.02179
709,CH,TIEREGGSATTEL-E,5294,,,,,,,46.385399,7.85851,,,,,,,,Central Europe,Alps,G007859E46386N,RGI50-11.02137
710,CH,BREITHORN-SE,5295,,,,,,,46.414002,7.90296,,,,,,,,Central Europe,Alps,G007903E46414N,RGI50-11.01827
711,CH,GREDETSCHHORLI-SW (PART OF B34/06N),5296,,,,,,,46.4086,7.90681,,,,,,,,Central Europe,Alps,G007905E46409N,RGI50-11.02019
712,CH,GREDETSCH-W,5297,,,,,,,46.4104,7.91463,,,,,,,,Central Europe,Alps,G007912E46412N,RGI50-11.02007
713,CH,GREDETSCH-E,5298,,,,,,,46.408501,7.92892,,,,,,,,Central Europe,Alps,G007928E46410N,RGI50-11.02015
714,CH,GAENDERHORN-NW,5299,,,,,,,46.398602,7.93533,,,,,,,,Central Europe,Alps,G007936E46398N,
715,CH,UNNERBAECH-W,5300,,,,,,,46.4021,7.94316,,,,,,,,Central Europe,Alps,G007941E46403N,RGI50-11.02050
716,CH,UNNERBAECH-MITTE (PART OF B35/15N),5301,,,,,,,46.4048,7.95099,,,,,,,,Central Europe,Alps,G007950E46405N,RGI50-11.02047
717,CH,UNNERBAECH-E (PART OF B35/15N),5302,,,,,,,46.406601,7.96011,,,,,,,,Central Europe,Alps,G007960E46407N,RGI50-11.02036
718,CH,NESTHORN-SW,5303,,,,,,,46.411202,7.92244,,,,,,,,Central Europe,Alps,G007922E46411N,
719,CH,UNTERBAECHHORN-W,5304,,,,,,,46.4067,7.9328,,,,,,,,Central Europe,Alps,G007933E46406N,
720,CH,UNTERBAECHHORN-SW,5305,,,,,,,46.403999,7.93538,,,,,,,,Central Europe,Alps,G007935E46405N,
721,CH,HOHSTOCK-W (TOTAL),5306,,,,,,,46.405701,7.9549,,,,,,,,Central Europe,Alps,G007955E46406N,RGI50-11.02040
722,CH,KORTAELLI,5307,,,,,,,46.409199,7.96534,,,,,,,,Central Europe,Alps,G007965E46409N,RGI50-11.02029
723,CH,NAMENLOS VS,5308,,,,,,,46.405701,7.9484,,,,,,,,Central Europe,Alps,G007949E46406N,
724,CH,NAMENLOS VS,5309,,,,,,,46.421101,7.93554,,,,,,,,Central Europe,Alps,G007935E46421N,
725,CH,BEICHSPITZA-E (PART OF B36/01),5310,,,,,,,46.433701,7.91874,,,,,,,,Central Europe,Alps,G007918E46433N,RGI50-11.01921
726,CH,BEICHGRAT-SE-I (PART OF B36/01),5311,,,,,,,46.438202,7.92789,,,,,,,,Central Europe,Alps,G007926E46439N,RGI50-11.01910
727,CH,BEICHGRAT-SE-II (PART OF B36/01),5312,,,,,,,46.440899,7.93181,,,,,,,,Central Europe,Alps,G007931E46440N,RGI50-11.01905
728,CH,SUEDL. WYSSHORN-SW,5313,,,,,,,46.438999,7.95262,,,,,,,,Central Europe,Alps,G007952E46438N,
729,CH,SUEDL. WYSSHORN-S,5314,,,,,,,46.434502,7.95257,,,,,,,,Central Europe,Alps,G007952E46435N,RGI50-11.01917
730,CH,DISTEL,5315,,,,,,,46.4389,7.95912,,,,,,,,Central Europe,Alps,G007957E46440N,RGI50-11.01906
731,CH,WYSSHORN-E (PART OF B36/01),5316,,,,,,,46.444302,7.95917,,,,,,,,Central Europe,Alps,G007956E46445N,RGI50-11.01892
732,CH,KLEINES ALETSCHHORN-S,5317,,,,,,,46.4632,7.97628,,,,,,,,Central Europe,Alps,G007976E46464N,RGI50-11.01837
733,CH,GROSS FUSSHORN-NW (PART OF B36/01),5318,,,,,,,46.432499,7.99289,,,,,,,,Central Europe,Alps,G007991E46433N,RGI50-11.01923
734,CH,GROSS FUSSHORN-SW (GROUP OF GLACIERETS),5319,,,,,,,46.428001,7.99414,,,,,,,,Central Europe,Alps,G007996E46427N,
735,CH,VORD. ZENBAECHENHORN-NE,5320,,,,,,,46.435799,8.04107,,,,,,,,Central Europe,Alps,G008041E46436N,
736,CH,ZENBAECHENHORN-E,5321,,,,,,,46.440399,8.03591,,,,,,,,Central Europe,Alps,G008035E46440N,RGI50-11.01907
737,CH,OLMENHORN-N,5322,,,,,,,46.457401,8.04912,,,,,,,,Central Europe,Alps,G008051E46457N,RGI50-11.01854
738,CH,KLEINES DREIECKHORN-SE,5323,,,,,,,46.4655,8.04009,,,,,,,,Central Europe,Alps,G008038E46466N,RGI50-11.01833
739,CH,KLEINES DREIECKHORN-E (PART OF B36/49N),5324,,,,,,,46.470902,8.04146,,,,,,,,Central Europe,Alps,G008038E46471N,RGI50-11.01817
740,CH,KLEINES DREIECKHORN-NE (PART OF B36/49N),5325,,,,,,,46.475498,8.0363,,,,,,,,Central Europe,Alps,G008035E46474N,RGI50-11.01800
741,CH,NAMENLOS VS,5326,,,,,,,46.494701,7.96617,,,,,,,,Central Europe,Alps,G007965E46495N,RGI50-11.01450
742,CH,NAMENLOS VS,5327,,,,,,,46.5098,8.00801,,,,,,,,Central Europe,Alps,G008010E46509N,RGI50-11.01619
743,CH,CHAMM-SW VS,5328,,,,,,,46.5004,8.07696,,,,,,,,Central Europe,Alps,G008077E46500N,RGI50-11.01684
744,CH,NESTHORN-N,5329,,,,,,,46.413898,7.92637,,,,,,,,Central Europe,Alps,G007927E46414N,RGI50-11.01827
745,CH,BEICHGRAT-SE-III,5330,,,,,,,46.439999,7.9305,,,,,,,,Central Europe,Alps,G007930E46440N,RGI50-11.01905
746,CH,BEICHGRAT-SE-IV (GROUP OF GLACIERETS),5331,,,,,,,46.442699,7.93443,,,,,,,,Central Europe,Alps,G007935E46443N,RGI50-11.01898
747,CH,TORBERG-NE,5332,,,,,,,46.433601,7.95907,,,,,,,,Central Europe,Alps,G007959E46433N,
748,CH,SCHINHORN-NE,5333,,,,,,,46.452499,7.94754,,,,,,,,Central Europe,Alps,G007948E46453N,RGI50-11.01867
749,CH,SATTELHORN-SW,5334,,,,,,,46.466801,7.96329,,,,,,,,Central Europe,Alps,G007963E46467N,
750,CH,ROTSTOCK-W VS,5335,,,,,,,46.4352,7.99942,,,,,,,,Central Europe,Alps,G008001E46435N,
751,CH,FUSSHOERNER-W,5336,,,,,,,46.4235,7.998,,,,,,,,Central Europe,Alps,G007999E46424N,
752,CH,ALETSCHHORN-N,5337,,,,,,,46.467602,7.99455,,,,,,,,Central Europe,Alps,G007995E46467N,RGI50-11.01828
753,CH,OLMENHORN-E,5338,,,,,,,46.452801,8.05818,,,,,,,,Central Europe,Alps,G008058E46453N,
754,CH,GRUENEGG-NE (PART OF B36/49N),5339,,,,,,,46.5131,8.06147,,,,,,,,Central Europe,Alps,G008060E46512N,RGI50-11.01602
755,CH,GRUENHOERNLI-NW,5340,,,,,,,46.519299,8.08109,,,,,,,,Central Europe,Alps,G008080E46519N,
756,CH,FIESCHER GABELHORN-NE,5341,,,,,,,46.506699,8.08745,,,,,,,,Central Europe,Alps,G008088E46507N,RGI50-11.01640
757,CH,CHAMM-NW,5342,,,,,,,46.504002,8.07309,,,,,,,,Central Europe,Alps,G008073E46504N,
758,CH,CHAMM-SW VS,5343,,,,,,,46.4995,8.07304,,,,,,,,Central Europe,Alps,G008073E46499N,
759,CH,SENFSPITZE-S,5344,,,,,,,46.4706,8.10004,,,,,,,,Central Europe,Alps,G008099E46470N,RGI50-11.01825
760,CH,SENFSPITZE-E,5345,,,,,,,46.472401,8.10657,,,,,,,,Central Europe,Alps,G008106E46475N,RGI50-11.01809
761,CH,KLEIN WANNENHORN-S,5346,,,,,,,46.479599,8.10536,,,,,,,,Central Europe,Alps,G008105E46480N,RGI50-11.01784
762,CH,KLEIN WANNENHORN-SE,5347,,,,,,,46.4786,8.11186,,,,,,,,Central Europe,Alps,G008111E46480N,RGI50-11.01782
763,CH,TRIFT-SW,5348,,,,,,,46.487598,8.11067,,,,,,,,Central Europe,Alps,G008110E46487N,RGI50-11.01719
764,CH,FINSTERAARHORN-S (PART OF B40/14N),5349,,,,,,,46.5289,8.12552,,,,,,,,Central Europe,Alps,G008122E46528N,RGI50-11.01545
765,CH,WASENHORN-S,5350,,,,,,,46.4963,8.16418,,,,,,,,Central Europe,Alps,G008164E46496N,
766,CH,SENFSPITZE-SE,5351,,,,,,,46.472401,8.10137,,,,,,,,Central Europe,Alps,G008102E46471N,
767,CH,SENFSPITZE-NE,5352,,,,,,,46.475102,8.1027,,,,,,,,Central Europe,Alps,G008103E46474N,
768,CH,TRIFT-NE,5353,,,,,,,46.493801,8.12507,,,,,,,,Central Europe,Alps,G008126E46496N,
769,CH,GEMSCHLICKE-W (PART OF B40/16N),5354,,,,,,,46.520698,8.14105,,,,,,,,Central Europe,Alps,G008140E46521N,
770,CH,FINSTERAARROTHORN-E,5355,,,,,,,46.518002,8.15275,,,,,,,,Central Europe,Alps,G008153E46518N,RGI50-11.01591
771,CH,OBERAARHORN-S,5356,,,,,,,46.529499,8.17375,,,,,,,,Central Europe,Alps,G008174E46531N,
772,CH,HANGEND VS,5357,,,,,,,46.491798,8.16933,,,,,,,,Central Europe,Alps,G008169E46491N,RGI50-11.01733
773,CH,WASENHORN-E (PART OF B41/13N),5358,,,,,,,46.498001,8.17202,,,,,,,,Central Europe,Alps,G008171E46498N,
774,CH,VORD. GALMIHORN-SW (PART OF B41/13N),5359,,,,,,,46.503399,8.18252,,,,,,,,Central Europe,Alps,G008182E46504N,RGI50-11.01667
775,CH,BAECHI,5360,,,,,,,46.508701,8.19171,,,,,,,,Central Europe,Alps,G008191E46509N,RGI50-11.01623
776,CH,WASENHORN-SE (PART OF B41/13N),5361,,,,,,,46.4963,8.16809,,,,,,,,Central Europe,Alps,G008168E46496N,
777,CH,OBERLICKE-SE (PART OF B41/13N),5362,,,,,,,46.502499,8.17599,,,,,,,,Central Europe,Alps,G008175E46501N,
778,CH,GAELMINJIHOERNER-W (PART OF B41/13N),5363,,,,,,,46.500702,8.18639,,,,,,,,Central Europe,Alps,G008187E46500N,
779,CH,GAESTENGRAT,5364,,,,,,,46.587502,8.36505,,,,,,,,Central Europe,Alps,G008364E46590N,
780,CH,GAERSTENLICKE,5365,,,,,,,46.599201,8.36525,,,,,,,,Central Europe,Alps,G008364E46599N,RGI50-11.01336
781,CH,GALENGRAT-N (PART OF B43/03),5366,,,,,,,46.611401,8.41637,,,,,,,,Central Europe,Alps,G008416E46612N,RGI50-11.01326
782,CH,GALENGRAT-S (ONLY '73),5367,,,,,,,46.6078,8.415,,,,,,,,Central Europe,Alps,G008415E46608N,RGI50-11.01337
783,CH,SIDELEN-N (PART OF B43/07),5368,,,,,,,46.5998,8.40181,,,,,,,,Central Europe,Alps,G008405E46600N,
784,CH,SIDELENGRAT-W,5369,,,,,,,46.598,8.40569,,,,,,,,Central Europe,Alps,G008407E46599N,RGI50-11.01372
785,CH,SIDELENGRAT-S,5370,,,,,,,46.5872,8.40419,,,,,,,,Central Europe,Alps,G008405E46587N,
786,CH,GAERSTENLICKE-N (PART OF B43/03),5371,,,,,,,46.611698,8.37199,,,,,,,,Central Europe,Alps,G008371E46612N,RGI50-11.01325
787,CH,GALEN (PART OF B43/07),5372,,,,,,,46.605099,8.40973,,,,,,,,Central Europe,Alps,G008411E46608N,
788,CH,STOTZIG MUTTENHORN,5373,,,,,,,46.5383,8.44113,,,,,,,,Central Europe,Alps,G008441E46539N,RGI50-11.01532
789,CH,SAAS,5374,,,,,,,46.532902,8.44233,,,,,,,,Central Europe,Alps,G008442E46532N,RGI50-11.01542
790,CH,SAASHOERNER-N,5375,,,,,,,46.529301,8.43575,,,,,,,,Central Europe,Alps,G008436E46529N,
791,CH,WITENWASSEREN-W,5376,,,,,,,46.5299,8.46835,,,,,,,,Central Europe,Alps,G008470E46530N,RGI50-11.01553
792,CH,GEREN,5377,,,,,,,46.524502,8.46824,,,,,,,,Central Europe,Alps,G008466E46522N,RGI50-11.01567
793,CH,P. ROTONDO W GHIACCIAIO DEL,5378,,,,,,,46.512001,8.45758,,,,,,,,Central Europe,Alps,G008458E46511N,RGI50-11.01615
794,CH,CHUEEBODEN-II,5379,,,,,,,46.501301,8.44826,,,,,,,,Central Europe,Alps,G008446E46499N,RGI50-11.01676
795,CH,CHUEEBODEN-III,5380,,,,,,,46.497799,8.43908,,,,,,,,Central Europe,Alps,G008437E46497N,
796,CH,SIDELEN-E,5381,,,,,,,46.499699,8.4339,,,,,,,,Central Europe,Alps,G008433E46499N,
797,CH,SIDELEN-W,5382,,,,,,,46.497101,8.42213,,,,,,,,Central Europe,Alps,G008419E46496N,
798,CH,BLASEN-E,5383,,,,,,,46.5,8.38961,,,,,,,,Central Europe,Alps,G008388E46499N,RGI50-11.01696
799,CH,BLASEN-W,5384,,,,,,,46.5019,8.38313,,,,,,,,Central Europe,Alps,G008382E46501N,RGI50-11.01680
800,CH,BLASEN-III,5385,,,,,,,46.5028,8.37663,,,,,,,,Central Europe,Alps,G008374E46501N,
801,CH,CHILCHWENG,5386,,,,,,,46.492802,8.38948,,,,,,,,Central Europe,Alps,G008386E46494N,
802,CH,NUFENENSTOCK-W,5387,,,,,,,46.468601,8.38645,,,,,,,,Central Europe,Alps,G008385E46468N,
803,CH,RITZHOERNER-N,5388,,,,,,,46.454601,8.33805,,,,,,,,Central Europe,Alps,G008338E46455N,
804,CH,RITZ,5389,,,,,,,46.4529,8.32631,,,,,,,,Central Europe,Alps,G008325E46453N,RGI50-11.01864
805,CH,MEREZEBACH-W,5390,,,,,,,46.444,8.31054,,,,,,,,Central Europe,Alps,G008310E46444N,
806,CH,SULZ,5391,,,,,,,46.433201,8.30907,,,,,,,,Central Europe,Alps,G008311E46433N,RGI50-11.01929
807,CH,NUFENENSTOCK-N,5392,,,,,,,46.468498,8.38906,,,,,,,,Central Europe,Alps,G008390E46469N,
808,CH,FUELHORN-NW,5393,,,,,,,46.4617,8.35249,,,,,,,,Central Europe,Alps,G008353E46461N,
809,CH,MEREZEBACH-E,5394,,,,,,,46.448399,8.31712,,,,,,,,Central Europe,Alps,G008318E46449N,
810,CH,BLINNEN-E,5395,,,,,,,46.413601,8.29054,,,,,,,,Central Europe,Alps,G008292E46414N,RGI50-11.02010
811,CH,BLINNEN-SE,5396,,,,,,,46.41,8.29049,,,,,,,,Central Europe,Alps,G008297E46408N,RGI50-11.02031
812,CH,BLINNEN-III (PART OF B45/09),5397,,,,,,,46.4146,8.27625,,,,,,,,Central Europe,Alps,G008276E46414N,RGI50-11.01999
813,CH,HERCHUMME,5398,,,,,,,46.419201,8.25941,,,,,,,,Central Europe,Alps,G008259E46420N,
814,CH,FAELDBACH,5399,,,,,,,46.407398,8.26444,,,,,,,,Central Europe,Alps,G008262E46410N,RGI50-11.02037
815,CH,STRAHLGRAET-NW,5400,,,,,,,46.408199,8.28786,,,,,,,,Central Europe,Alps,G008289E46408N,RGI50-11.02012
816,CH,TURBE (PART OF B46/29N),5401,,,,,,,46.406399,8.28523,,,,,,,,Central Europe,Alps,G008287E46406N,
817,CH,HOHSANDHORN-SW (PART OF B46/29N),5402,,,,,,,46.400902,8.30205,,,,,,,,Central Europe,Alps,G008302E46401N,RGI50-11.02079
818,CH,TAELLI-N,5403,,,,,,,46.394501,8.31235,,,,,,,,Central Europe,Alps,G008313E46395N,RGI50-11.02103
819,CH,SCHIN,5404,,,,,,,46.362499,8.255961,,,,,,,,Central Europe,Alps,G008255E46363N,
820,CH,SCHWARZHORN-W VS,5405,,,,,,,46.332199,8.22173,,,,,,,,Central Europe,Alps,G008221E46333N,RGI50-11.02251
821,CH,WANNI,5406,,,,,,,46.3232,8.21771,,,,,,,,Central Europe,Alps,G008217E46322N,
822,CH,HELSENHORN-N,5407,,,,,,,46.306301,8.19151,,,,,,,,Central Europe,Alps,G008191E46306N,
823,CH,HELSE-S,5408,,,,,,,46.3027,8.18497,,,,,,,,Central Europe,Alps,G008186E46302N,RGI50-11.02295
824,CH,HILLE,5409,,,,,,,46.303001,8.14343,,,,,,,,Central Europe,Alps,G008142E46303N,RGI50-11.02294
825,CH,MAETTITAL,5410,,,,,,,46.306702,8.13699,,,,,,,,Central Europe,Alps,G008138E46307N,RGI50-11.02287
826,CH,SAFLISCHTAL-S,5411,,,,,,,46.3148,8.1306,,,,,,,,Central Europe,Alps,G008131E46315N,
827,CH,RAPPE,5412,,,,,,,46.410999,8.26709,,,,,,,,Central Europe,Alps,G008266E46412N,RGI50-11.02016
828,CH,TAELLI-S,5413,,,,,,,46.387299,8.31093,,,,,,,,Central Europe,Alps,G008311E46388N,RGI50-11.02136
829,CH,OFENHORN-W,5414,,,,,,,46.384602,8.30829,,,,,,,,Central Europe,Alps,G008308E46384N,
830,CH,UNTER-SCHINHORN-NW,5415,,,,,,,46.361698,8.24945,,,,,,,,Central Europe,Alps,G008248E46360N,
831,CH,ROTHORN-NW,5416,,,,,,,46.341,8.24264,,,,,,,,Central Europe,Alps,G008242E46342N,
832,CH,SCHWARZHORN-NE,5417,,,,,,,46.336601,8.22699,,,,,,,,Central Europe,Alps,G008227E46336N,RGI50-11.02250
833,CH,FLESCHHORN-N,5418,,,,,,,46.3349,8.21658,,,,,,,,Central Europe,Alps,G008216E46335N,
834,CH,HELSE-E,5419,,,,,,,46.3135,8.18641,,,,,,,,Central Europe,Alps,G008187E46313N,
835,CH,HELSE-N,5420,,,,,,,46.304699,8.18305,,,,,,,,Central Europe,Alps,G008182E46305N,RGI50-11.02292
836,CH,RITTERPASS-W,5421,,,,,,,46.298401,8.15895,,,,,,,,Central Europe,Alps,G008158E46298N,RGI50-11.02313
837,CH,CHUMMIBORT-S,5422,,,,,,,46.303799,8.15513,,,,,,,,Central Europe,Alps,G008155E46303N,RGI50-11.02296
838,CH,HILLEHORN-N,5423,,,,,,,46.305698,8.14217,,,,,,,,Central Europe,Alps,G008142E46306N,
839,CH,BORTEL,5424,,,,,,,46.294201,8.12126,,,,,,,,Central Europe,Alps,G008122E46295N,RGI50-11.02315
840,CH,TUNNELSPITZ-NW,5425,,,,,,,46.2701,8.08982,,,,,,,,Central Europe,Alps,G008089E46270N,
841,CH,TUNNELSPITZ-NE,5426,,,,,,,46.275398,8.09767,,,,,,,,Central Europe,Alps,G008098E46275N,
842,CH,WASUHORN-NW,5427,,,,,,,46.268299,8.08461,,,,,,,,Central Europe,Alps,G008085E46268N,
843,CH,GAMSA (PART OF B50/06N),5428,,,,,,,46.189602,7.98912,,,,,,,,Central Europe,Alps,G007989E46189N,RGI50-11.02432
844,CH,MATTWALD,5429,,,,,,,46.1833,7.99165,,,,,,,,Central Europe,Alps,G007990E46183N,RGI50-11.02440
845,CH,JEGIGRAT-N,5430,,,,,,,46.162701,7.98238,,,,,,,,Central Europe,Alps,G007983E46162N,RGI50-11.02487
846,CH,FLETSCHHORN-N (PART OF B51/19N),5431,,,,,,,46.163502,7.99533,,,,,,,,Central Europe,Alps,G007993E46164N,RGI50-11.02482
847,CH,FLETSCHHORN-S (PART OF B51/19N),5432,,,,,,,46.167,8.00832,,,,,,,,Central Europe,Alps,G008008E46167N,RGI50-11.02474
848,CH,LAGGINHORN,5433,,,,,,,46.153599,8.0017,,,,,,,,Central Europe,Alps,G007994E46150N,
849,CH,HOHLAUB-N,5434,,,,,,,46.1446,8.00161,,,,,,,,Central Europe,Alps,G008004E46144N,RGI50-11.02526
850,CH,TRIFT VS,5435,,,,,,,46.1338,8.0015,,,,,,,,Central Europe,Alps,G008002E46138N,RGI50-11.02540
851,CH,MAELLIGA,5436,,,,,,,46.125702,7.99753,,,,,,,,Central Europe,Alps,G007995E46126N,RGI50-11.02562
852,CH,ROTBLATT-I,5437,,,,,,,46.099499,8.02701,,,,,,,,Central Europe,Alps,G008030E46100N,RGI50-11.02599
853,CH,ROTBLATT-II,5438,,,,,,,46.094101,8.02695,,,,,,,,Central Europe,Alps,G008029E46091N,
854,CH,ROTBLATT-III,5439,,,,,,,46.080601,8.01646,,,,,,,,Central Europe,Alps,G008020E46079N,RGI50-11.02639
855,CH,WYSSTAL,5440,,,,,,,46.083401,8.00356,,,,,,,,Central Europe,Alps,G008004E46082N,RGI50-11.02647
856,CH,FURGGEN,5441,,,,,,,46.036598,8.01341,,,,,,,,Central Europe,Alps,G008014E46036N,RGI50-11.02751
857,CH,NOLLEN -E,5442,,,,,,,46.040199,8.00312,,,,,,,,Central Europe,Alps,G008003E46039N,RGI50-11.02732
858,CH,NOLLEN -W,5443,,,,,,,46.039299,7.99794,,,,,,,,Central Europe,Alps,G007997E46039N,RGI50-11.02727
859,CH,FLUCHTHORN-E,5444,,,,,,,46.022598,7.92546,,,,,,,,Central Europe,Alps,G007924E46023N,
860,CH,FLUCHTHORN-NE,5445,,,,,,,46.024399,7.91643,,,,,,,,Central Europe,Alps,G007916E46025N,RGI50-11.02761
861,CH,UESSERE TURU-SW (PART OF B52/66N),5446,,,,,,,46.036999,7.93204,,,,,,,,Central Europe,Alps,G007931E46036N,RGI50-11.02747
862,CH,WEISSMIES-S,5447,,,,,,,46.126499,8.01436,,,,,,,,Central Europe,Alps,G008015E46126N,
863,CH,STRAHLHORN-E (PART OF B52/24),5448,,,,,,,46.010101,7.91244,,,,,,,,Central Europe,Alps,G007913E46018N,RGI50-11.02785
864,CH,STRAHLHORN-SE,5449,,,,,,,46.010101,7.9034,,,,,,,,Central Europe,Alps,G007903E46009N,RGI50-11.02795
865,CH,DOMJOCH-E,5450,,,,,,,46.090302,7.86141,,,,,,,,Central Europe,Alps,G007863E46090N,
866,CH,FALL,5451,,,,,,,46.1064,7.88094,,,,,,,,Central Europe,Alps,G007879E46106N,RGI50-11.02586
867,CH,HOHBALM,5452,,,,,,,46.111,7.8758,,,,,,,,Central Europe,Alps,G007874E46109N,RGI50-11.02572
868,CH,SCHILTHORN-W,5453,,,,,,,46.1469,7.88644,,,,,,,,Central Europe,Alps,G007886E46146N,RGI50-11.02513
869,CH,BALFRIN,5454,,,,,,,46.141499,7.87864,,,,,,,,Central Europe,Alps,G007880E46138N,RGI50-11.02496
870,CH,NADELGRAT-E-I,5455,,,,,,,46.137901,7.89284,,,,,,,,Central Europe,Alps,G007893E46139N,
871,CH,NADELGRAT-W,5456,,,,,,,46.143299,7.88512,,,,,,,,Central Europe,Alps,G007886E46144N,
872,CH,KLEINES BIGERHORN-E,5457,,,,,,,46.145199,7.86055,,,,,,,,Central Europe,Alps,G007862E46147N,
873,CH,DUERREN,5458,,,,,,,46.120098,7.83965,,,,,,,,Central Europe,Alps,G007839E46120N,
874,CH,HOHBERG,5459,,,,,,,46.104698,7.85247,,,,,,,,Central Europe,Alps,G007848E46107N,RGI50-11.02576
875,CH,HOHGWAECHTE,5460,,,,,,,46.104801,7.83825,,,,,,,,Central Europe,Alps,G007836E46105N,RGI50-11.02583
876,CH,FESTI,5461,,,,,,,46.095798,7.83948,,,,,,,,Central Europe,Alps,G007851E46095N,RGI50-11.02597
877,CH,KIN-N (PART OF B55/30N),5462,,,,,,,46.0895,7.84331,,,,,,,,Central Europe,Alps,G007851E46089N,RGI50-11.02618
878,CH,KIN-S (PART OF B55/30N),5463,,,,,,,46.084099,7.83551,,,,,,,,Central Europe,Alps,G007841E46086N,RGI50-11.02638
879,CH,WEINGARTEN-S-I,5464,,,,,,,46.068802,7.8522,,,,,,,,Central Europe,Alps,G007854E46069N,
880,CH,WEINGARTEN-S-II,5465,,,,,,,46.0625,7.85474,,,,,,,,Central Europe,Alps,G007857E46060N,RGI50-11.02681
881,CH,ALPHUBEL-S,5466,,,,,,,46.056999,7.86762,,,,,,,,Central Europe,Alps,G007867E46057N,RGI50-11.02703
882,CH,ALPHUBEL,5467,,,,,,,46.050701,7.86498,,,,,,,,Central Europe,Alps,G007869E46052N,RGI50-11.02706
883,CH,FEECHOPF-W,5468,,,,,,,46.049801,7.87402,,,,,,,,Central Europe,Alps,G007874E46050N,RGI50-11.02713
884,CH,MELLICH,5469,,,,,,,46.041698,7.87783,,,,,,,,Central Europe,Alps,G007867E46048N,RGI50-11.02724
885,CH,LAENGFLUE-E (PART OF B55/38N),5470,,,,,,,46.021099,7.8583,,,,,,,,Central Europe,Alps,G007868E46020N,RGI50-11.02758
886,CH,OBERROTHORN-N,5471,,,,,,,46.031101,7.81446,,,,,,,,Central Europe,Alps,G007813E46030N,
887,CH,OBERROTHORN-NW,5472,,,,,,,46.032002,7.8093,,,,,,,,Central Europe,Alps,G007809E46032N,
888,CH,DOMJOCH-W,5473,,,,,,,46.087601,7.85881,,,,,,,,Central Europe,Alps,G007858E46088N,RGI50-11.02633
889,CH,TEUFELSGRAT-N,5474,,,,,,,46.083198,7.85231,,,,,,,,Central Europe,Alps,G007850E46084N,RGI50-11.02642
890,CH,WEINGARTEN-N-I (PART OF B55/12),5475,,,,,,,46.077801,7.85227,,,,,,,,Central Europe,Alps,G007854E46077N,RGI50-11.02654
891,CH,WEINGARTEN-N-II (PART OF B55/12),5476,,,,,,,46.0732,7.8587,,,,,,,,Central Europe,Alps,G007863E46073N,RGI50-11.02663
892,CH,ALPHUBEL-W,5477,,,,,,,46.0615,7.86507,,,,,,,,Central Europe,Alps,G007864E46064N,RGI50-11.02677
893,CH,MELLICH-S (PART OF B55/35N),5478,,,,,,,46.027302,7.87772,,,,,,,,Central Europe,Alps,G007877E46025N,RGI50-11.02724
894,CH,LAENGFLUE-N (PART OF B55/35N),5479,,,,,,,46.024601,7.86607,,,,,,,,Central Europe,Alps,G007867E46023N,RGI50-11.02758
895,CH,LAENGFLUEJOCH-E,5480,,,,,,,46.018299,7.87248,,,,,,,,Central Europe,Alps,G007870E46018N,RGI50-11.02778
896,CH,TRIFTJI,5481,,,,,,,45.9897,7.82579,,,,,,,,Central Europe,Alps,G007826E45990N,RGI50-11.02826
897,CH,FURGGGRAT,5482,,,,,,,45.957699,7.68111,,,,,,,,Central Europe,Alps,G007681E45958N,RGI50-11.02906
898,CH,RIMPFISCHSATTEL,5483,,,,,,,46.021,7.88025,,,,,,,,Central Europe,Alps,G007880E46021N,
899,CH,MONTE ROSA (PART OF B56/07),5484,,,,,,,45.9519,7.83842,,,,,,,,Central Europe,Alps,G007835E45954N,RGI50-11.02904
900,CH,SCHWAERZE-E (PART OF B56/10),5485,,,,,,,45.952,7.79329,,,,,,,,Central Europe,Alps,G007793E45952N,RGI50-11.02917
901,CH,SCHWAERZE-W (PART OF B56/10),5486,,,,,,,45.952,7.78684,,,,,,,,Central Europe,Alps,G007789E45951N,RGI50-11.02916
902,CH,BREITHORN (PART OF B56/07),5487,,,,,,,45.947601,7.76102,,,,,,,,Central Europe,Alps,G007762E45950N,RGI50-11.02848
903,CH,UNTERER THEODUL (PART OF B56/07),5488,,,,,,,45.9342,7.72871,,,,,,,,Central Europe,Alps,G007730E45943N,RGI50-11.02848
904,CH,OBERER THEODUL,5489,,,,,,,45.956799,7.70303,,,,,,,,Central Europe,Alps,G007707E45958N,RGI50-11.02845
905,CH,FURGG-,5490,,,,,,,45.965801,7.69018,,,,,,,,Central Europe,Alps,G007691E45961N,RGI50-11.02845
906,CH,MATTERHORN,5491,,,,,,,45.982101,7.65799,,,,,,,,Central Europe,Alps,G007660E45983N,RGI50-11.02828
907,CH,WANDFLUE,5492,,,,,,,46.021702,7.60909,,,,,,,,Central Europe,Alps,G007608E46021N,RGI50-11.02764
908,CH,DENT BLANCHE-SE,5493,,,,,,,46.033402,7.62075,,,,,,,,Central Europe,Alps,G007620E46033N,RGI50-11.02746
909,CH,POINTE DE ZINAL-S-II,5494,,,,,,,46.020802,7.63233,,,,,,,,Central Europe,Alps,G007632E46020N,
910,CH,HOHWAENG,5495,,,,,,,46.0271,7.64139,,,,,,,,Central Europe,Alps,G007640E46025N,RGI50-11.02753
911,CH,ARBEN-W (PART OF B57/22N),5496,,,,,,,46.033298,7.6582,,,,,,,,Central Europe,Alps,G007657E46032N,RGI50-11.02741
912,CH,ARBEN-E (PART OF B57/22N),5497,,,,,,,46.033298,7.67112,,,,,,,,Central Europe,Alps,G007669E46034N,RGI50-11.02744
913,CH,GABELHORN,5498,,,,,,,46.0378,7.67759,,,,,,,,Central Europe,Alps,G007676E46037N,RGI50-11.02731
914,CH,TRIFT VS,5499,,,,,,,46.0513,7.68799,,,,,,,,Central Europe,Alps,G007685E46051N,RGI50-11.02687
915,CH,ROTHORN VS,5500,,,,,,,46.056599,7.70739,,,,,,,,Central Europe,Alps,G007709E46058N,RGI50-11.02689
916,CH,ZMUTTGRAT-W,5501,,,,,,,45.981201,7.65154,,,,,,,,Central Europe,Alps,G007651E45981N,RGI50-11.02846
917,CH,POINTE DE ZINAL-S-I,5502,,,,,,,46.024399,7.63234,,,,,,,,Central Europe,Alps,G007631E46024N,
918,CH,OBER GABELJOCH,5503,,,,,,,46.035099,7.67371,,,,,,,,Central Europe,Alps,G007674E46035N,RGI50-11.02743
919,CH,WELLENKUPPE-S,5504,,,,,,,46.041401,7.67632,,,,,,,,Central Europe,Alps,G007677E46041N,RGI50-11.02730
920,CH,WELLENKUPPE-E-II,5505,,,,,,,46.042301,7.68407,,,,,,,,Central Europe,Alps,G007684E46042N,RGI50-11.02729
921,CH,ZINALROTHORN-SE,5506,,,,,,,46.057499,7.69577,,,,,,,,Central Europe,Alps,G007696E46057N,
922,CH,HOHLICHT,5507,,,,,,,46.068298,7.70357,,,,,,,,Central Europe,Alps,G007700E46064N,RGI50-11.02656
923,CH,SCHALI-W-I (PART OF B58/29N),5508,,,,,,,46.090801,7.71661,,,,,,,,Central Europe,Alps,G007715E46092N,RGI50-11.02605
924,CH,SCHALI-W-III (PART OF B58/29N),5509,,,,,,,46.0961,7.73345,,,,,,,,Central Europe,Alps,G007733E46096N,RGI50-11.02608
925,CH,SCHALI-E,5510,,,,,,,46.0952,7.73862,,,,,,,,Central Europe,Alps,G007738E46095N,RGI50-11.02602
926,CH,SCHMAL,5511,,,,,,,46.097,7.74509,,,,,,,,Central Europe,Alps,G007744E46097N,RGI50-11.02603
927,CH,ROSS,5512,,,,,,,46.124,7.753,,,,,,,,Central Europe,Alps,G007752E46124N,RGI50-11.02559
928,CH,HOLZ,5513,,,,,,,46.132,7.75564,,,,,,,,Central Europe,Alps,G007755E46131N,
929,CH,ABBERG,5514,,,,,,,46.132099,7.7427,,,,,,,,Central Europe,Alps,G007740E46133N,RGI50-11.02534
930,CH,SCHOELLI,5515,,,,,,,46.143799,7.73629,,,,,,,,Central Europe,Alps,G007736E46145N,RGI50-11.02518
931,CH,UNTERE STELLI,5516,,,,,,,46.1591,7.74285,,,,,,,,Central Europe,Alps,G007738E46154N,RGI50-11.02483
932,CH,OBERE STELLI,5517,,,,,,,46.168098,7.7442,,,,,,,,Central Europe,Alps,G007746E46166N,
933,CH,JUNG,5518,,,,,,,46.1744,7.74294,,,,,,,,Central Europe,Alps,G007742E46174N,RGI50-11.02450
934,CH,RINDERALPJI,5519,,,,,,,46.1861,7.73653,,,,,,,,Central Europe,Alps,G007737E46186N,
935,CH,ZINALROTHORN-N,5520,,,,,,,46.067402,7.68935,,,,,,,,Central Europe,Alps,G007690E46068N,RGI50-11.02604
936,CH,POINTE N DE MOMING-SE,5521,,,,,,,46.0746,7.7049,,,,,,,,Central Europe,Alps,G007706E46073N,RGI50-11.02653
937,CH,HOHLICHTPASS-E,5522,,,,,,,46.079102,7.70233,,,,,,,,Central Europe,Alps,G007703E46078N,RGI50-11.02646
938,CH,SCHALIHORN-S,5523,,,,,,,46.082699,7.70364,,,,,,,,Central Europe,Alps,G007703E46081N,RGI50-11.02643
939,CH,SCHALI-W-II (PART OF B58/29N),5524,,,,,,,46.092499,7.72567,,,,,,,,Central Europe,Alps,G007726E46094N,RGI50-11.02609
940,CH,BARRJOCH,5525,,,,,,,46.158199,7.73508,,,,,,,,Central Europe,Alps,G007735E46159N,
941,CH,STEITALHORN-NW,5526,,,,,,,46.204899,7.75736,,,,,,,,Central Europe,Alps,G007757E46205N,
942,CH,ROTHORN VS,5527,,,,,,,46.181599,7.73003,,,,,,,,Central Europe,Alps,G007730E46183N,
943,CH,BRAENDJI,5528,,,,,,,46.1726,7.73645,,,,,,,,Central Europe,Alps,G007737E46172N,RGI50-11.02459
944,CH,HOLESTEI,5529,,,,,,,46.169899,7.72996,,,,,,,,Central Europe,Alps,G007730E46169N,
945,CH,PIPJI,5530,,,,,,,46.16,7.7325,,,,,,,,Central Europe,Alps,G007733E46159N,RGI50-11.02475
946,CH,BARRWANG,5531,,,,,,,46.155498,7.7273,,,,,,,,Central Europe,Alps,G007724E46156N,
947,CH,CHANZILTI (PART OF B60/09),5532,,,,,,,46.144699,7.72853,,,,,,,,Central Europe,Alps,G007727E46145N,RGI50-11.02520
948,CH,DIABLON DES DAMES-E,5533,,,,,,,46.1394,7.67286,,,,,,,,Central Europe,Alps,G007673E46139N,RGI50-11.02533
949,CH,DIABLONS -S,5534,,,,,,,46.144798,7.67288,,,,,,,,Central Europe,Alps,G007675E46146N,RGI50-11.02504
950,CH,LES DIABLONS-N,5535,,,,,,,46.151199,7.66515,,,,,,,,Central Europe,Alps,G007667E46152N,
951,CH,UESSERS BARRHORN,5536,,,,,,,46.156399,7.73377,,,,,,,,Central Europe,Alps,G007731E46157N,
952,CH,DIABLONS -N,5537,,,,,,,46.1493,7.67161,,,,,,,,Central Europe,Alps,G007671E46149N,RGI50-11.02504
953,CH,WEISSHORN GLACIER DU-N-I,5538,,,,,,,46.1115,7.69732,,,,,,,,Central Europe,Alps,G007700E46112N,RGI50-11.02577
954,CH,WEISSHORN GLACIER DU-S,5539,,,,,,,46.093498,7.69723,,,,,,,,Central Europe,Alps,G007701E46104N,RGI50-11.02601
955,CH,SCHALIJOCH-W,5540,,,,,,,46.093498,7.70757,,,,,,,,Central Europe,Alps,G007708E46093N,RGI50-11.02614
956,CH,TTE DE MILON-N (PART OF B62/12N),5541,,,,,,,46.1232,7.68832,,,,,,,,Central Europe,Alps,G007687E46127N,RGI50-11.02552
957,CH,WEISSHORN GLACIER DU-N-II,5542,,,,,,,46.106998,7.69859,,,,,,,,Central Europe,Alps,G007698E46107N,RGI50-11.02577
958,CH,WEISSHORN-W,5543,,,,,,,46.102501,7.7115,,,,,,,,Central Europe,Alps,G007710E46100N,
959,CH,BESSO-NW,5544,,,,,,,46.081001,7.65451,,,,,,,,Central Europe,Alps,G007654E46081N,
960,CH,BESSO-W,5545,,,,,,,46.0756,7.65191,,,,,,,,Central Europe,Alps,G007651E46076N,
961,CH,BESSO GLACIER DU,5546,,,,,,,46.070202,7.66223,,,,,,,,Central Europe,Alps,G007661E46071N,RGI50-11.02662
962,CH,GRAND CORNIER-E-II,5547,,,,,,,46.0523,7.62727,,,,,,,,Central Europe,Alps,G007627E46052N,RGI50-11.02697
963,CH,PIGNE DE LA LE-N,5548,,,,,,,46.086498,7.61446,,,,,,,,Central Europe,Alps,G007613E46086N,
964,CH,BLANC DE MOMING-W,5549,,,,,,,46.071999,7.66611,,,,,,,,Central Europe,Alps,G007666E46072N,RGI50-11.02661
965,CH,GRAND CORNIER-E-I,5550,,,,,,,46.051399,7.61564,,,,,,,,Central Europe,Alps,G007618E46052N,RGI50-11.02710
966,CH,GRAND CORNIER-NE-I,5551,,,,,,,46.059502,7.62471,,,,,,,,Central Europe,Alps,G007626E46059N,
967,CH,GRAND CORNIER-NE-II,5552,,,,,,,46.055901,7.62082,,,,,,,,Central Europe,Alps,G007621E46056N,RGI50-11.02693
968,CH,BOUQUETINS,5553,,,,,,,46.064899,7.60793,,,,,,,,Central Europe,Alps,G007609E46065N,RGI50-11.02595
969,CH,BOUQUETINS-E,5554,,,,,,,46.0676,7.6144,,,,,,,,Central Europe,Alps,G007614E46067N,
970,CH,POINTES DE MOURTI-N,5555,,,,,,,46.073002,7.58598,,,,,,,,Central Europe,Alps,G007584E46074N,RGI50-11.02655
971,CH,MOURTI GLACIER DE VS,5556,,,,,,,46.073002,7.57823,,,,,,,,Central Europe,Alps,G007576E46074N,
972,CH,POINTES DE MOURTI-S,5557,,,,,,,46.072102,7.58339,,,,,,,,Central Europe,Alps,G007584E46072N,RGI50-11.02660
973,CH,POINTE DE BRICOLA-SE,5558,,,,,,,46.056801,7.60661,,,,,,,,Central Europe,Alps,G007605E46058N,RGI50-11.02684
974,CH,BRICOLA GLACIER DE,5559,,,,,,,46.051399,7.60401,,,,,,,,Central Europe,Alps,G007603E46050N,RGI50-11.02691
975,CH,DENT BLANCHE GLACIER DE LA,5560,,,,,,,46.0397,7.60268,,,,,,,,Central Europe,Alps,G007604E46039N,RGI50-11.02717
976,CH,DENT BLANCHE-SW (PART OF B72/26N),5561,,,,,,,46.026199,7.60652,,,,,,,,Central Europe,Alps,G007604E46027N,RGI50-11.02745
977,CH,MANZETTES GLACIER DES (PART OF B72/26N),5562,,,,,,,46.022598,7.60134,,,,,,,,Central Europe,Alps,G007599E46023N,RGI50-11.02750
978,CH,NAMENLOS VS,5563,,,,,,,46.012798,7.56,,,,,,,,Central Europe,Alps,G007553E45994N,
979,CH,MONT MINE-S-II,5564,,,,,,,46.0182,7.55743,,,,,,,,Central Europe,Alps,G007557E46018N,RGI50-11.02769
980,CH,POINTE DE TSALION-E,5565,,,,,,,46.022701,7.52515,,,,,,,,Central Europe,Alps,G007527E46027N,RGI50-11.02752
981,CH,MONTAY GLACIER DE,5566,,,,,,,46.041599,7.53035,,,,,,,,Central Europe,Alps,G007530E46043N,RGI50-11.02720
982,CH,GRANDE DENT DE VEISIVI-SE,5567,,,,,,,46.047901,7.53424,,,,,,,,Central Europe,Alps,G007534E46048N,RGI50-11.02712
983,CH,BIEGNET,5568,,,,,,,46.056,7.52908,,,,,,,,Central Europe,Alps,G007529E46055N,
984,CH,ROSSES GLACIER DES-S (PART OF B72/04),5569,,,,,,,46.062199,7.58466,,,,,,,,Central Europe,Alps,G007584E46062N,RGI50-11.02679
985,CH,MONT MINE-S-I,5570,,,,,,,46.016399,7.55871,,,,,,,,Central Europe,Alps,G007558E46017N,RGI50-11.02777
986,CH,POINTE DES GENEVOIS-SE,5571,,,,,,,46.033501,7.52905,,,,,,,,Central Europe,Alps,G007530E46034N,
987,CH,TSARMINE GLACIER DE,5572,,,,,,,46.047901,7.52003,,,,,,,,Central Europe,Alps,G007520E46047N,
988,CH,TSALION-I,5573,,,,,,,46.026298,7.51612,,,,,,,,Central Europe,Alps,G007517E46026N,
989,CH,TSA GLACIER DE LA,5574,,,,,,,46.020901,7.51482,,,,,,,,Central Europe,Alps,G007516E46020N,
990,CH,DOUVES BLANCHES GLACIER DES,5575,,,,,,,46.014599,7.51481,,,,,,,,Central Europe,Alps,G007516E46017N,RGI50-11.02772
991,CH,BERTOL GLACIER DE,5576,,,,,,,46.009201,7.52255,,,,,,,,Central Europe,Alps,G007524E46011N,RGI50-11.02784
992,CH,DENTS DE BERTOL-W,5577,,,,,,,45.997501,7.53544,,,,,,,,Central Europe,Alps,G007536E45996N,RGI50-11.02810
993,CH,DENTS DE BERTOL-S,5578,,,,,,,45.990299,7.53414,,,,,,,,Central Europe,Alps,G007535E45990N,
994,CH,BOUQUETINS GLACIER DES (PART OF B73/32N),5579,,,,,,,45.9813,7.53799,,,,,,,,Central Europe,Alps,G007539E45981N,
995,CH,POINTE BARNES (TEIL B73/32N),5580,,,,,,,45.973202,7.53798,,,,,,,,Central Europe,Alps,G007539E45974N,
996,CH,AROLLA HAUT GLACIER D' (PART OF B73/32N),5581,,,,,,,45.973202,7.5225,,,,,,,,Central Europe,Alps,G007523E45969N,RGI50-11.02834
997,CH,MONT COLLON N-I,5582,,,,,,,45.976799,7.50573,,,,,,,,Central Europe,Alps,G007505E45977N,RGI50-11.02849
998,CH,PIECE GLACIER DE,5583,,,,,,,45.997601,7.46961,,,,,,,,Central Europe,Alps,G007475E45994N,RGI50-11.02787
999,CH,COL DES IGNES-N,5584,,,,,,,46.0425,7.43218,,,,,,,,Central Europe,Alps,G007431E46043N,
1000,CH,AIGUILLES ROUGES  INF. DES (PART OF B73/35N),5585,,,,,,,46.047901,7.43864,,,,,,,,Central Europe,Alps,G007436E46049N,
1001,CH,AIGUILLES ROUGES GLACIER SUPERIEUR DES,5586,,,,,,,46.0569,7.44122,,,,,,,,Central Europe,Alps,G007439E46057N,RGI50-11.02686
1002,CH,VOUASSON GLACIER DE,5587,,,,,,,46.072201,7.43476,,,,,,,,Central Europe,Alps,G007433E46070N,RGI50-11.02634
1003,CH,TSALION-II,5588,,,,,,,46.0317,7.52129,,,,,,,,Central Europe,Alps,G007521E46032N,
1004,CH,BOUQUETINS-I (PART OF B73/32N),5589,,,,,,,45.984901,7.538,,,,,,,,Central Europe,Alps,G007540E45985N,RGI50-11.02832
1005,CH,BOUQUETINS-II (PART OF B73/32N),5590,,,,,,,45.976799,7.53411,,,,,,,,Central Europe,Alps,G007534E45976N,
1006,CH,MONT COLLON-N-II,5591,,,,,,,45.982201,7.50832,,,,,,,,Central Europe,Alps,G007508E45983N,RGI50-11.02842
1007,CH,PIGNE D'AROLLA-E (PART OF B73/32N),5592,,,,,,,45.988602,7.46832,,,,,,,,Central Europe,Alps,G007471E45988N,RGI50-11.02825
1008,CH,PIGNE D'AROLLA-N,5593,,,,,,,45.993099,7.46187,,,,,,,,Central Europe,Alps,G007462E45993N,RGI50-11.02812
1009,CH,AIGUILLES ROUGES GLACIER SUP. DES I,5594,,,,,,,46.062302,7.44251,,,,,,,,Central Europe,Alps,G007438E46061N,RGI50-11.02674
1010,CH,AIGUILLES ROUGES (PTE. DE DARBONNEIRE),5595,,,,,,,46.066799,7.43605,,,,,,,,Central Europe,Alps,G007436E46069N,RGI50-11.02666
1011,CH,MONT DE L'ETOILE-I,5596,,,,,,,46.0713,7.44639,,,,,,,,Central Europe,Alps,G007445E46071N,
1012,CH,MERDERE GLACIER DE,5597,,,,,,,46.074902,7.427,,,,,,,,Central Europe,Alps,G007427E46073N,
1013,CH,TSAUDERYS GLACIER DES,5598,,,,,,,46.067699,7.42184,,,,,,,,Central Europe,Alps,G007422E46067N,RGI50-11.02668
1014,CH,DARBONNEIRE GLACIER DE-N,5599,,,,,,,46.060501,7.42959,,,,,,,,Central Europe,Alps,G007430E46061N,
1015,CH,DARBONNEIRE GLACIER DE-S,5600,,,,,,,46.051498,7.42572,,,,,,,,Central Europe,Alps,G007429E46052N,
1016,CH,TSENA REFIEN-W,5601,,,,,,,46.0102,7.43218,,,,,,,,Central Europe,Alps,G007435E46009N,
1017,CH,TSENA REFIEN-S,5602,,,,,,,46.002998,7.44122,,,,,,,,Central Europe,Alps,G007441E46002N,
1018,CH,LUETTE GLACIER DE LA,5603,,,,,,,46.010101,7.39733,,,,,,,,Central Europe,Alps,G007393E46008N,RGI50-11.02776
1019,CH,LE PLEURER (LUETTE),5604,,,,,,,46.013699,7.37408,,,,,,,,Central Europe,Alps,G007374E46014N,
1020,CH,SALE GLACIER DE LA,5605,,,,,,,46.028999,7.37794,,,,,,,,Central Europe,Alps,G007371E46029N,RGI50-11.02736
1021,CH,PANTALONS BLANCS GLACIER DES,5606,,,,,,,46.037102,7.37018,,,,,,,,Central Europe,Alps,G007369E46039N,RGI50-11.02722
1022,CH,ECOULAIES GLACIER DES,5607,,,,,,,46.0452,7.365,,,,,,,,Central Europe,Alps,G007365E46045N,RGI50-11.02702
1023,CH,MOURTI GLACIER DE VS,5608,,,,,,,46.058701,7.35982,,,,,,,,Central Europe,Alps,G007358E46058N,RGI50-11.02676
1024,CH,PRAFLEURI GLACIER DE,5609,,,,,,,46.0695,7.35851,,,,,,,,Central Europe,Alps,G007356E46066N,RGI50-11.02645
1025,CH,METAIL GLACIER DE,5610,,,,,,,46.105499,7.36234,,,,,,,,Central Europe,Alps,G007362E46105N,RGI50-11.02580
1026,CH,ORCHERA GLACIER D',5611,,,,,,,46.115398,7.35844,,,,,,,,Central Europe,Alps,G007359E46115N,RGI50-11.02568
1027,CH,MONT BLANC DE CHEILON,5612,,,,,,,45.992199,7.41412,,,,,,,,Central Europe,Alps,G007413E45991N,RGI50-11.02816
1028,CH,LE PERRON,5613,,,,,,,46.1082,7.35457,,,,,,,,Central Europe,Alps,G007355E46108N,
1029,CH,MONT CALME,5614,,,,,,,46.078499,7.35462,,,,,,,,Central Europe,Alps,G007356E46079N,RGI50-11.02636
1030,CH,TORTIN GLACIER DE (NO. 32),5615,,,,,,,46.084702,7.30678,,,,,,,,Central Europe,Alps,G007312E46081N,RGI50-11.02611
1031,CH,LOUETTES ECONDOUE GLACIER DES,5616,,,,,,,46.089199,7.29642,,,,,,,,Central Europe,Alps,G007295E46089N,
1032,CH,GENTIANES,5617,,,,,,,46.0793,7.30808,,,,,,,,Central Europe,Alps,G007308E46080N,
1033,CH,CHAUX GLACIER DE LA,5618,,,,,,,46.074799,7.30422,,,,,,,,Central Europe,Alps,G007305E46074N,RGI50-11.02648
1034,CH,LA RIONDE,5619,,,,,,,46.062302,7.33784,,,,,,,,Central Europe,Alps,G007338E46063N,RGI50-11.02672
1035,CH,ROSABLANCHE,5620,,,,,,,46.060501,7.35335,,,,,,,,Central Europe,Alps,G007352E46061N,
1036,CH,SEVEREU GLACIER DE,5621,,,,,,,46.0551,7.34949,,,,,,,,Central Europe,Alps,G007351E46054N,RGI50-11.02688
1037,CH,PARRAIN GLACIER DU,5622,,,,,,,46.049702,7.34949,,,,,,,,Central Europe,Alps,G007353E46047N,RGI50-11.02704
1038,CH,LE PARRAIN,5623,,,,,,,46.0452,7.34821,,,,,,,,Central Europe,Alps,G007349E46044N,
1039,CH,COL DU CRT,5624,,,,,,,46.0425,7.35467,,,,,,,,Central Europe,Alps,G007355E46043N,
1040,CH,CRET GLACIER DU,5625,,,,,,,46.033501,7.36373,,,,,,,,Central Europe,Alps,G007361E46033N,
1041,CH,LE PLEUREUR-W,5626,,,,,,,46.0173,7.36762,,,,,,,,Central Europe,Alps,G007367E46018N,
1042,CH,LE PLEUREUR-S,5627,,,,,,,46.010101,7.37022,,,,,,,,Central Europe,Alps,G007371E46010N,RGI50-11.02783
1043,CH,RUINETTE GLACIER DE LA,5628,,,,,,,45.972401,7.40381,,,,,,,,Central Europe,Alps,G007398E45976N,RGI50-11.02853
1044,CH,GRANDE LIRE GLACIER DE LA,5629,,,,,,,45.9463,7.40511,,,,,,,,Central Europe,Alps,G007404E45946N,RGI50-11.02926
1045,CH,PORTON N (PART OF B82/27),5630,,,,,,,45.960701,7.43735,,,,,,,,Central Europe,Alps,G007442E45969N,RGI50-11.02892
1046,CH,POINTES DU BRENAY-S (PART OF B82/27),5631,,,,,,,45.9706,7.45154,,,,,,,,Central Europe,Alps,G007448E45973N,RGI50-11.02868
1047,CH,POINTES DU BRENAY-N,5632,,,,,,,45.976898,7.44896,,,,,,,,Central Europe,Alps,G007450E45977N,RGI50-11.02854
1048,CH,LA SIGLA (TEIL B82/27),5633,,,,,,,45.9436,7.4683,,,,,,,,Central Europe,Alps,G007469E45944N,RGI50-11.02931
1049,CH,BECCA RAYETTE,5634,,,,,,,45.913898,7.41931,,,,,,,,Central Europe,Alps,G007419E45914N,RGI50-11.02998
1050,CH,EPICOUNE GLACIER D',5635,,,,,,,45.916599,7.41029,,,,,,,,Central Europe,Alps,G007412E45914N,RGI50-11.02976
1051,CH,TOURME DES BOUCS-N,5636,,,,,,,45.912102,7.39869,,,,,,,,Central Europe,Alps,G007399E45912N,
1052,CH,TOURME DES BOUCS-S,5637,,,,,,,45.9058,7.39612,,,,,,,,Central Europe,Alps,G007396E45905N,
1053,CH,CRETE SECHE GLACIER DE,5638,,,,,,,45.9076,7.38581,,,,,,,,Central Europe,Alps,G007373E45906N,
1054,CH,FENETRE GLACIER DE,5639,,,,,,,45.909401,7.36132,,,,,,,,Central Europe,Alps,G007363E45913N,RGI50-11.02982
1055,CH,AVRIL,5640,,,,,,,45.915699,7.34843,,,,,,,,Central Europe,Alps,G007349E45916N,RGI50-11.02991
1056,CH,BOUSSINE-S,5641,,,,,,,45.931801,7.33164,,,,,,,,Central Europe,Alps,G007335E45933N,RGI50-11.02952
1057,CH,BOUSSINE-N,5642,,,,,,,45.939899,7.31873,,,,,,,,Central Europe,Alps,G007319E45939N,RGI50-11.02928
1058,CH,MULETS DE LA TSESETTE,5643,,,,,,,45.944401,7.31356,,,,,,,,Central Europe,Alps,G007312E45945N,RGI50-11.02918
1059,CH,TSESETTE GLACIER DE LA,5644,,,,,,,45.948002,7.33032,,,,,,,,Central Europe,Alps,G007331E45947N,RGI50-11.02899
1060,CH,BOCHERESSE GLACIER DE,5645,,,,,,,45.984901,7.3225,,,,,,,,Central Europe,Alps,G007321E45985N,RGI50-11.02820
1061,CH,AVRIL-II,5646,,,,,,,45.9175,7.351,,,,,,,,Central Europe,Alps,G007351E45918N,
1062,CH,GRAND TAVE,5647,,,,,,,45.9921,7.31603,,,,,,,,Central Europe,Alps,G007316E45993N,
1063,CH,COMBIN DE CORBASSIERE-E (PART OF B83/03),5648,,,,,,,45.974998,7.28769,,,,,,,,Central Europe,Alps,G007285E45974N,RGI50-11.02838
1064,CH,PETIT COMBIN-E (PART OF B83/03),5649,,,,,,,45.979401,7.27477,,,,,,,,Central Europe,Alps,G007277E45982N,RGI50-11.02782
1065,CH,FOLLATS GLACIER DES,5650,,,,,,,45.985699,7.27476,,,,,,,,Central Europe,Alps,G007273E45985N,RGI50-11.02806
1066,CH,PETIT COMBIN GLACIER DU-I,5651,,,,,,,45.992901,7.27473,,,,,,,,Central Europe,Alps,G007275E45993N,RGI50-11.02804
1067,CH,PETIT COMBIN GLACIER DU-II,5652,,,,,,,45.9884,7.267,,,,,,,,Central Europe,Alps,G007267E45987N,RGI50-11.02801
1068,CH,PETIT COMBIN GLACIER DU-III,5653,,,,,,,45.9884,7.25926,,,,,,,,Central Europe,Alps,G007263E45986N,
1069,CH,PENDANT GLACIER,5654,,,,,,,45.983002,7.26186,,,,,,,,Central Europe,Alps,G007262E45983N,RGI50-11.02831
1070,CH,TROUYE GLACIER DE LA,5655,,,,,,,45.937199,7.27103,,,,,,,,Central Europe,Alps,G007270E45936N,
1071,CH,MEITIN GLACIER DU,5656,,,,,,,45.932701,7.27878,,,,,,,,Central Europe,Alps,G007277E45933N,
1072,CH,SONADON GLACIER DU,5657,,,,,,,45.925499,7.28912,,,,,,,,Central Europe,Alps,G007292E45931N,RGI50-11.02949
1073,CH,LES LUISETTES,5658,,,,,,,45.918301,7.2814,,,,,,,,Central Europe,Alps,G007281E45918N,
1074,CH,GRAND CARRE (PART OF B84/15),5659,,,,,,,45.911098,7.27885,,,,,,,,Central Europe,Alps,G007279E45911N,
1075,CH,PETIT VELAN,5660,,,,,,,45.909199,7.23633,,,,,,,,Central Europe,Alps,G007236E45909N,
1076,CH,PIEUDET GLACIER DE,5661,,,,,,,45.903801,7.23506,,,,,,,,Central Europe,Alps,G007236E45904N,
1077,CH,PROZ GLACIER DE,5662,,,,,,,45.895698,7.23251,,,,,,,,Central Europe,Alps,G007237E45894N,
1078,CH,MONT VELAN-W,5663,,,,,,,45.893902,7.2454,,,,,,,,Central Europe,Alps,G007246E45893N,RGI50-11.03032
1079,CH,ANGRONIETTES GLACIER DES,5664,,,,,,,45.863899,7.11031,,,,,,,,Central Europe,Alps,G007106E45862N,
1080,CH,LES ROSETTES,5665,,,,,,,45.930401,7.06351,,,,,,,,Central Europe,Alps,G007062E45929N,
1081,CH,TREUTSE BO GLACIER DE,5666,,,,,,,45.9538,7.07237,,,,,,,,Central Europe,Alps,G007070E45955N,RGI50-11.02886
1082,CH,PLANEREUSES GLACIER DES,5667,,,,,,,45.962799,7.06973,,,,,,,,Central Europe,Alps,G007070E45964N,RGI50-11.02867
1083,CH,CRETE SECHE-NE,5668,,,,,,,45.960098,7.08136,,,,,,,,Central Europe,Alps,G007082E45960N,RGI50-11.02878
1084,CH,EVOLE GLACIER DE L',5669,,,,,,,45.971802,7.07354,,,,,,,,Central Europe,Alps,G007075E45972N,RGI50-11.02852
1085,CH,SUZANNE  (PART OF B85/16),5670,,,,,,,45.978901,7.03866,,,,,,,,Central Europe,Alps,G007036E45979N,RGI50-11.02830
1086,CH,PLINES GLACIER DES  (PART OF B85/16),5671,,,,,,,45.981602,7.04638,,,,,,,,Central Europe,Alps,G007047E45986N,
1087,CH,RAVINES ROUSSES GLACIER DES,5672,,,,,,,45.9888,7.0502,,,,,,,,Central Europe,Alps,G007049E45990N,RGI50-11.02807
1088,CH,PORTALET-I,5673,,,,,,,45.993301,7.06436,,,,,,,,Central Europe,Alps,G007063E45992N,RGI50-11.02805
1089,CH,PORTALET-II,5674,,,,,,,45.992401,7.05792,,,,,,,,Central Europe,Alps,G007058E45992N,
1090,CH,ORNY GLACIER D' (NO. 108),5675,,,,,,,45.996899,7.05143,,,,,,,,Central Europe,Alps,G007045E45994N,RGI50-11.02793
1091,CH,GRANDE LUI,5676,,,,,,,45.954601,7.05431,,,,,,,,Central Europe,Alps,G007051E45956N,RGI50-11.02891
1092,CH,EVOLE-W,5677,,,,,,,45.970902,7.06968,,,,,,,,Central Europe,Alps,G007070E45970N,RGI50-11.02855
1093,CH,ARPETTE GLACIER D',5678,,,,,,,46.008598,7.04748,,,,,,,,Central Europe,Alps,G007048E46006N,
1094,CH,ROND GLACIER,5679,,,,,,,46.007702,7.06556,,,,,,,,Central Europe,Alps,G007065E46008N,
1095,CH,OTANES,5680,,,,,,,46.007599,7.0165,,,,,,,,Central Europe,Alps,G007015E46007N,RGI50-11.02773
1096,CH,GRANDS GLACIER DES,5681,,,,,,,46.005699,6.99973,,,,,,,,Central Europe,Alps,G006999E46003N,RGI50-11.02770
1097,CH,BERONS GLACIER DES,5682,,,,,,,46.0084,6.99068,,,,,,,,Central Europe,Alps,G006988E46007N,
1098,CH,PETOUDES,5683,,,,,,,46.005699,7.00877,,,,,,,,Central Europe,Alps,G007010E46002N,RGI50-11.02766
1099,CH,PTE. DE LA TERASSE-E,5684,,,,,,,46.0439,6.88962,,,,,,,,Central Europe,Alps,G006889E46043N,
1100,CH,FINIVE GLACIER DE LA,5685,,,,,,,46.0727,6.89967,,,,,,,,Central Europe,Alps,G006898E46080N,RGI50-11.02622
1101,CH,TENNEVERGE,5686,,,,,,,46.093399,6.89042,,,,,,,,Central Europe,Alps,G006888E46092N,RGI50-11.02584
1102,CH,ROSSES GLACIER DES,5687,,,,,,,46.099701,6.89294,,,,,,,,Central Europe,Alps,G006894E46101N,RGI50-11.02575
1103,CH,COL DU RUAN,5688,,,,,,,46.111401,6.898,,,,,,,,Central Europe,Alps,G006897E46111N,RGI50-11.02561
1104,CH,FONDS GLACIER DES,5689,,,,,,,46.1241,6.91469,,,,,,,,Central Europe,Alps,G006908E46121N,RGI50-11.02536
1105,CH,TOUR SALLIERE GLACIER DE LA-I,5690,,,,,,,46.121498,6.93282,,,,,,,,Central Europe,Alps,G006933E46122N,
1106,CH,FONTANABRAN,5691,,,,,,,46.098999,6.94209,,,,,,,,Central Europe,Alps,G006944E46100N,
1107,CH,SEX BLANCS,5692,,,,,,,46.052898,6.88307,,,,,,,,Central Europe,Alps,G006884E46053N,
1108,CH,BOSSES,5693,,,,,,,46.0933,6.88524,,,,,,,,Central Europe,Alps,G006885E46094N,
1109,CH,TOUR SALLIERE GLACIER DE LA -II,5694,,,,,,,46.1232,6.92634,,,,,,,,Central Europe,Alps,G006928E46124N,RGI50-11.02543
1110,CH,GRAND REVERS,5695,,,,,,,46.131401,6.9392,,,,,,,,Central Europe,Alps,G006938E46130N,
1111,CH,NOIR GLACIER,5696,,,,,,,46.131302,6.92885,,,,,,,,Central Europe,Alps,G006929E46131N,RGI50-11.02519
1112,CH,PLAN CHATEAU,5697,,,,,,,46.142101,6.92487,,,,,,,,Central Europe,Alps,G006924E46142N,RGI50-11.02497
1113,CH,PLAN NEVE,5698,,,,,,,46.1674,6.94017,,,,,,,,Central Europe,Alps,G006937E46167N,RGI50-11.02448
1114,CH,TOUR SALLIERE-E,5699,,,,,,,46.1259,6.9289,,,,,,,,Central Europe,Alps,G006928E46127N,
1115,CH,CREUX CHATEAU,5700,,,,,,,46.1376,6.92879,,,,,,,,Central Europe,Alps,G006930E46137N,RGI50-11.02510
1116,CH,PLAN NEVE (CIME DE L'EST),5701,,,,,,,46.1773,6.95562,,,,,,,,Central Europe,Alps,G006953E46176N,RGI50-11.02439
1117,CH,CHALIN GLACIER DE,5702,,,,,,,46.176399,6.94008,,,,,,,,Central Europe,Alps,G006941E46176N,
1118,CH,LA FORTERESSE,5703,,,,,,,46.171902,6.94142,,,,,,,,Central Europe,Alps,G006941E46172N,RGI50-11.02445
1119,CH,SOI GLACIER DE,5704,,,,,,,46.168201,6.91944,,,,,,,,Central Europe,Alps,G006924E46169N,
1120,CH,ANTEME-E,5705,,,,,,,46.1591,6.90658,,,,,,,,Central Europe,Alps,G006906E46159N,
1121,CH,L'EGLISE-N,5706,,,,,,,46.1394,6.91713,,,,,,,,Central Europe,Alps,G006918E46139N,
1122,CH,L'EGLISE-S,5707,,,,,,,46.133099,6.92107,,,,,,,,Central Europe,Alps,G006921E46133N,RGI50-11.02517
1123,CH,GRANDE PENTE,5708,,,,,,,46.133999,6.91201,,,,,,,,Central Europe,Alps,G006910E46134N,RGI50-11.02516
1124,CH,M. RUAN GLACIER DU (PART OF B95/20N),5709,,,,,,,46.128502,6.90818,,,,,,,,Central Europe,Alps,G006910E46127N,RGI50-11.02525
1125,CH,OTTANS GLACIER DES,5710,,,,,,,46.128399,6.88359,,,,,,,,Central Europe,Alps,G006882E46128N,RGI50-11.02531
1126,CH,PETIT RUAN-I,5711,,,,,,,46.124901,6.89527,,,,,,,,Central Europe,Alps,G006895E46125N,RGI50-11.02541
1127,CH,DENT DU SIGNAL,5712,,,,,,,46.132599,6.82274,,,,,,,,Central Europe,Alps,G006823E46133N,
1128,CH,ANTEME-W,5713,,,,,,,46.158199,6.90141,,,,,,,,Central Europe,Alps,G006901E46159N,
1129,CH,GRAND RUAN-I,5714,,,,,,,46.124901,6.90433,,,,,,,,Central Europe,Alps,G006905E46125N,
1130,CH,GRAND RUAN-II,5715,,,,,,,46.124901,6.90045,,,,,,,,Central Europe,Alps,G006900E46125N,
1131,CH,PETIT RUAN-II,5716,,,,,,,46.124802,6.88881,,,,,,,,Central Europe,Alps,G006888E46125N,
1132,CH,SUSANFE (PART OF B95/20),5717,,,,,,,46.131199,6.89133,,,,,,,,Central Europe,Alps,G006890E46130N,
1133,CH,COMBA MORNAY,5718,,,,,,,46.134499,6.84342,,,,,,,,Central Europe,Alps,G006842E46134N,
1134,CH,SEX VERNAYS-E,5719,,,,,,,46.133598,6.83437,,,,,,,,Central Europe,Alps,G006835E46134N,
1135,CH,SEX VERNAYS-W,5720,,,,,,,46.133499,6.82661,,,,,,,,Central Europe,Alps,G006827E46134N,
1136,CH,LANCHE DES AUX,5721,,,,,,,46.132599,6.81627,,,,,,,,Central Europe,Alps,G006815E46132N,
1137,CH,PIZZO D'ANDOLLA-E-IV,5722,,,,,,,46.103901,8.04645,,,,,,,,Central Europe,Alps,G008046E46103N,RGI50-11.02593
1138,CH,ZWISCHBERGEN,5723,,,,,,,46.106602,8.04002,,,,,,,,Central Europe,Alps,G008039E46106N,RGI50-11.02588
1139,CH,WEISSMIES-SE,5724,,,,,,,46.123798,8.01821,,,,,,,,Central Europe,Alps,G008018E46124N,RGI50-11.02566
1140,CH,TAELLIHORN-SW,5725,,,,,,,46.120098,8.0337,,,,,,,,Central Europe,Alps,G008034E46120N,RGI50-11.02573
1141,CH,TAELLI-E (ZIBELENFLUEHORN) (PART OF C01/12N),5726,,,,,,,46.127201,8.05836,,,,,,,,Central Europe,Alps,G008060E46127N,RGI50-11.02557
1142,CH,TAELLI-W,5727,,,,,,,46.1282,8.04155,,,,,,,,Central Europe,Alps,G008042E46125N,RGI50-11.02555
1143,CH,WEISSMIES,5728,,,,,,,46.126499,8.0273,,,,,,,,Central Europe,Alps,G008029E46127N,RGI50-11.02529
1144,CH,WEISSMIES-NE,5729,,,,,,,46.1283,8.01309,,,,,,,,Central Europe,Alps,G008014E46130N,RGI50-11.02554
1145,CH,LAGGIN,5730,,,,,,,46.139999,8.0145,,,,,,,,Central Europe,Alps,G008013E46143N,RGI50-11.02512
1146,CH,HOLUTRIFT,5731,,,,,,,46.158901,8.01341,,,,,,,,Central Europe,Alps,G008016E46158N,RGI50-11.02488
1147,CH,SIBILUFLUE,5732,,,,,,,46.164299,8.02123,,,,,,,,Central Europe,Alps,G008020E46163N,RGI50-11.02478
1148,CH,BREITS LOIB,5733,,,,,,,46.187698,8.01889,,,,,,,,Central Europe,Alps,G008021E46188N,RGI50-11.02444
1149,CH,SENGGCHUPPA,5734,,,,,,,46.1815,7.99681,,,,,,,,Central Europe,Alps,G007997E46182N,RGI50-11.02449
1150,CH,BOESHORN-NE,5735,,,,,,,46.200401,7.997,,,,,,,,Central Europe,Alps,G007997E46201N,
1151,CH,ALPJER,5736,,,,,,,46.244801,8.10378,,,,,,,,Central Europe,Alps,G008096E46244N,RGI50-11.02385
1152,CH,BASODINO-N,5737,,,,,,,46.424702,8.46635,,,,,,,,Central Europe,Alps,G008466E46419N,RGI50-11.01952
1153,CH,BASODINO-NW,5738,,,,,,,46.4203,8.45976,,,,,,,,Central Europe,Alps,G008459E46421N,
1154,CH,P. DEL ARZO-NW,5739,,,,,,,46.447899,8.48631,,,,,,,,Central Europe,Alps,G008486E46446N,RGI50-11.01889
1155,CH,ANTABIA-W GHIACCIAIO D' (PART OF C14/04),5740,,,,,,,46.4058,8.46599,,,,,,,,Central Europe,Alps,G008466E46406N,RGI50-11.02060
1156,CH,LAVINA DI CROSLINA ('73 COMBINED),5741,,,,,,,46.4324,8.76577,,,,,,,,Central Europe,Alps,G008766E46432N,
1157,CH,CROSLINA PICCOLO GHIACCIAIO DI,5742,,,,,,,46.437401,8.72425,,,,,,,,Central Europe,Alps,G008722E46437N,
1158,CH,P. DEL PREVAT-E,5743,,,,,,,46.4599,8.71827,,,,,,,,Central Europe,Alps,G008715E46460N,
1159,CH,CHUEEBODEN-I,5744,,,,,,,46.503101,8.4509,,,,,,,,Central Europe,Alps,G008450E46503N,RGI50-11.01685
1160,CH,PESCIORA GHIACCIAIO DI,5745,,,,,,,46.523602,8.47604,,,,,,,,Central Europe,Alps,G008476E46519N,
1161,CH,PIZZO ROTONDO GHIACCIAIO DEL-E (PART OF C35/03),5746,,,,,,,46.5102,8.46406,,,,,,,,Central Europe,Alps,G008464E46510N,
1162,CH,P. PREVAT-W ('73 ONLY AREA),5747,,,,,,,46.571602,8.62307,,,,,,,,Central Europe,Alps,G008623E46572N,
1163,CH,P. CENTRALE-S ('73 ONLY AREA),5748,,,,,,,46.573502,8.61659,,,,,,,,Central Europe,Alps,G008617E46573N,
1164,CH,CAMADRA VADREC DI,5749,,,,,,,46.613201,8.90991,,,,,,,,Central Europe,Alps,G008908E46614N,RGI50-11.01323
1165,CH,PIZ MEDEL-SE,5750,,,,,,,46.617699,8.91395,,,,,,,,Central Europe,Alps,G008915E46618N,RGI50-11.01312
1166,CH,PLATTENBERG-NW,5751,,,,,,,46.562302,9.02201,,,,,,,,Central Europe,Alps,G009023E46560N,
1167,CH,SORDA VADRECC DI,5752,,,,,,,46.537998,9.01869,,,,,,,,Central Europe,Alps,,RGI50-11.01523
1168,CH,SCARADRA VADRECC DI,5753,,,,,,,46.5373,9.00563,,,,,,,,Central Europe,Alps,G009007E46538N,
1169,CH,PIZZO DI CASSIMOI-NW,5754,,,,,,,46.531799,9.0146,,,,,,,,Central Europe,Alps,G009015E46532N,
1170,CH,CASLETTO VADRECC DI,5755,,,,,,,46.5056,9.020351,,,,,,,,Central Europe,Alps,,
1171,CH,GIUMELLO GHIACCIAIO DI,5756,,,,,,,46.474998,9.08067,,,,,,,,Central Europe,Alps,,RGI50-11.01815
1172,CH,PIOTTA GHIACCIAIO DI.,5757,,,,,,,46.447899,9.08896,,,,,,,,Central Europe,Alps,,
1173,CH,ALTO GHIACCIAIO DI,5758,,,,,,,46.349098,9.07816,,,,,,,,Central Europe,Alps,G009078E46349N,
1174,CH,BASSO GHIACCIAIO DI,5759,,,,,,,46.3484,9.06775,,,,,,,,Central Europe,Alps,G009069E46347N,
1175,CH,STABI GHIACCIAIO DE,5760,,,,,,,46.473999,9.09106,,,,,,,,Central Europe,Alps,,RGI50-11.01820
1176,CH,ZAPPORTHORN-SW,5761,,,,,,,46.478298,9.10682,,,,,,,,Central Europe,Alps,,RGI50-11.01805
1177,CH,PIZ DE MUCIA (PART OF C53/03),5762,,,,,,,46.4688,9.13648,,,,,,,,Central Europe,Alps,,
1178,CH,MUCIA GHIACCIAIO DE (PART OF C53/03),5763,,,,,,,46.4781,9.11853,,,,,,,,Central Europe,Alps,,RGI50-11.01802
1179,CH,PIZ DUAN-NE,5764,,,,,,,46.3783,9.59,,,,,,,,Central Europe,Alps,,
1180,CH,PIZ DUAN-N,5765,,,,,,,46.376598,9.58473,,,,,,,,Central Europe,Alps,,
1181,CH,PIZ DUAN-NW,5766,,,,,,,46.378502,9.5822,,,,,,,,Central Europe,Alps,,RGI50-11.02180
1182,CH,VAL MURETTO,5767,,,,,,,46.3433,9.72246,,,,,,,,Central Europe,Alps,,
1183,CH,ROSSI VADRET DEI,5768,,,,,,,46.3498,9.71623,,,,,,,,Central Europe,Alps,,
1184,CH,MONTE DEL FORNO,5769,,,,,,,46.338001,9.72093,,,,,,,,Central Europe,Alps,,RGI50-11.02246
1185,CH,SELLA DEL FORNO,5770,,,,,,,46.329102,9.71666,,,,,,,,Central Europe,Alps,G009717E46328N,RGI50-11.02259
1186,CH,PASS DA CASNIL,5771,,,,,,,46.331501,9.68428,,,,,,,,Central Europe,Alps,,RGI50-11.02257
1187,CH,BACUN VADR. DAL,5772,,,,,,,46.3442,9.67961,,,,,,,,Central Europe,Alps,G009681E46344N,RGI50-11.02237
1188,CH,CANTUN VADREC DAL,5773,,,,,,,46.3181,9.67853,,,,,,,,Central Europe,Alps,,RGI50-11.02268
1189,CH,PASS DI CACIADUR,5774,,,,,,,46.325199,9.68532,,,,,,,,Central Europe,Alps,,RGI50-11.02266
1190,CH,CASTEL N VADREC DAL,5775,,,,,,,46.308399,9.66904,,,,,,,,Central Europe,Alps,,RGI50-11.02282
1191,CH,CASTEL SUD VADREC DAL,5776,,,,,,,46.3013,9.66615,,,,,,,,Central Europe,Alps,,RGI50-11.02299
1192,CH,SCIORA DAFORA-N,5777,,,,,,,46.3093,9.62493,,,,,,,,Central Europe,Alps,G009624E46309N,
1193,CH,BONDASCA VADREC DA LA,5778,,,,,,,46.300499,9.61548,,,,,,,,Central Europe,Alps,G009615E46296N,RGI50-11.02293
1194,CH,CENGAL VADREC DAL,5779,,,,,,,46.3027,9.5935,,,,,,,,Central Europe,Alps,G009593E46301N,RGI50-11.02303
1195,CH,TRUBINASCA VADREC DA LA-E,5780,,,,,,,46.301102,9.58045,,,,,,,,Central Europe,Alps,G009580E46300N,
1196,CH,TRUBINASCA VADREC DA LA-W,5781,,,,,,,46.303101,9.57144,,,,,,,,Central Europe,Alps,G009572E46301N,RGI50-11.02304
1197,CH,VARUNA VEDRETTA DI (PART CH),5782,,,,,,,46.347401,9.99815,,,,,,,,Central Europe,Alps,G009996E46345N,RGI50-11.02229
1198,CH,CANTON VADRET DA,5783,,,,,,,46.3563,9.99987,,,,,,,,Central Europe,Alps,G009999E46357N,
1199,CH,SASSAL MASON VADRET DAL,5784,,,,,,,46.392101,10.0107,,,,,,,,Central Europe,Alps,,RGI50-11.02107
1200,CH,CAMBRENA-E (PART OF C93/09),5785,,,,,,,46.394901,10.0056,,,,,,,,Central Europe,Alps,,RGI50-11.02096
1201,CH,ZUORT VADRET DA,5786,,,,,,,46.736999,10.2693,,,,,,,,Central Europe,Alps,G010268E46735N,
1202,CH,PIZ PRUENA-I,5787,,,,,,,46.485298,9.98773,,,,,,,,Central Europe,Alps,,RGI50-11.01761
1203,CH,PIZ PISCHA-NW,5788,,,,,,,46.4818,9.98105,,,,,,,,Central Europe,Alps,,
1204,CH,PIZ PRUENA-II,5789,,,,,,,46.485199,9.99163,,,,,,,,Central Europe,Alps,G009990E46484N,
1205,CH,CLUEX-II,5790,,,,,,,46.492401,9.95157,,,,,,,,Central Europe,Alps,G009952E46493N,
1206,CH,OLIVET,5791,,,,,,,46.517502,9.95405,,,,,,,,Central Europe,Alps,G009955E46519N,
1207,CH,MURAGL VADRET-E,5792,,,,,,,46.497101,9.94267,,,,,,,,Central Europe,Alps,G009942E46497N,RGI50-11.01707
1208,CH,MURAGL-W,5793,,,,,,,46.499901,9.93628,,,,,,,,Central Europe,Alps,G009936E46499N,
1209,CH,ARLAS VADRET D',5794,,,,,,,46.4007,9.98506,,,,,,,,Central Europe,Alps,,RGI50-11.02070
1210,CH,DIAVOLEZZA,5795,,,,,,,46.4128,9.96741,,,,,,,,Central Europe,Alps,,
1211,CH,PRIEVLUS VADRET,5796,,,,,,,46.401501,9.91094,,,,,,,,Central Europe,Alps,,RGI50-11.02065
1212,CH,BOVAL DADAINS VADRET-NE,5797,,,,,,,46.409599,9.9113,,,,,,,,Central Europe,Alps,,RGI50-11.02025
1213,CH,BOVAL DADAINS VADRET-N,5798,,,,,,,46.411499,9.90619,,,,,,,,Central Europe,Alps,,
1214,CH,BOVAL DADOUR VADRET,5799,,,,,,,46.422401,9.90278,,,,,,,,Central Europe,Alps,,RGI50-11.01960
1215,CH,PIZ MORTERATSCH-NE,5800,,,,,,,46.405102,9.9098,,,,,,,,Central Europe,Alps,,RGI50-11.02042
1216,CH,PIZ MORTERATSCH-N,5801,,,,,,,46.4062,9.90334,,,,,,,,Central Europe,Alps,G009903E46406N,RGI50-11.02032
1217,CH,MISAUN VADRETTIN DA-N,5802,,,,,,,46.429699,9.8953,,,,,,,,Central Europe,Alps,,RGI50-11.01938
1218,CH,MISAUN VADRETTIN DA-S,5803,,,,,,,46.4263,9.88994,,,,,,,,Central Europe,Alps,,RGI50-11.01945
1219,CH,MISAUN VADRET DA,5804,,,,,,,46.418999,9.89221,,,,,,,,Central Europe,Alps,,RGI50-11.01968
1220,CH,FLECK NAMENLOS-II,5805,,,,,,,46.377201,9.87082,,,,,,,,Central Europe,Alps,,RGI50-11.02175
1221,CH,CHAPUETSCHIN VADRET DAL,5806,,,,,,,46.380901,9.82287,,,,,,,,Central Europe,Alps,,RGI50-11.02154
1222,CH,PIZ DA LEJ ALV,5807,,,,,,,46.386398,9.81791,,,,,,,,Central Europe,Alps,,RGI50-11.02140
1223,CH,FUORCLA DA LEJ SGRISCHUS,5808,,,,,,,46.4016,9.819879,,,,,,,,Central Europe,Alps,,RGI50-11.02071
1224,CH,ALP OTA VADRET DA L',5809,,,,,,,46.4132,9.82819,,,,,,,,Central Europe,Alps,,RGI50-11.02001
1225,CH,CORVATSCH-N (PART OF E23/18),5810,,,,,,,46.422199,9.82469,,,,,,,,Central Europe,Alps,G009825E46422N,RGI50-11.01962
1226,CH,CORVATSCH-S (PART OF E23/18),5811,,,,,,,46.416802,9.82445,,,,,,,,Central Europe,Alps,,RGI50-11.01962
1227,CH,ROSATSCH VADRET DA,5812,,,,,,,46.4613,9.84985,,,,,,,,Central Europe,Alps,G009851E46461N,RGI50-11.01847
1228,CH,MURTEL VADRET DAL,5813,,,,,,,46.413502,9.81389,,,,,,,,Central Europe,Alps,G009814E46414N,
1229,CH,PLAUN DA LAS FURTSCHELLAS,5814,,,,,,,46.403599,9.81346,,,,,,,,Central Europe,Alps,,RGI50-11.02059
1230,CH,CHAPUETSCHIN VADRETTIN DAL,5815,,,,,,,46.377399,9.81621,,,,,,,,Central Europe,Alps,G009816E46378N,RGI50-11.02164
1231,CH,TREMOGGIA VADRET DAL,5816,,,,,,,46.359402,9.81672,,,,,,,,Central Europe,Alps,,RGI50-11.02195
1232,CH,FEX VADRET DA,5817,,,,,,,46.349098,9.79548,,,,,,,,Central Europe,Alps,,RGI50-11.02223
1233,CH,GUEZ VADRET DAL,5818,,,,,,,46.355701,9.77757,,,,,,,,Central Europe,Alps,,RGI50-11.02208
1234,CH,FEDOZ VADREC DA,5819,,,,,,,46.3451,9.76931,,,,,,,,Central Europe,Alps,,RGI50-11.02222
1235,CH,FEDOZ-W,5820,,,,,,,46.349098,9.75129,,,,,,,,Central Europe,Alps,,RGI50-11.02226
1236,CH,PIZZO DEL MURETTO-NE,5821,,,,,,,46.352798,9.74625,,,,,,,,Central Europe,Alps,,RGI50-11.02221
1237,CH,PIZ FEDOZ-SE,5822,,,,,,,46.3582,9.74388,,,,,,,,Central Europe,Alps,,RGI50-11.02212
1238,CH,LAGREV VADRET,5823,,,,,,,46.4538,9.73362,,,,,,,,Central Europe,Alps,,
1239,CH,GUEGLIA VADRET-S,5824,,,,,,,46.492802,9.76264,,,,,,,,Central Europe,Alps,,RGI50-11.01732
1240,CH,PIZ OT VADRET DAL,5825,,,,,,,46.5476,9.81456,,,,,,,,Central Europe,Alps,,
1241,CH,PALUED MARSCHA VADRET,5826,,,,,,,46.535198,9.80358,,,,,,,,Central Europe,Alps,G009798E46532N,
1242,CH,GIAVIOEL VADRET DAL,5827,,,,,,,46.5163,9.75974,,,,,,,,Central Europe,Alps,,
1243,CH,PIZ BEVER,5828,,,,,,,46.523399,9.76265,,,,,,,,Central Europe,Alps,G009762E46522N,
1244,CH,BEVER PITSCHEN,5829,,,,,,,46.526199,9.75756,,,,,,,,Central Europe,Alps,G009758E46525N,
1245,CH,TRAUNTER OVAS-W (PART OF E35/12),5830,,,,,,,46.510601,9.72821,,,,,,,,Central Europe,Alps,,
1246,CH,AGNEL VADRET D',5831,,,,,,,46.514599,9.71143,,,,,,,,Central Europe,Alps,,RGI50-11.01603
1247,CH,PIZ CALDERAS,5832,,,,,,,46.533699,9.69919,,,,,,,,Central Europe,Alps,,RGI50-11.01546
1248,CH,ERR VADRET D',5833,,,,,,,46.538101,9.70329,,,,,,,,Central Europe,Alps,,RGI50-11.01516
1249,CH,PIZ LAVINER,5834,,,,,,,46.550098,9.73249,,,,,,,,Central Europe,Alps,,RGI50-11.01494
1250,CH,TRAUNTER OVAS VADRET DA (PART OF E35/12),5835,,,,,,,46.507599,9.74633,,,,,,,,Central Europe,Alps,,RGI50-11.01647
1251,CH,LAVINER VADRET (PART OF E35/23),5836,,,,,,,46.542301,9.72042,,,,,,,,Central Europe,Alps,,
1252,CH,PISCHA VADRET,5837,,,,,,,46.615601,9.87241,,,,,,,,Central Europe,Alps,G009872E46617N,
1253,CH,ES-CHA VADRET D',5838,,,,,,,46.618,9.88819,,,,,,,,Central Europe,Alps,G009883E46617N,
1254,CH,VILUOCH VADRET-E,5839,,,,,,,46.625599,9.91074,,,,,,,,Central Europe,Alps,,RGI50-11.01285
1255,CH,VILUOCH-W,5840,,,,,,,46.631199,9.89924,,,,,,,,Central Europe,Alps,,RGI50-11.01274
1256,CH,SCALETTAPASS-E,5841,,,,,,,46.6926,9.93605,,,,,,,,Central Europe,Alps,,RGI50-11.01182
1257,CH,VALLORGIA VADRET,5842,,,,,,,46.689602,9.94899,,,,,,,,Central Europe,Alps,,RGI50-11.01181
1258,CH,PUNTOTA VADRET DA-II,5843,,,,,,,46.6865,9.96715,,,,,,,,Central Europe,Alps,,RGI50-11.01200
1259,CH,PUNTOTA-VADRET DA-III,5844,,,,,,,46.687199,9.97634,,,,,,,,Central Europe,Alps,G009977E46689N,
1260,CH,SARSURA VADRET DA-E (T OF E44/04),5845,,,,,,,46.6926,10.0145,,,,,,,,Central Europe,Alps,,RGI50-11.01180
1261,CH,SARSURA VADRET DA (PART OF E44/04),5846,,,,,,,46.6973,10.0069,,,,,,,,Central Europe,Alps,,RGI50-11.01165
1262,CH,GLETSCHTAELI,5847,,,,,,,46.7066,9.99426,,,,,,,,Central Europe,Alps,,
1263,CH,GRIALETSCH VADRET DA,5848,,,,,,,46.6954,9.97149,,,,,,,,Central Europe,Alps,,RGI50-11.01173
1264,CH,CCHILBIRITZEN,5849,,,,,,,46.701,9.95999,,,,,,,,Central Europe,Alps,G009960E46700N,RGI50-11.01169
1265,CH,RADOENT VADRET DA,5850,,,,,,,46.724499,9.95716,,,,,,,,Central Europe,Alps,,
1266,CH,SCHWARZHORN GR,5851,,,,,,,46.739201,9.94344,,,,,,,,Central Europe,Alps,G009942E46739N,
1267,CH,CHAMPATSCH-N,5852,,,,,,,46.763302,9.99172,,,,,,,,Central Europe,Alps,,RGI50-11.01079
1268,CH,JOERIFLESS-S,5853,,,,,,,46.766201,9.98399,,,,,,,,Central Europe,Alps,G009984E46766N,
1269,CH,SAGLIAINS VADRET,5854,,,,,,,46.810299,10.0621,,,,,,,,Central Europe,Alps,G010062E46811N,RGI50-11.00936
1270,CH,MUNTANELLAS,5855,,,,,,,46.803799,10.0723,,,,,,,,Central Europe,Alps,G010071E46804N,RGI50-11.00956
1271,CH,MAISAS VADRET DA LAS,5856,,,,,,,46.8307,10.0762,,,,,,,,Central Europe,Alps,,RGI50-11.00880
1272,CH,ANSCHATSCHA,5857,,,,,,,46.812599,10.1199,,,,,,,,Central Europe,Alps,G010120E46812N,
1273,CH,PLAN RAI,5858,,,,,,,46.834499,10.1066,,,,,,,,Central Europe,Alps,,RGI50-11.00868
1274,CH,VERMUNT VADRET-E (PART OF E51/04),5859,,,,,,,46.845501,10.1347,,,,,,,,Central Europe,Alps,G010136E46846N,RGI50-11.00842
1275,CH,TUOI VADRET,5860,,,,,,,46.8479,10.1492,,,,,,,,Central Europe,Alps,G010149E46849N,RGI50-11.00829
1276,CH,VERMUNT VADRET-W (PART OF E51/04),5861,,,,,,,46.846699,10.1242,,,,,,,,Central Europe,Alps,G010125E46847N,RGI50-11.00838
1277,CH,FUORCLA D'UREZZAS,5862,,,,,,,46.8484,10.1663,,,,,,,,Central Europe,Alps,G010162E46849N,RGI50-11.00781
1278,CH,UREZZAS VADRET D',5863,,,,,,,46.8508,10.1795,,,,,,,,Central Europe,Alps,G010181E46853N,RGI50-11.00809
1279,CH,CHALAUS VADRET DA,5864,,,,,,,46.8577,10.1891,,,,,,,,Central Europe,Alps,G010189E46860N,RGI50-11.00793
1280,CH,FUTSCHOEL VADRET,5865,,,,,,,46.863602,10.2064,,,,,,,,Central Europe,Alps,G010207E46864N,RGI50-11.00790
1281,CH,TASNA VADRET DA-E,5866,,,,,,,46.8615,10.2575,,,,,,,,Central Europe,Alps,G010256E46863N,RGI50-11.00785
1282,CH,FENGA VADRET DA-S-II (PART OF E73/07N),5867,,,,,,,46.8736,10.239801,,,,,,,,Central Europe,Alps,G010239E46874N,RGI50-11.00765
1283,CH,FENGA VADRET DA-N-II (PART OF E73/04),5868,,,,,,,46.895302,10.2343,,,,,,,,Central Europe,Alps,G010233E46896N,RGI50-11.00723
